<?xml version="1.0" encoding="UTF-8"?> <gpx xmlns:xsi="http://www.w3.org/2001/XMLSchema-instance" version="1.1" xmlns="http://www.topografix.com/GPX/1/1" creator="Galileo Offline Maps" xsi:schemaLocation="http://www.topografix.com/GPX/1/1 http://www.topografix.com/GPX/1/1/gpx.xsd"><trk><name>Untitled Track</name><desc></desc><type>TrackStyle_ff7f00c8</type><trkseg>
<trkpt lat="45.27782" lon="-75.701247"><ele>44.0</ele><time>2022-10-08T16:59:53Z</time></trkpt>
<trkpt lat="45.277804" lon="-75.701229"><ele>44.0</ele><time>2022-10-08T16:59:54Z</time></trkpt>
<trkpt lat="45.277795" lon="-75.701238"><ele>44.0</ele><time>2022-10-08T16:59:55Z</time></trkpt>
<trkpt lat="45.277782" lon="-75.701229"><ele>44.0</ele><time>2022-10-08T16:59:56Z</time></trkpt>
<trkpt lat="45.277772" lon="-75.701229"><ele>44.0</ele><time>2022-10-08T16:59:57Z</time></trkpt>
<trkpt lat="45.27776" lon="-75.70122"><ele>44.0</ele><time>2022-10-08T16:59:58Z</time></trkpt>
<trkpt lat="45.27775" lon="-75.70122"><ele>44.0</ele><time>2022-10-08T16:59:59Z</time></trkpt>
<trkpt lat="45.277734" lon="-75.70122"><ele>44.0</ele><time>2022-10-08T17:00:00Z</time></trkpt>
<trkpt lat="45.277725" lon="-75.701211"><ele>44.0</ele><time>2022-10-08T17:00:01Z</time></trkpt>
<trkpt lat="45.277712" lon="-75.701211"><ele>45.0</ele><time>2022-10-08T17:00:02Z</time></trkpt>
<trkpt lat="45.277699" lon="-75.701211"><ele>45.0</ele><time>2022-10-08T17:00:03Z</time></trkpt>
<trkpt lat="45.277687" lon="-75.701202"><ele>45.0</ele><time>2022-10-08T17:00:04Z</time></trkpt>
<trkpt lat="45.277677" lon="-75.701202"><ele>45.0</ele><time>2022-10-08T17:00:05Z</time></trkpt>
<trkpt lat="45.277664" lon="-75.701194"><ele>45.0</ele><time>2022-10-08T17:00:06Z</time></trkpt>
<trkpt lat="45.277652" lon="-75.701194"><ele>45.0</ele><time>2022-10-08T17:00:07Z</time></trkpt>
<trkpt lat="45.277639" lon="-75.701185"><ele>45.0</ele><time>2022-10-08T17:00:08Z</time></trkpt>
<trkpt lat="45.277626" lon="-75.701185"><ele>45.0</ele><time>2022-10-08T17:00:09Z</time></trkpt>
<trkpt lat="45.27762" lon="-75.701176"><ele>45.0</ele><time>2022-10-08T17:00:10Z</time></trkpt>
<trkpt lat="45.277617" lon="-75.701167"><ele>45.0</ele><time>2022-10-08T17:00:11Z</time></trkpt>
<trkpt lat="45.277601" lon="-75.701167"><ele>45.0</ele><time>2022-10-08T17:00:12Z</time></trkpt>
<trkpt lat="45.277585" lon="-75.701167"><ele>46.0</ele><time>2022-10-08T17:00:13Z</time></trkpt>
<trkpt lat="45.277573" lon="-75.701167"><ele>45.0</ele><time>2022-10-08T17:00:14Z</time></trkpt>
<trkpt lat="45.277557" lon="-75.701167"><ele>45.0</ele><time>2022-10-08T17:00:15Z</time></trkpt>
<trkpt lat="45.277541" lon="-75.701158"><ele>46.0</ele><time>2022-10-08T17:00:16Z</time></trkpt>
<trkpt lat="45.277528" lon="-75.701158"><ele>46.0</ele><time>2022-10-08T17:00:17Z</time></trkpt>
<trkpt lat="45.277512" lon="-75.701158"><ele>46.0</ele><time>2022-10-08T17:00:18Z</time></trkpt>
<trkpt lat="45.2775" lon="-75.701158"><ele>46.0</ele><time>2022-10-08T17:00:19Z</time></trkpt>
<trkpt lat="45.277487" lon="-75.701149"><ele>46.0</ele><time>2022-10-08T17:00:20Z</time></trkpt>
<trkpt lat="45.277471" lon="-75.701149"><ele>46.0</ele><time>2022-10-08T17:00:21Z</time></trkpt>
<trkpt lat="45.277458" lon="-75.701149"><ele>46.0</ele><time>2022-10-08T17:00:22Z</time></trkpt>
<trkpt lat="45.277446" lon="-75.70114"><ele>46.0</ele><time>2022-10-08T17:00:23Z</time></trkpt>
<trkpt lat="45.277433" lon="-75.70114"><ele>46.0</ele><time>2022-10-08T17:00:24Z</time></trkpt>
<trkpt lat="45.27742" lon="-75.70114"><ele>46.0</ele><time>2022-10-08T17:00:25Z</time></trkpt>
<trkpt lat="45.277408" lon="-75.70114"><ele>46.0</ele><time>2022-10-08T17:00:26Z</time></trkpt>
<trkpt lat="45.277395" lon="-75.70114"><ele>46.0</ele><time>2022-10-08T17:00:27Z</time></trkpt>
<trkpt lat="45.277382" lon="-75.70114"><ele>46.0</ele><time>2022-10-08T17:00:28Z</time></trkpt>
<trkpt lat="45.27737" lon="-75.70114"><ele>45.0</ele><time>2022-10-08T17:00:29Z</time></trkpt>
<trkpt lat="45.277357" lon="-75.70114"><ele>45.0</ele><time>2022-10-08T17:00:30Z</time></trkpt>
<trkpt lat="45.277344" lon="-75.70114"><ele>45.0</ele><time>2022-10-08T17:00:31Z</time></trkpt>
<trkpt lat="45.277332" lon="-75.70114"><ele>46.0</ele><time>2022-10-08T17:00:32Z</time></trkpt>
<trkpt lat="45.277319" lon="-75.70114"><ele>45.0</ele><time>2022-10-08T17:00:33Z</time></trkpt>
<trkpt lat="45.277306" lon="-75.70114"><ele>45.0</ele><time>2022-10-08T17:00:34Z</time></trkpt>
<trkpt lat="45.271347" lon="-75.701804"><ele>76.0</ele><time>2022-10-08T17:08:46Z</time></trkpt>
<trkpt lat="45.271306" lon="-75.701894"><ele>91.0</ele><time>2022-10-08T17:08:47Z</time></trkpt>
<trkpt lat="45.271268" lon="-75.701966"><ele>71.0</ele><time>2022-10-08T17:08:48Z</time></trkpt>
<trkpt lat="45.271306" lon="-75.701894"><ele>52.0</ele><time>2022-10-08T17:08:49Z</time></trkpt>
<trkpt lat="45.271322" lon="-75.701867"><ele>49.0</ele><time>2022-10-08T17:08:50Z</time></trkpt>
<trkpt lat="45.271335" lon="-75.701867"><ele>47.0</ele><time>2022-10-08T17:08:51Z</time></trkpt>
<trkpt lat="45.271322" lon="-75.701876"><ele>46.0</ele><time>2022-10-08T17:08:52Z</time></trkpt>
<trkpt lat="45.271306" lon="-75.701894"><ele>44.0</ele><time>2022-10-08T17:08:53Z</time></trkpt>
<trkpt lat="45.271287" lon="-75.701912"><ele>45.0</ele><time>2022-10-08T17:08:54Z</time></trkpt>
<trkpt lat="45.271278" lon="-75.701912"><ele>44.0</ele><time>2022-10-08T17:08:55Z</time></trkpt>
<trkpt lat="45.271268" lon="-75.701921"><ele>44.0</ele><time>2022-10-08T17:08:56Z</time></trkpt>
<trkpt lat="45.271259" lon="-75.701921"><ele>44.0</ele><time>2022-10-08T17:08:57Z</time></trkpt>
<trkpt lat="45.271249" lon="-75.701921"><ele>44.0</ele><time>2022-10-08T17:08:58Z</time></trkpt>
<trkpt lat="45.27124" lon="-75.70193"><ele>44.0</ele><time>2022-10-08T17:08:59Z</time></trkpt>
<trkpt lat="45.271227" lon="-75.701939"><ele>44.0</ele><time>2022-10-08T17:09:00Z</time></trkpt>
<trkpt lat="45.271217" lon="-75.701948"><ele>44.0</ele><time>2022-10-08T17:09:01Z</time></trkpt>
<trkpt lat="45.271189" lon="-75.701957"><ele>44.0</ele><time>2022-10-08T17:09:04Z</time></trkpt>
<trkpt lat="45.27117" lon="-75.701966"><ele>44.0</ele><time>2022-10-08T17:09:05Z</time></trkpt>
<trkpt lat="45.271157" lon="-75.701966"><ele>44.0</ele><time>2022-10-08T17:09:06Z</time></trkpt>
<trkpt lat="45.271148" lon="-75.701975"><ele>44.0</ele><time>2022-10-08T17:09:07Z</time></trkpt>
<trkpt lat="45.271135" lon="-75.701975"><ele>44.0</ele><time>2022-10-08T17:09:08Z</time></trkpt>
<trkpt lat="45.271135" lon="-75.701975"><ele>44.0</ele><time>2022-10-08T17:09:08Z</time></trkpt>
<trkpt lat="45.271125" lon="-75.701984"><ele>44.0</ele><time>2022-10-08T17:09:09Z</time></trkpt>
<trkpt lat="45.271116" lon="-75.701993"><ele>43.0</ele><time>2022-10-08T17:09:10Z</time></trkpt>
<trkpt lat="45.271103" lon="-75.702002"><ele>44.0</ele><time>2022-10-08T17:09:11Z</time></trkpt>
<trkpt lat="45.27109" lon="-75.702002"><ele>44.0</ele><time>2022-10-08T17:09:12Z</time></trkpt>
<trkpt lat="45.271081" lon="-75.702011"><ele>45.0</ele><time>2022-10-08T17:09:13Z</time></trkpt>
<trkpt lat="45.271068" lon="-75.70202"><ele>45.0</ele><time>2022-10-08T17:09:14Z</time></trkpt>
<trkpt lat="45.271056" lon="-75.70202"><ele>46.0</ele><time>2022-10-08T17:09:15Z</time></trkpt>
<trkpt lat="45.271043" lon="-75.702029"><ele>46.0</ele><time>2022-10-08T17:09:16Z</time></trkpt>
<trkpt lat="45.271033" lon="-75.702038"><ele>46.0</ele><time>2022-10-08T17:09:17Z</time></trkpt>
<trkpt lat="45.271021" lon="-75.702038"><ele>46.0</ele><time>2022-10-08T17:09:18Z</time></trkpt>
<trkpt lat="45.271008" lon="-75.702047"><ele>46.0</ele><time>2022-10-08T17:09:19Z</time></trkpt>
<trkpt lat="45.270998" lon="-75.702056"><ele>46.0</ele><time>2022-10-08T17:09:20Z</time></trkpt>
<trkpt lat="45.270986" lon="-75.702056"><ele>46.0</ele><time>2022-10-08T17:09:21Z</time></trkpt>
<trkpt lat="45.270976" lon="-75.702065"><ele>46.0</ele><time>2022-10-08T17:09:22Z</time></trkpt>
<trkpt lat="45.270964" lon="-75.702074"><ele>46.0</ele><time>2022-10-08T17:09:23Z</time></trkpt>
<trkpt lat="45.270951" lon="-75.702074"><ele>46.0</ele><time>2022-10-08T17:09:24Z</time></trkpt>
<trkpt lat="45.270938" lon="-75.702083"><ele>45.0</ele><time>2022-10-08T17:09:25Z</time></trkpt>
<trkpt lat="45.270926" lon="-75.702092"><ele>45.0</ele><time>2022-10-08T17:09:26Z</time></trkpt>
<trkpt lat="45.270913" lon="-75.702101"><ele>46.0</ele><time>2022-10-08T17:09:27Z</time></trkpt>
<trkpt lat="45.270685" lon="-75.702236"><ele>47.0</ele><time>2022-10-08T17:09:49Z</time></trkpt>
<trkpt lat="45.270669" lon="-75.702245"><ele>46.0</ele><time>2022-10-08T17:09:49Z</time></trkpt>
<trkpt lat="45.270653" lon="-75.702245"><ele>45.0</ele><time>2022-10-08T17:09:50Z</time></trkpt>
<trkpt lat="45.27064" lon="-75.702253"><ele>45.0</ele><time>2022-10-08T17:09:51Z</time></trkpt>
<trkpt lat="45.270621" lon="-75.702271"><ele>45.0</ele><time>2022-10-08T17:09:52Z</time></trkpt>
<trkpt lat="45.270608" lon="-75.70228"><ele>44.0</ele><time>2022-10-08T17:09:53Z</time></trkpt>
<trkpt lat="45.270602" lon="-75.702289"><ele>44.0</ele><time>2022-10-08T17:09:54Z</time></trkpt>
<trkpt lat="45.270593" lon="-75.702289"><ele>44.0</ele><time>2022-10-08T17:09:55Z</time></trkpt>
<trkpt lat="45.270586" lon="-75.702298"><ele>45.0</ele><time>2022-10-08T17:09:56Z</time></trkpt>
<trkpt lat="45.270586" lon="-75.702298"><ele>45.0</ele><time>2022-10-08T17:09:56Z</time></trkpt>
<trkpt lat="45.270367" lon="-75.702433"><ele>47.0</ele><time>2022-10-08T17:10:14Z</time></trkpt>
<trkpt lat="45.270358" lon="-75.702433"><ele>46.0</ele><time>2022-10-08T17:10:15Z</time></trkpt>
<trkpt lat="45.270352" lon="-75.702433"><ele>46.0</ele><time>2022-10-08T17:10:16Z</time></trkpt>
<trkpt lat="45.270342" lon="-75.702442"><ele>46.0</ele><time>2022-10-08T17:10:17Z</time></trkpt>
<trkpt lat="45.270336" lon="-75.702442"><ele>46.0</ele><time>2022-10-08T17:10:18Z</time></trkpt>
<trkpt lat="45.270329" lon="-75.702451"><ele>46.0</ele><time>2022-10-08T17:10:19Z</time></trkpt>
<trkpt lat="45.27032" lon="-75.702451"><ele>45.0</ele><time>2022-10-08T17:10:20Z</time></trkpt>
<trkpt lat="45.27031" lon="-75.70246"><ele>46.0</ele><time>2022-10-08T17:10:21Z</time></trkpt>
<trkpt lat="45.270301" lon="-75.70246"><ele>46.0</ele><time>2022-10-08T17:10:22Z</time></trkpt>
<trkpt lat="45.270294" lon="-75.702469"><ele>47.0</ele><time>2022-10-08T17:10:23Z</time></trkpt>
<trkpt lat="45.270288" lon="-75.702469"><ele>46.0</ele><time>2022-10-08T17:10:24Z</time></trkpt>
<trkpt lat="45.270275" lon="-75.702478"><ele>46.0</ele><time>2022-10-08T17:10:25Z</time></trkpt>
<trkpt lat="45.270266" lon="-75.702487"><ele>46.0</ele><time>2022-10-08T17:10:26Z</time></trkpt>
<trkpt lat="45.270263" lon="-75.702487"><ele>46.0</ele><time>2022-10-08T17:10:27Z</time></trkpt>
<trkpt lat="45.270253" lon="-75.702496"><ele>46.0</ele><time>2022-10-08T17:10:28Z</time></trkpt>
<trkpt lat="45.270244" lon="-75.702505"><ele>46.0</ele><time>2022-10-08T17:10:29Z</time></trkpt>
<trkpt lat="45.270234" lon="-75.702505"><ele>46.0</ele><time>2022-10-08T17:10:30Z</time></trkpt>
<trkpt lat="45.270221" lon="-75.702514"><ele>46.0</ele><time>2022-10-08T17:10:31Z</time></trkpt>
<trkpt lat="45.270215" lon="-75.702523"><ele>47.0</ele><time>2022-10-08T17:10:32Z</time></trkpt>
<trkpt lat="45.270209" lon="-75.702532"><ele>46.0</ele><time>2022-10-08T17:10:33Z</time></trkpt>
<trkpt lat="45.270199" lon="-75.702541"><ele>46.0</ele><time>2022-10-08T17:10:34Z</time></trkpt>
<trkpt lat="45.27019" lon="-75.70255"><ele>45.0</ele><time>2022-10-08T17:10:35Z</time></trkpt>
<trkpt lat="45.270187" lon="-75.70255"><ele>47.0</ele><time>2022-10-08T17:10:36Z</time></trkpt>
<trkpt lat="45.270187" lon="-75.702559"><ele>47.0</ele><time>2022-10-08T17:10:37Z</time></trkpt>
<trkpt lat="45.27018" lon="-75.702568"><ele>48.0</ele><time>2022-10-08T17:10:38Z</time></trkpt>
<trkpt lat="45.270174" lon="-75.702577"><ele>47.0</ele><time>2022-10-08T17:10:39Z</time></trkpt>
<trkpt lat="45.270158" lon="-75.702595"><ele>46.0</ele><time>2022-10-08T17:10:40Z</time></trkpt>
<trkpt lat="45.270142" lon="-75.702604"><ele>46.0</ele><time>2022-10-08T17:10:41Z</time></trkpt>
<trkpt lat="45.27013" lon="-75.702613"><ele>45.0</ele><time>2022-10-08T17:10:42Z</time></trkpt>
<trkpt lat="45.270117" lon="-75.702622"><ele>44.0</ele><time>2022-10-08T17:10:43Z</time></trkpt>
<trkpt lat="45.270101" lon="-75.70264"><ele>43.0</ele><time>2022-10-08T17:10:44Z</time></trkpt>
<trkpt lat="45.270082" lon="-75.702649"><ele>41.0</ele><time>2022-10-08T17:10:45Z</time></trkpt>
<trkpt lat="45.270069" lon="-75.702667"><ele>40.0</ele><time>2022-10-08T17:10:46Z</time></trkpt>
<trkpt lat="45.270057" lon="-75.702685"><ele>40.0</ele><time>2022-10-08T17:10:47Z</time></trkpt>
<trkpt lat="45.270044" lon="-75.702694"><ele>39.0</ele><time>2022-10-08T17:10:48Z</time></trkpt>
<trkpt lat="45.270034" lon="-75.702703"><ele>39.0</ele><time>2022-10-08T17:10:49Z</time></trkpt>
<trkpt lat="45.270025" lon="-75.702712"><ele>39.0</ele><time>2022-10-08T17:10:50Z</time></trkpt>
<trkpt lat="45.270019" lon="-75.702721"><ele>40.0</ele><time>2022-10-08T17:10:51Z</time></trkpt>
<trkpt lat="45.270012" lon="-75.702739"><ele>41.0</ele><time>2022-10-08T17:10:52Z</time></trkpt>
<trkpt lat="45.270009" lon="-75.702748"><ele>42.0</ele><time>2022-10-08T17:10:53Z</time></trkpt>
<trkpt lat="45.270006" lon="-75.702757"><ele>43.0</ele><time>2022-10-08T17:10:54Z</time></trkpt>
<trkpt lat="45.269999" lon="-75.702766"><ele>44.0</ele><time>2022-10-08T17:10:55Z</time></trkpt>
<trkpt lat="45.269996" lon="-75.702774"><ele>46.0</ele><time>2022-10-08T17:10:56Z</time></trkpt>
<trkpt lat="45.269993" lon="-75.702792"><ele>48.0</ele><time>2022-10-08T17:10:57Z</time></trkpt>
<trkpt lat="45.269987" lon="-75.702792"><ele>49.0</ele><time>2022-10-08T17:10:58Z</time></trkpt>
<trkpt lat="45.26998" lon="-75.702801"><ele>50.0</ele><time>2022-10-08T17:10:59Z</time></trkpt>
<trkpt lat="45.269974" lon="-75.70281"><ele>51.0</ele><time>2022-10-08T17:11:00Z</time></trkpt>
<trkpt lat="45.269968" lon="-75.702819"><ele>50.0</ele><time>2022-10-08T17:11:01Z</time></trkpt>
<trkpt lat="45.269958" lon="-75.702837"><ele>50.0</ele><time>2022-10-08T17:11:02Z</time></trkpt>
<trkpt lat="45.269958" lon="-75.702837"><ele>50.0</ele><time>2022-10-08T17:11:03Z</time></trkpt>
<trkpt lat="45.269955" lon="-75.702837"><ele>49.0</ele><time>2022-10-08T17:11:03Z</time></trkpt>
<trkpt lat="45.269619" lon="-75.703637"><ele>41.0</ele><time>2022-10-08T17:12:47Z</time></trkpt>
<trkpt lat="45.269625" lon="-75.703637"><ele>40.0</ele><time>2022-10-08T17:12:47Z</time></trkpt>
<trkpt lat="45.269625" lon="-75.703637"><ele>40.0</ele><time>2022-10-08T17:12:47Z</time></trkpt>
<trkpt lat="45.26959" lon="-75.703655"><ele>39.0</ele><time>2022-10-08T17:12:48Z</time></trkpt>
<trkpt lat="45.269575" lon="-75.703664"><ele>43.0</ele><time>2022-10-08T17:12:49Z</time></trkpt>
<trkpt lat="45.269587" lon="-75.703673"><ele>42.0</ele><time>2022-10-08T17:12:50Z</time></trkpt>
<trkpt lat="45.269581" lon="-75.703691"><ele>43.0</ele><time>2022-10-08T17:12:51Z</time></trkpt>
<trkpt lat="45.269578" lon="-75.7037"><ele>43.0</ele><time>2022-10-08T17:12:52Z</time></trkpt>
<trkpt lat="45.269578" lon="-75.703718"><ele>43.0</ele><time>2022-10-08T17:12:53Z</time></trkpt>
<trkpt lat="45.269575" lon="-75.703727"><ele>43.0</ele><time>2022-10-08T17:12:54Z</time></trkpt>
<trkpt lat="45.269571" lon="-75.703745"><ele>43.0</ele><time>2022-10-08T17:12:55Z</time></trkpt>
<trkpt lat="45.269568" lon="-75.703754"><ele>43.0</ele><time>2022-10-08T17:12:56Z</time></trkpt>
<trkpt lat="45.269565" lon="-75.703763"><ele>43.0</ele><time>2022-10-08T17:12:57Z</time></trkpt>
<trkpt lat="45.269562" lon="-75.703781"><ele>43.0</ele><time>2022-10-08T17:12:58Z</time></trkpt>
<trkpt lat="45.269559" lon="-75.70379"><ele>43.0</ele><time>2022-10-08T17:12:59Z</time></trkpt>
<trkpt lat="45.269555" lon="-75.703799"><ele>43.0</ele><time>2022-10-08T17:13:00Z</time></trkpt>
<trkpt lat="45.269549" lon="-75.703816"><ele>44.0</ele><time>2022-10-08T17:13:01Z</time></trkpt>
<trkpt lat="45.269546" lon="-75.703825"><ele>44.0</ele><time>2022-10-08T17:13:02Z</time></trkpt>
<trkpt lat="45.269543" lon="-75.703843"><ele>44.0</ele><time>2022-10-08T17:13:03Z</time></trkpt>
<trkpt lat="45.26954" lon="-75.703852"><ele>44.0</ele><time>2022-10-08T17:13:04Z</time></trkpt>
<trkpt lat="45.269536" lon="-75.703861"><ele>44.0</ele><time>2022-10-08T17:13:05Z</time></trkpt>
<trkpt lat="45.269533" lon="-75.703879"><ele>44.0</ele><time>2022-10-08T17:13:06Z</time></trkpt>
<trkpt lat="45.26953" lon="-75.703888"><ele>44.0</ele><time>2022-10-08T17:13:07Z</time></trkpt>
<trkpt lat="45.269527" lon="-75.703906"><ele>44.0</ele><time>2022-10-08T17:13:08Z</time></trkpt>
<trkpt lat="45.269524" lon="-75.703924"><ele>44.0</ele><time>2022-10-08T17:13:09Z</time></trkpt>
<trkpt lat="45.269521" lon="-75.703933"><ele>44.0</ele><time>2022-10-08T17:13:10Z</time></trkpt>
<trkpt lat="45.269517" lon="-75.703951"><ele>44.0</ele><time>2022-10-08T17:13:11Z</time></trkpt>
<trkpt lat="45.269514" lon="-75.70396"><ele>44.0</ele><time>2022-10-08T17:13:12Z</time></trkpt>
<trkpt lat="45.269508" lon="-75.703969"><ele>44.0</ele><time>2022-10-08T17:13:13Z</time></trkpt>
<trkpt lat="45.269505" lon="-75.703987"><ele>44.0</ele><time>2022-10-08T17:13:14Z</time></trkpt>
<trkpt lat="45.269502" lon="-75.703996"><ele>44.0</ele><time>2022-10-08T17:13:15Z</time></trkpt>
<trkpt lat="45.269498" lon="-75.704014"><ele>44.0</ele><time>2022-10-08T17:13:16Z</time></trkpt>
<trkpt lat="45.269495" lon="-75.704032"><ele>44.0</ele><time>2022-10-08T17:13:17Z</time></trkpt>
<trkpt lat="45.269492" lon="-75.704041"><ele>44.0</ele><time>2022-10-08T17:13:18Z</time></trkpt>
<trkpt lat="45.269489" lon="-75.704059"><ele>44.0</ele><time>2022-10-08T17:13:19Z</time></trkpt>
<trkpt lat="45.269378" lon="-75.704248"><ele>42.0</ele><time>2022-10-08T17:13:35Z</time></trkpt>
<trkpt lat="45.269384" lon="-75.704275"><ele>45.0</ele><time>2022-10-08T17:13:36Z</time></trkpt>
<trkpt lat="45.269387" lon="-75.704284"><ele>44.0</ele><time>2022-10-08T17:13:37Z</time></trkpt>
<trkpt lat="45.269391" lon="-75.704302"><ele>44.0</ele><time>2022-10-08T17:13:38Z</time></trkpt>
<trkpt lat="45.269391" lon="-75.704311"><ele>43.0</ele><time>2022-10-08T17:13:39Z</time></trkpt>
<trkpt lat="45.269391" lon="-75.70432"><ele>43.0</ele><time>2022-10-08T17:13:40Z</time></trkpt>
<trkpt lat="45.269384" lon="-75.704337"><ele>44.0</ele><time>2022-10-08T17:13:41Z</time></trkpt>
<trkpt lat="45.269378" lon="-75.704346"><ele>44.0</ele><time>2022-10-08T17:13:42Z</time></trkpt>
<trkpt lat="45.269378" lon="-75.704346"><ele>44.0</ele><time>2022-10-08T17:13:43Z</time></trkpt>
<trkpt lat="45.269372" lon="-75.704355"><ele>44.0</ele><time>2022-10-08T17:13:43Z</time></trkpt>
<trkpt lat="45.269365" lon="-75.704364"><ele>45.0</ele><time>2022-10-08T17:13:44Z</time></trkpt>
<trkpt lat="45.269362" lon="-75.704382"><ele>45.0</ele><time>2022-10-08T17:13:45Z</time></trkpt>
<trkpt lat="45.269356" lon="-75.704391"><ele>45.0</ele><time>2022-10-08T17:13:46Z</time></trkpt>
<trkpt lat="45.269349" lon="-75.7044"><ele>45.0</ele><time>2022-10-08T17:13:47Z</time></trkpt>
<trkpt lat="45.269343" lon="-75.704409"><ele>45.0</ele><time>2022-10-08T17:13:48Z</time></trkpt>
<trkpt lat="45.269337" lon="-75.704427"><ele>46.0</ele><time>2022-10-08T17:13:49Z</time></trkpt>
<trkpt lat="45.26933" lon="-75.704436"><ele>46.0</ele><time>2022-10-08T17:13:50Z</time></trkpt>
<trkpt lat="45.269321" lon="-75.704445"><ele>46.0</ele><time>2022-10-08T17:13:51Z</time></trkpt>
<trkpt lat="45.269314" lon="-75.704454"><ele>45.0</ele><time>2022-10-08T17:13:52Z</time></trkpt>
<trkpt lat="45.269308" lon="-75.704463"><ele>45.0</ele><time>2022-10-08T17:13:53Z</time></trkpt>
<trkpt lat="45.269302" lon="-75.704472"><ele>45.0</ele><time>2022-10-08T17:13:54Z</time></trkpt>
<trkpt lat="45.269295" lon="-75.704472"><ele>45.0</ele><time>2022-10-08T17:13:55Z</time></trkpt>
<trkpt lat="45.269289" lon="-75.704481"><ele>45.0</ele><time>2022-10-08T17:13:56Z</time></trkpt>
<trkpt lat="45.269283" lon="-75.70449"><ele>45.0</ele><time>2022-10-08T17:13:57Z</time></trkpt>
<trkpt lat="45.269276" lon="-75.70449"><ele>45.0</ele><time>2022-10-08T17:13:58Z</time></trkpt>
<trkpt lat="45.26927" lon="-75.704499"><ele>45.0</ele><time>2022-10-08T17:13:59Z</time></trkpt>
<trkpt lat="45.269264" lon="-75.704508"><ele>45.0</ele><time>2022-10-08T17:14:00Z</time></trkpt>
<trkpt lat="45.269261" lon="-75.704508"><ele>45.0</ele><time>2022-10-08T17:14:01Z</time></trkpt>
<trkpt lat="45.269254" lon="-75.704517"><ele>45.0</ele><time>2022-10-08T17:14:02Z</time></trkpt>
<trkpt lat="45.269248" lon="-75.704517"><ele>45.0</ele><time>2022-10-08T17:14:03Z</time></trkpt>
<trkpt lat="45.269241" lon="-75.704526"><ele>45.0</ele><time>2022-10-08T17:14:04Z</time></trkpt>
<trkpt lat="45.269238" lon="-75.704535"><ele>46.0</ele><time>2022-10-08T17:14:05Z</time></trkpt>
<trkpt lat="45.269232" lon="-75.704544"><ele>46.0</ele><time>2022-10-08T17:14:06Z</time></trkpt>
<trkpt lat="45.269226" lon="-75.704544"><ele>46.0</ele><time>2022-10-08T17:14:07Z</time></trkpt>
<trkpt lat="45.269219" lon="-75.704553"><ele>46.0</ele><time>2022-10-08T17:14:08Z</time></trkpt>
<trkpt lat="45.269213" lon="-75.704562"><ele>46.0</ele><time>2022-10-08T17:14:09Z</time></trkpt>
<trkpt lat="45.26921" lon="-75.704571"><ele>46.0</ele><time>2022-10-08T17:14:10Z</time></trkpt>
<trkpt lat="45.269203" lon="-75.70458"><ele>46.0</ele><time>2022-10-08T17:14:11Z</time></trkpt>
<trkpt lat="45.269197" lon="-75.704589"><ele>46.0</ele><time>2022-10-08T17:14:12Z</time></trkpt>
<trkpt lat="45.269188" lon="-75.704598"><ele>45.0</ele><time>2022-10-08T17:14:13Z</time></trkpt>
<trkpt lat="45.269184" lon="-75.704607"><ele>46.0</ele><time>2022-10-08T17:14:14Z</time></trkpt>
<trkpt lat="45.269178" lon="-75.704616"><ele>45.0</ele><time>2022-10-08T17:14:15Z</time></trkpt>
<trkpt lat="45.269172" lon="-75.704634"><ele>44.0</ele><time>2022-10-08T17:14:16Z</time></trkpt>
<trkpt lat="45.269165" lon="-75.704643"><ele>45.0</ele><time>2022-10-08T17:14:17Z</time></trkpt>
<trkpt lat="45.269159" lon="-75.704652"><ele>44.0</ele><time>2022-10-08T17:14:18Z</time></trkpt>
<trkpt lat="45.269162" lon="-75.704661"><ele>45.0</ele><time>2022-10-08T17:14:19Z</time></trkpt>
<trkpt lat="45.269159" lon="-75.704679"><ele>45.0</ele><time>2022-10-08T17:14:20Z</time></trkpt>
<trkpt lat="45.269153" lon="-75.704688"><ele>45.0</ele><time>2022-10-08T17:14:21Z</time></trkpt>
<trkpt lat="45.269146" lon="-75.704706"><ele>45.0</ele><time>2022-10-08T17:14:22Z</time></trkpt>
<trkpt lat="45.26914" lon="-75.704715"><ele>45.0</ele><time>2022-10-08T17:14:23Z</time></trkpt>
<trkpt lat="45.269137" lon="-75.704724"><ele>46.0</ele><time>2022-10-08T17:14:24Z</time></trkpt>
<trkpt lat="45.26913" lon="-75.704742"><ele>47.0</ele><time>2022-10-08T17:14:25Z</time></trkpt>
<trkpt lat="45.269124" lon="-75.704751"><ele>47.0</ele><time>2022-10-08T17:14:26Z</time></trkpt>
<trkpt lat="45.269115" lon="-75.70476"><ele>47.0</ele><time>2022-10-08T17:14:27Z</time></trkpt>
<trkpt lat="45.269108" lon="-75.704769"><ele>47.0</ele><time>2022-10-08T17:14:28Z</time></trkpt>
<trkpt lat="45.269096" lon="-75.704778"><ele>46.0</ele><time>2022-10-08T17:14:29Z</time></trkpt>
<trkpt lat="45.269089" lon="-75.704787"><ele>46.0</ele><time>2022-10-08T17:14:30Z</time></trkpt>
<trkpt lat="45.269083" lon="-75.704805"><ele>46.0</ele><time>2022-10-08T17:14:31Z</time></trkpt>
<trkpt lat="45.269077" lon="-75.704814"><ele>46.0</ele><time>2022-10-08T17:14:32Z</time></trkpt>
<trkpt lat="45.269067" lon="-75.704823"><ele>46.0</ele><time>2022-10-08T17:14:33Z</time></trkpt>
<trkpt lat="45.269061" lon="-75.704832"><ele>46.0</ele><time>2022-10-08T17:14:34Z</time></trkpt>
<trkpt lat="45.269054" lon="-75.704841"><ele>46.0</ele><time>2022-10-08T17:14:35Z</time></trkpt>
<trkpt lat="45.269048" lon="-75.70485"><ele>46.0</ele><time>2022-10-08T17:14:36Z</time></trkpt>
<trkpt lat="45.269042" lon="-75.704858"><ele>46.0</ele><time>2022-10-08T17:14:37Z</time></trkpt>
<trkpt lat="45.269032" lon="-75.704867"><ele>46.0</ele><time>2022-10-08T17:14:38Z</time></trkpt>
<trkpt lat="45.269026" lon="-75.704876"><ele>46.0</ele><time>2022-10-08T17:14:39Z</time></trkpt>
<trkpt lat="45.269019" lon="-75.704894"><ele>46.0</ele><time>2022-10-08T17:14:40Z</time></trkpt>
<trkpt lat="45.269013" lon="-75.704903"><ele>46.0</ele><time>2022-10-08T17:14:41Z</time></trkpt>
<trkpt lat="45.269007" lon="-75.704912"><ele>46.0</ele><time>2022-10-08T17:14:42Z</time></trkpt>
<trkpt lat="45.268997" lon="-75.704921"><ele>46.0</ele><time>2022-10-08T17:14:43Z</time></trkpt>
<trkpt lat="45.268991" lon="-75.70493"><ele>46.0</ele><time>2022-10-08T17:14:44Z</time></trkpt>
<trkpt lat="45.268981" lon="-75.704939"><ele>46.0</ele><time>2022-10-08T17:14:45Z</time></trkpt>
<trkpt lat="45.268972" lon="-75.704948"><ele>46.0</ele><time>2022-10-08T17:14:46Z</time></trkpt>
<trkpt lat="45.268966" lon="-75.704957"><ele>46.0</ele><time>2022-10-08T17:14:47Z</time></trkpt>
<trkpt lat="45.268956" lon="-75.704966"><ele>46.0</ele><time>2022-10-08T17:14:48Z</time></trkpt>
<trkpt lat="45.268947" lon="-75.704966"><ele>46.0</ele><time>2022-10-08T17:14:49Z</time></trkpt>
<trkpt lat="45.268937" lon="-75.704975"><ele>46.0</ele><time>2022-10-08T17:14:50Z</time></trkpt>
<trkpt lat="45.268928" lon="-75.704984"><ele>46.0</ele><time>2022-10-08T17:14:51Z</time></trkpt>
<trkpt lat="45.268921" lon="-75.704993"><ele>46.0</ele><time>2022-10-08T17:14:52Z</time></trkpt>
<trkpt lat="45.268912" lon="-75.705002"><ele>46.0</ele><time>2022-10-08T17:14:53Z</time></trkpt>
<trkpt lat="45.268899" lon="-75.705011"><ele>45.0</ele><time>2022-10-08T17:14:54Z</time></trkpt>
<trkpt lat="45.268886" lon="-75.70502"><ele>45.0</ele><time>2022-10-08T17:14:55Z</time></trkpt>
<trkpt lat="45.268877" lon="-75.705029"><ele>45.0</ele><time>2022-10-08T17:14:56Z</time></trkpt>
<trkpt lat="45.268867" lon="-75.705038"><ele>45.0</ele><time>2022-10-08T17:14:57Z</time></trkpt>
<trkpt lat="45.268861" lon="-75.705038"><ele>46.0</ele><time>2022-10-08T17:14:58Z</time></trkpt>
<trkpt lat="45.268851" lon="-75.705047"><ele>46.0</ele><time>2022-10-08T17:14:59Z</time></trkpt>
<trkpt lat="45.268845" lon="-75.705056"><ele>45.0</ele><time>2022-10-08T17:15:00Z</time></trkpt>
<trkpt lat="45.268836" lon="-75.705065"><ele>45.0</ele><time>2022-10-08T17:15:01Z</time></trkpt>
<trkpt lat="45.268829" lon="-75.705074"><ele>45.0</ele><time>2022-10-08T17:15:02Z</time></trkpt>
<trkpt lat="45.268823" lon="-75.705083"><ele>45.0</ele><time>2022-10-08T17:15:03Z</time></trkpt>
<trkpt lat="45.268813" lon="-75.705092"><ele>45.0</ele><time>2022-10-08T17:15:04Z</time></trkpt>
<trkpt lat="45.268804" lon="-75.705101"><ele>45.0</ele><time>2022-10-08T17:15:05Z</time></trkpt>
<trkpt lat="45.268794" lon="-75.70511"><ele>45.0</ele><time>2022-10-08T17:15:06Z</time></trkpt>
<trkpt lat="45.268785" lon="-75.70511"><ele>45.0</ele><time>2022-10-08T17:15:07Z</time></trkpt>
<trkpt lat="45.268775" lon="-75.705119"><ele>45.0</ele><time>2022-10-08T17:15:08Z</time></trkpt>
<trkpt lat="45.268769" lon="-75.705128"><ele>45.0</ele><time>2022-10-08T17:15:09Z</time></trkpt>
<trkpt lat="45.268759" lon="-75.705137"><ele>45.0</ele><time>2022-10-08T17:15:10Z</time></trkpt>
<trkpt lat="45.26875" lon="-75.705146"><ele>45.0</ele><time>2022-10-08T17:15:11Z</time></trkpt>
<trkpt lat="45.26874" lon="-75.705155"><ele>46.0</ele><time>2022-10-08T17:15:12Z</time></trkpt>
<trkpt lat="45.268734" lon="-75.705164"><ele>46.0</ele><time>2022-10-08T17:15:13Z</time></trkpt>
<trkpt lat="45.268725" lon="-75.705173"><ele>46.0</ele><time>2022-10-08T17:15:14Z</time></trkpt>
<trkpt lat="45.268718" lon="-75.705182"><ele>46.0</ele><time>2022-10-08T17:15:15Z</time></trkpt>
<trkpt lat="45.268709" lon="-75.7052"><ele>46.0</ele><time>2022-10-08T17:15:16Z</time></trkpt>
<trkpt lat="45.268699" lon="-75.705209"><ele>46.0</ele><time>2022-10-08T17:15:17Z</time></trkpt>
<trkpt lat="45.268693" lon="-75.705218"><ele>46.0</ele><time>2022-10-08T17:15:18Z</time></trkpt>
<trkpt lat="45.26868" lon="-75.705227"><ele>46.0</ele><time>2022-10-08T17:15:19Z</time></trkpt>
<trkpt lat="45.268674" lon="-75.705236"><ele>46.0</ele><time>2022-10-08T17:15:20Z</time></trkpt>
<trkpt lat="45.268664" lon="-75.705254"><ele>46.0</ele><time>2022-10-08T17:15:21Z</time></trkpt>
<trkpt lat="45.268655" lon="-75.705263"><ele>46.0</ele><time>2022-10-08T17:15:22Z</time></trkpt>
<trkpt lat="45.268645" lon="-75.705272"><ele>46.0</ele><time>2022-10-08T17:15:23Z</time></trkpt>
<trkpt lat="45.268636" lon="-75.705281"><ele>46.0</ele><time>2022-10-08T17:15:24Z</time></trkpt>
<trkpt lat="45.268626" lon="-75.70529"><ele>46.0</ele><time>2022-10-08T17:15:25Z</time></trkpt>
<trkpt lat="45.268617" lon="-75.705299"><ele>46.0</ele><time>2022-10-08T17:15:26Z</time></trkpt>
<trkpt lat="45.268604" lon="-75.705308"><ele>46.0</ele><time>2022-10-08T17:15:27Z</time></trkpt>
<trkpt lat="45.268598" lon="-75.705317"><ele>46.0</ele><time>2022-10-08T17:15:28Z</time></trkpt>
<trkpt lat="45.268585" lon="-75.705335"><ele>46.0</ele><time>2022-10-08T17:15:29Z</time></trkpt>
<trkpt lat="45.268575" lon="-75.705344"><ele>46.0</ele><time>2022-10-08T17:15:30Z</time></trkpt>
<trkpt lat="45.268566" lon="-75.705353"><ele>46.0</ele><time>2022-10-08T17:15:31Z</time></trkpt>
<trkpt lat="45.268556" lon="-75.705362"><ele>46.0</ele><time>2022-10-08T17:15:32Z</time></trkpt>
<trkpt lat="45.268547" lon="-75.705371"><ele>46.0</ele><time>2022-10-08T17:15:33Z</time></trkpt>
<trkpt lat="45.268534" lon="-75.705379"><ele>45.0</ele><time>2022-10-08T17:15:34Z</time></trkpt>
<trkpt lat="45.268525" lon="-75.705388"><ele>45.0</ele><time>2022-10-08T17:15:35Z</time></trkpt>
<trkpt lat="45.268515" lon="-75.705397"><ele>45.0</ele><time>2022-10-08T17:15:36Z</time></trkpt>
<trkpt lat="45.268506" lon="-75.705406"><ele>45.0</ele><time>2022-10-08T17:15:37Z</time></trkpt>
<trkpt lat="45.268499" lon="-75.705415"><ele>45.0</ele><time>2022-10-08T17:15:38Z</time></trkpt>
<trkpt lat="45.268493" lon="-75.705415"><ele>45.0</ele><time>2022-10-08T17:15:39Z</time></trkpt>
<trkpt lat="45.268487" lon="-75.705415"><ele>45.0</ele><time>2022-10-08T17:15:40Z</time></trkpt>
<trkpt lat="45.26848" lon="-75.705424"><ele>46.0</ele><time>2022-10-08T17:15:41Z</time></trkpt>
<trkpt lat="45.268471" lon="-75.705442"><ele>46.0</ele><time>2022-10-08T17:15:42Z</time></trkpt>
<trkpt lat="45.268458" lon="-75.705451"><ele>47.0</ele><time>2022-10-08T17:15:43Z</time></trkpt>
<trkpt lat="45.268445" lon="-75.705451"><ele>47.0</ele><time>2022-10-08T17:15:44Z</time></trkpt>
<trkpt lat="45.26842" lon="-75.705451"><ele>46.0</ele><time>2022-10-08T17:15:45Z</time></trkpt>
<trkpt lat="45.268404" lon="-75.705451"><ele>46.0</ele><time>2022-10-08T17:15:46Z</time></trkpt>
<trkpt lat="45.268398" lon="-75.70546"><ele>47.0</ele><time>2022-10-08T17:15:47Z</time></trkpt>
<trkpt lat="45.268392" lon="-75.705469"><ele>46.0</ele><time>2022-10-08T17:15:48Z</time></trkpt>
<trkpt lat="45.268385" lon="-75.705487"><ele>46.0</ele><time>2022-10-08T17:15:49Z</time></trkpt>
<trkpt lat="45.268376" lon="-75.705496"><ele>46.0</ele><time>2022-10-08T17:15:50Z</time></trkpt>
<trkpt lat="45.268366" lon="-75.705514"><ele>45.0</ele><time>2022-10-08T17:15:51Z</time></trkpt>
<trkpt lat="45.264985" lon="-75.705478"><ele>56.0</ele><time>2022-10-08T17:20:46Z</time></trkpt>
<trkpt lat="45.264938" lon="-75.705451"><ele>42.0</ele><time>2022-10-08T17:20:47Z</time></trkpt>
<trkpt lat="45.264928" lon="-75.705451"><ele>43.0</ele><time>2022-10-08T17:20:48Z</time></trkpt>
<trkpt lat="45.264906" lon="-75.705451"><ele>44.0</ele><time>2022-10-08T17:20:49Z</time></trkpt>
<trkpt lat="45.264887" lon="-75.705451"><ele>44.0</ele><time>2022-10-08T17:20:50Z</time></trkpt>
<trkpt lat="45.264871" lon="-75.705451"><ele>44.0</ele><time>2022-10-08T17:20:51Z</time></trkpt>
<trkpt lat="45.264871" lon="-75.705451"><ele>44.0</ele><time>2022-10-08T17:20:51Z</time></trkpt>
<trkpt lat="45.264865" lon="-75.705451"><ele>44.0</ele><time>2022-10-08T17:20:52Z</time></trkpt>
<trkpt lat="45.264855" lon="-75.70546"><ele>44.0</ele><time>2022-10-08T17:20:53Z</time></trkpt>
<trkpt lat="45.264839" lon="-75.70546"><ele>44.0</ele><time>2022-10-08T17:20:54Z</time></trkpt>
<trkpt lat="45.264827" lon="-75.70546"><ele>44.0</ele><time>2022-10-08T17:20:55Z</time></trkpt>
<trkpt lat="45.264814" lon="-75.70546"><ele>45.0</ele><time>2022-10-08T17:20:56Z</time></trkpt>
<trkpt lat="45.264798" lon="-75.705469"><ele>45.0</ele><time>2022-10-08T17:20:57Z</time></trkpt>
<trkpt lat="45.264785" lon="-75.705469"><ele>45.0</ele><time>2022-10-08T17:20:58Z</time></trkpt>
<trkpt lat="45.264773" lon="-75.705469"><ele>45.0</ele><time>2022-10-08T17:20:59Z</time></trkpt>
<trkpt lat="45.26476" lon="-75.705469"><ele>45.0</ele><time>2022-10-08T17:21:00Z</time></trkpt>
<trkpt lat="45.26475" lon="-75.705469"><ele>45.0</ele><time>2022-10-08T17:21:01Z</time></trkpt>
<trkpt lat="45.264738" lon="-75.705469"><ele>44.0</ele><time>2022-10-08T17:21:02Z</time></trkpt>
<trkpt lat="45.264725" lon="-75.705469"><ele>44.0</ele><time>2022-10-08T17:21:03Z</time></trkpt>
<trkpt lat="45.264716" lon="-75.705469"><ele>44.0</ele><time>2022-10-08T17:21:04Z</time></trkpt>
<trkpt lat="45.264703" lon="-75.705469"><ele>44.0</ele><time>2022-10-08T17:21:05Z</time></trkpt>
<trkpt lat="45.26469" lon="-75.705469"><ele>44.0</ele><time>2022-10-08T17:21:06Z</time></trkpt>
<trkpt lat="45.264677" lon="-75.705478"><ele>45.0</ele><time>2022-10-08T17:21:07Z</time></trkpt>
<trkpt lat="45.264668" lon="-75.705478"><ele>45.0</ele><time>2022-10-08T17:21:08Z</time></trkpt>
<trkpt lat="45.264655" lon="-75.705478"><ele>45.0</ele><time>2022-10-08T17:21:09Z</time></trkpt>
<trkpt lat="45.264646" lon="-75.705478"><ele>45.0</ele><time>2022-10-08T17:21:10Z</time></trkpt>
<trkpt lat="45.264633" lon="-75.705478"><ele>45.0</ele><time>2022-10-08T17:21:11Z</time></trkpt>
<trkpt lat="45.264624" lon="-75.705478"><ele>45.0</ele><time>2022-10-08T17:21:12Z</time></trkpt>
<trkpt lat="45.264611" lon="-75.705478"><ele>45.0</ele><time>2022-10-08T17:21:13Z</time></trkpt>
<trkpt lat="45.264601" lon="-75.705469"><ele>46.0</ele><time>2022-10-08T17:21:14Z</time></trkpt>
<trkpt lat="45.264589" lon="-75.705469"><ele>45.0</ele><time>2022-10-08T17:21:15Z</time></trkpt>
<trkpt lat="45.264576" lon="-75.705478"><ele>46.0</ele><time>2022-10-08T17:21:16Z</time></trkpt>
<trkpt lat="45.264566" lon="-75.705478"><ele>46.0</ele><time>2022-10-08T17:21:17Z</time></trkpt>
<trkpt lat="45.264554" lon="-75.705478"><ele>46.0</ele><time>2022-10-08T17:21:18Z</time></trkpt>
<trkpt lat="45.264544" lon="-75.705478"><ele>46.0</ele><time>2022-10-08T17:21:19Z</time></trkpt>
<trkpt lat="45.264532" lon="-75.705478"><ele>46.0</ele><time>2022-10-08T17:21:20Z</time></trkpt>
<trkpt lat="45.264522" lon="-75.705487"><ele>46.0</ele><time>2022-10-08T17:21:21Z</time></trkpt>
<trkpt lat="45.264509" lon="-75.705487"><ele>46.0</ele><time>2022-10-08T17:21:22Z</time></trkpt>
<trkpt lat="45.2645" lon="-75.705487"><ele>46.0</ele><time>2022-10-08T17:21:23Z</time></trkpt>
<trkpt lat="45.264487" lon="-75.705487"><ele>46.0</ele><time>2022-10-08T17:21:24Z</time></trkpt>
<trkpt lat="45.264474" lon="-75.705487"><ele>46.0</ele><time>2022-10-08T17:21:25Z</time></trkpt>
<trkpt lat="45.264462" lon="-75.705487"><ele>46.0</ele><time>2022-10-08T17:21:26Z</time></trkpt>
<trkpt lat="45.264452" lon="-75.705487"><ele>46.0</ele><time>2022-10-08T17:21:27Z</time></trkpt>
<trkpt lat="45.26444" lon="-75.705487"><ele>46.0</ele><time>2022-10-08T17:21:28Z</time></trkpt>
<trkpt lat="45.264427" lon="-75.705487"><ele>46.0</ele><time>2022-10-08T17:21:29Z</time></trkpt>
<trkpt lat="45.264417" lon="-75.705487"><ele>46.0</ele><time>2022-10-08T17:21:30Z</time></trkpt>
<trkpt lat="45.264405" lon="-75.705496"><ele>46.0</ele><time>2022-10-08T17:21:31Z</time></trkpt>
<trkpt lat="45.264398" lon="-75.705496"><ele>46.0</ele><time>2022-10-08T17:21:32Z</time></trkpt>
<trkpt lat="45.264389" lon="-75.705505"><ele>46.0</ele><time>2022-10-08T17:21:33Z</time></trkpt>
<trkpt lat="45.264376" lon="-75.705505"><ele>46.0</ele><time>2022-10-08T17:21:34Z</time></trkpt>
<trkpt lat="45.264367" lon="-75.705514"><ele>46.0</ele><time>2022-10-08T17:21:35Z</time></trkpt>
<trkpt lat="45.264367" lon="-75.705514"><ele>46.0</ele><time>2022-10-08T17:22:30Z</time></trkpt>
<trkpt lat="45.263789" lon="-75.705577"><ele>39.0</ele><time>2022-10-08T17:22:30Z</time></trkpt>
<trkpt lat="45.263783" lon="-75.705595"><ele>42.0</ele><time>2022-10-08T17:22:30Z</time></trkpt>
<trkpt lat="45.263773" lon="-75.705604"><ele>43.0</ele><time>2022-10-08T17:22:31Z</time></trkpt>
<trkpt lat="45.263754" lon="-75.705604"><ele>44.0</ele><time>2022-10-08T17:22:32Z</time></trkpt>
<trkpt lat="45.263745" lon="-75.705604"><ele>45.0</ele><time>2022-10-08T17:22:33Z</time></trkpt>
<trkpt lat="45.263732" lon="-75.705604"><ele>46.0</ele><time>2022-10-08T17:22:34Z</time></trkpt>
<trkpt lat="45.26372" lon="-75.705604"><ele>46.0</ele><time>2022-10-08T17:22:35Z</time></trkpt>
<trkpt lat="45.263707" lon="-75.705604"><ele>46.0</ele><time>2022-10-08T17:22:36Z</time></trkpt>
<trkpt lat="45.263694" lon="-75.705604"><ele>46.0</ele><time>2022-10-08T17:22:37Z</time></trkpt>
<trkpt lat="45.263685" lon="-75.705604"><ele>46.0</ele><time>2022-10-08T17:22:38Z</time></trkpt>
<trkpt lat="45.263672" lon="-75.705604"><ele>46.0</ele><time>2022-10-08T17:22:39Z</time></trkpt>
<trkpt lat="45.263659" lon="-75.705604"><ele>46.0</ele><time>2022-10-08T17:22:40Z</time></trkpt>
<trkpt lat="45.263647" lon="-75.705604"><ele>46.0</ele><time>2022-10-08T17:22:41Z</time></trkpt>
<trkpt lat="45.263637" lon="-75.705604"><ele>46.0</ele><time>2022-10-08T17:22:42Z</time></trkpt>
<trkpt lat="45.263624" lon="-75.705604"><ele>46.0</ele><time>2022-10-08T17:22:43Z</time></trkpt>
<trkpt lat="45.263612" lon="-75.705604"><ele>46.0</ele><time>2022-10-08T17:22:44Z</time></trkpt>
<trkpt lat="45.263602" lon="-75.705604"><ele>46.0</ele><time>2022-10-08T17:22:45Z</time></trkpt>
<trkpt lat="45.263593" lon="-75.705604"><ele>46.0</ele><time>2022-10-08T17:22:46Z</time></trkpt>
<trkpt lat="45.263583" lon="-75.705604"><ele>46.0</ele><time>2022-10-08T17:22:47Z</time></trkpt>
<trkpt lat="45.26357" lon="-75.705604"><ele>46.0</ele><time>2022-10-08T17:22:48Z</time></trkpt>
<trkpt lat="45.263561" lon="-75.705604"><ele>46.0</ele><time>2022-10-08T17:22:49Z</time></trkpt>
<trkpt lat="45.263548" lon="-75.705595"><ele>46.0</ele><time>2022-10-08T17:22:50Z</time></trkpt>
<trkpt lat="45.263539" lon="-75.705595"><ele>46.0</ele><time>2022-10-08T17:22:51Z</time></trkpt>
<trkpt lat="45.263529" lon="-75.705604"><ele>46.0</ele><time>2022-10-08T17:22:52Z</time></trkpt>
<trkpt lat="45.26352" lon="-75.705595"><ele>47.0</ele><time>2022-10-08T17:22:53Z</time></trkpt>
<trkpt lat="45.263507" lon="-75.705595"><ele>46.0</ele><time>2022-10-08T17:22:54Z</time></trkpt>
<trkpt lat="45.263498" lon="-75.705595"><ele>47.0</ele><time>2022-10-08T17:22:55Z</time></trkpt>
<trkpt lat="45.263488" lon="-75.705595"><ele>47.0</ele><time>2022-10-08T17:22:56Z</time></trkpt>
<trkpt lat="45.263478" lon="-75.705595"><ele>47.0</ele><time>2022-10-08T17:22:57Z</time></trkpt>
<trkpt lat="45.263469" lon="-75.705595"><ele>46.0</ele><time>2022-10-08T17:22:58Z</time></trkpt>
<trkpt lat="45.263459" lon="-75.705595"><ele>46.0</ele><time>2022-10-08T17:22:59Z</time></trkpt>
<trkpt lat="45.26345" lon="-75.705595"><ele>46.0</ele><time>2022-10-08T17:23:00Z</time></trkpt>
<trkpt lat="45.261252" lon="-75.706359"><ele>45.0</ele><time>2022-10-08T17:28:02Z</time></trkpt>
<trkpt lat="45.261258" lon="-75.706368"><ele>45.0</ele><time>2022-10-08T17:28:03Z</time></trkpt>
<trkpt lat="45.261233" lon="-75.706386"><ele>45.0</ele><time>2022-10-08T17:28:04Z</time></trkpt>
<trkpt lat="45.261226" lon="-75.706404"><ele>45.0</ele><time>2022-10-08T17:28:05Z</time></trkpt>
<trkpt lat="45.26122" lon="-75.706422"><ele>45.0</ele><time>2022-10-08T17:28:06Z</time></trkpt>
<trkpt lat="45.261223" lon="-75.70643"><ele>46.0</ele><time>2022-10-08T17:28:07Z</time></trkpt>
<trkpt lat="45.26122" lon="-75.706439"><ele>46.0</ele><time>2022-10-08T17:28:08Z</time></trkpt>
<trkpt lat="45.261217" lon="-75.706457"><ele>46.0</ele><time>2022-10-08T17:28:09Z</time></trkpt>
<trkpt lat="45.261214" lon="-75.706466"><ele>47.0</ele><time>2022-10-08T17:28:10Z</time></trkpt>
<trkpt lat="45.261214" lon="-75.706484"><ele>46.0</ele><time>2022-10-08T17:28:11Z</time></trkpt>
<trkpt lat="45.261214" lon="-75.706493"><ele>46.0</ele><time>2022-10-08T17:28:12Z</time></trkpt>
<trkpt lat="45.261214" lon="-75.706502"><ele>46.0</ele><time>2022-10-08T17:28:13Z</time></trkpt>
<trkpt lat="45.261214" lon="-75.706511"><ele>46.0</ele><time>2022-10-08T17:28:14Z</time></trkpt>
<trkpt lat="45.261214" lon="-75.706529"><ele>45.0</ele><time>2022-10-08T17:28:15Z</time></trkpt>
<trkpt lat="45.261214" lon="-75.706538"><ele>45.0</ele><time>2022-10-08T17:28:16Z</time></trkpt>
<trkpt lat="45.26122" lon="-75.706547"><ele>44.0</ele><time>2022-10-08T17:28:17Z</time></trkpt>
<trkpt lat="45.261223" lon="-75.706547"><ele>44.0</ele><time>2022-10-08T17:28:18Z</time></trkpt>
<trkpt lat="45.261223" lon="-75.706565"><ele>45.0</ele><time>2022-10-08T17:28:19Z</time></trkpt>
<trkpt lat="45.26122" lon="-75.706583"><ele>45.0</ele><time>2022-10-08T17:28:20Z</time></trkpt>
<trkpt lat="45.261217" lon="-75.706601"><ele>45.0</ele><time>2022-10-08T17:28:21Z</time></trkpt>
<trkpt lat="45.261214" lon="-75.70661"><ele>45.0</ele><time>2022-10-08T17:28:22Z</time></trkpt>
<trkpt lat="45.261157" lon="-75.70688"><ele>50.0</ele><time>2022-10-08T17:28:44Z</time></trkpt>
<trkpt lat="45.261153" lon="-75.70688"><ele>44.0</ele><time>2022-10-08T17:28:45Z</time></trkpt>
<trkpt lat="45.261144" lon="-75.706898"><ele>44.0</ele><time>2022-10-08T17:28:46Z</time></trkpt>
<trkpt lat="45.261141" lon="-75.706907"><ele>44.0</ele><time>2022-10-08T17:28:47Z</time></trkpt>
<trkpt lat="45.261144" lon="-75.706907"><ele>44.0</ele><time>2022-10-08T17:28:48Z</time></trkpt>
<trkpt lat="45.261138" lon="-75.706916"><ele>47.0</ele><time>2022-10-08T17:28:49Z</time></trkpt>
<trkpt lat="45.261128" lon="-75.706925"><ele>46.0</ele><time>2022-10-08T17:28:50Z</time></trkpt>
<trkpt lat="45.261122" lon="-75.706934"><ele>46.0</ele><time>2022-10-08T17:28:51Z</time></trkpt>
<trkpt lat="45.261119" lon="-75.706951"><ele>46.0</ele><time>2022-10-08T17:28:52Z</time></trkpt>
<trkpt lat="45.261112" lon="-75.70696"><ele>46.0</ele><time>2022-10-08T17:28:53Z</time></trkpt>
<trkpt lat="45.261109" lon="-75.706969"><ele>46.0</ele><time>2022-10-08T17:28:54Z</time></trkpt>
<trkpt lat="45.261106" lon="-75.706987"><ele>46.0</ele><time>2022-10-08T17:28:55Z</time></trkpt>
<trkpt lat="45.261058" lon="-75.70714"><ele>44.0</ele><time>2022-10-08T17:29:09Z</time></trkpt>
<trkpt lat="45.261055" lon="-75.70714"><ele>42.0</ele><time>2022-10-08T17:29:09Z</time></trkpt>
<trkpt lat="45.261052" lon="-75.707149"><ele>43.0</ele><time>2022-10-08T17:29:10Z</time></trkpt>
<trkpt lat="45.261046" lon="-75.707149"><ele>44.0</ele><time>2022-10-08T17:29:11Z</time></trkpt>
<trkpt lat="45.261042" lon="-75.707158"><ele>45.0</ele><time>2022-10-08T17:29:12Z</time></trkpt>
<trkpt lat="45.261046" lon="-75.707149"><ele>45.0</ele><time>2022-10-08T17:29:13Z</time></trkpt>
<trkpt lat="45.261046" lon="-75.707149"><ele>45.0</ele><time>2022-10-08T17:29:14Z</time></trkpt>
<trkpt lat="45.261039" lon="-75.707158"><ele>45.0</ele><time>2022-10-08T17:29:15Z</time></trkpt>
<trkpt lat="45.261036" lon="-75.707167"><ele>45.0</ele><time>2022-10-08T17:29:16Z</time></trkpt>
<trkpt lat="45.26103" lon="-75.707167"><ele>45.0</ele><time>2022-10-08T17:29:17Z</time></trkpt>
<trkpt lat="45.261027" lon="-75.707176"><ele>45.0</ele><time>2022-10-08T17:29:18Z</time></trkpt>
<trkpt lat="45.261023" lon="-75.707185"><ele>45.0</ele><time>2022-10-08T17:29:19Z</time></trkpt>
<trkpt lat="45.26102" lon="-75.707185"><ele>46.0</ele><time>2022-10-08T17:29:20Z</time></trkpt>
<trkpt lat="45.261017" lon="-75.707185"><ele>46.0</ele><time>2022-10-08T17:29:21Z</time></trkpt>
<trkpt lat="45.261017" lon="-75.707194"><ele>46.0</ele><time>2022-10-08T17:29:22Z</time></trkpt>
<trkpt lat="45.26103" lon="-75.707149"><ele>39.0</ele><time>2022-10-08T17:29:50Z</time></trkpt>
<trkpt lat="45.26103" lon="-75.707149"><ele>39.0</ele><time>2022-10-08T17:29:50Z</time></trkpt>
<trkpt lat="45.261014" lon="-75.707167"><ele>44.0</ele><time>2022-10-08T17:29:51Z</time></trkpt>
<trkpt lat="45.261008" lon="-75.707194"><ele>46.0</ele><time>2022-10-08T17:29:52Z</time></trkpt>
<trkpt lat="45.261004" lon="-75.707203"><ele>46.0</ele><time>2022-10-08T17:29:53Z</time></trkpt>
<trkpt lat="45.260998" lon="-75.707203"><ele>46.0</ele><time>2022-10-08T17:29:54Z</time></trkpt>
<trkpt lat="45.260995" lon="-75.707212"><ele>46.0</ele><time>2022-10-08T17:29:55Z</time></trkpt>
<trkpt lat="45.260989" lon="-75.707212"><ele>46.0</ele><time>2022-10-08T17:29:56Z</time></trkpt>
<trkpt lat="45.260985" lon="-75.707212"><ele>45.0</ele><time>2022-10-08T17:29:57Z</time></trkpt>
<trkpt lat="45.260979" lon="-75.707203"><ele>45.0</ele><time>2022-10-08T17:30:14Z</time></trkpt>
<trkpt lat="45.260976" lon="-75.707203"><ele>46.0</ele><time>2022-10-08T17:30:14Z</time></trkpt>
<trkpt lat="45.260954" lon="-75.707185"><ele>43.0</ele><time>2022-10-08T17:30:15Z</time></trkpt>
<trkpt lat="45.260931" lon="-75.707167"><ele>44.0</ele><time>2022-10-08T17:30:16Z</time></trkpt>
<trkpt lat="45.260903" lon="-75.707149"><ele>44.0</ele><time>2022-10-08T17:30:17Z</time></trkpt>
<trkpt lat="45.260887" lon="-75.707122"><ele>44.0</ele><time>2022-10-08T17:30:18Z</time></trkpt>
<trkpt lat="45.260884" lon="-75.707113"><ele>45.0</ele><time>2022-10-08T17:30:19Z</time></trkpt>
<trkpt lat="45.260877" lon="-75.707095"><ele>45.0</ele><time>2022-10-08T17:30:20Z</time></trkpt>
<trkpt lat="45.260868" lon="-75.707086"><ele>47.0</ele><time>2022-10-08T17:30:21Z</time></trkpt>
<trkpt lat="45.260862" lon="-75.707086"><ele>46.0</ele><time>2022-10-08T17:30:22Z</time></trkpt>
<trkpt lat="45.260858" lon="-75.707077"><ele>47.0</ele><time>2022-10-08T17:30:23Z</time></trkpt>
<trkpt lat="45.264135" lon="-75.705353"><ele>50.0</ele><time>2022-10-08T17:36:11Z</time></trkpt>
<trkpt lat="45.264154" lon="-75.705335"><ele>49.0</ele><time>2022-10-08T17:36:11Z</time></trkpt>
<trkpt lat="45.264037" lon="-75.705362"><ele>43.0</ele><time>2022-10-08T17:36:12Z</time></trkpt>
<trkpt lat="45.264157" lon="-75.705371"><ele>65.0</ele><time>2022-10-08T17:36:13Z</time></trkpt>
<trkpt lat="45.264021" lon="-75.705451"><ele>25.0</ele><time>2022-10-08T17:36:14Z</time></trkpt>
<trkpt lat="45.264062" lon="-75.705424"><ele>30.0</ele><time>2022-10-08T17:36:15Z</time></trkpt>
<trkpt lat="45.264091" lon="-75.705397"><ele>33.0</ele><time>2022-10-08T17:36:16Z</time></trkpt>
<trkpt lat="45.264122" lon="-75.705371"><ele>37.0</ele><time>2022-10-08T17:36:17Z</time></trkpt>
<trkpt lat="45.264164" lon="-75.705344"><ele>41.0</ele><time>2022-10-08T17:36:18Z</time></trkpt>
<trkpt lat="45.264186" lon="-75.705326"><ele>43.0</ele><time>2022-10-08T17:36:19Z</time></trkpt>
<trkpt lat="45.264208" lon="-75.705326"><ele>44.0</ele><time>2022-10-08T17:36:20Z</time></trkpt>
<trkpt lat="45.264224" lon="-75.705326"><ele>43.0</ele><time>2022-10-08T17:36:21Z</time></trkpt>
<trkpt lat="45.264576" lon="-75.70529"><ele>42.0</ele><time>2022-10-08T17:36:48Z</time></trkpt>
<trkpt lat="45.264595" lon="-75.70529"><ele>45.0</ele><time>2022-10-08T17:36:49Z</time></trkpt>
<trkpt lat="45.264604" lon="-75.70529"><ele>46.0</ele><time>2022-10-08T17:36:50Z</time></trkpt>
<trkpt lat="45.264614" lon="-75.705299"><ele>46.0</ele><time>2022-10-08T17:36:51Z</time></trkpt>
<trkpt lat="45.264627" lon="-75.705308"><ele>46.0</ele><time>2022-10-08T17:36:52Z</time></trkpt>
<trkpt lat="45.264639" lon="-75.705308"><ele>45.0</ele><time>2022-10-08T17:36:53Z</time></trkpt>
<trkpt lat="45.264652" lon="-75.705308"><ele>45.0</ele><time>2022-10-08T17:36:54Z</time></trkpt>
<trkpt lat="45.264662" lon="-75.705308"><ele>46.0</ele><time>2022-10-08T17:36:55Z</time></trkpt>
<trkpt lat="45.264662" lon="-75.705308"><ele>46.0</ele><time>2022-10-08T17:36:56Z</time></trkpt>
<trkpt lat="45.264674" lon="-75.705317"><ele>46.0</ele><time>2022-10-08T17:36:56Z</time></trkpt>
<trkpt lat="45.264684" lon="-75.705308"><ele>46.0</ele><time>2022-10-08T17:36:57Z</time></trkpt>
<trkpt lat="45.26469" lon="-75.705308"><ele>46.0</ele><time>2022-10-08T17:36:58Z</time></trkpt>
<trkpt lat="45.264703" lon="-75.705308"><ele>46.0</ele><time>2022-10-08T17:36:59Z</time></trkpt>
<trkpt lat="45.264712" lon="-75.705317"><ele>46.0</ele><time>2022-10-08T17:37:00Z</time></trkpt>
<trkpt lat="45.264725" lon="-75.705317"><ele>46.0</ele><time>2022-10-08T17:37:01Z</time></trkpt>
<trkpt lat="45.264738" lon="-75.705317"><ele>46.0</ele><time>2022-10-08T17:37:02Z</time></trkpt>
<trkpt lat="45.26475" lon="-75.705317"><ele>46.0</ele><time>2022-10-08T17:37:03Z</time></trkpt>
<trkpt lat="45.264763" lon="-75.705317"><ele>46.0</ele><time>2022-10-08T17:37:04Z</time></trkpt>
<trkpt lat="45.264776" lon="-75.705317"><ele>46.0</ele><time>2022-10-08T17:37:05Z</time></trkpt>
<trkpt lat="45.264788" lon="-75.705317"><ele>46.0</ele><time>2022-10-08T17:37:06Z</time></trkpt>
<trkpt lat="45.264801" lon="-75.705308"><ele>46.0</ele><time>2022-10-08T17:37:07Z</time></trkpt>
<trkpt lat="45.264811" lon="-75.705308"><ele>46.0</ele><time>2022-10-08T17:37:08Z</time></trkpt>
<trkpt lat="45.264823" lon="-75.705308"><ele>46.0</ele><time>2022-10-08T17:37:09Z</time></trkpt>
<trkpt lat="45.264836" lon="-75.705308"><ele>46.0</ele><time>2022-10-08T17:37:10Z</time></trkpt>
<trkpt lat="45.264849" lon="-75.705299"><ele>46.0</ele><time>2022-10-08T17:37:11Z</time></trkpt>
<trkpt lat="45.264858" lon="-75.705299"><ele>46.0</ele><time>2022-10-08T17:37:12Z</time></trkpt>
<trkpt lat="45.264868" lon="-75.705299"><ele>46.0</ele><time>2022-10-08T17:37:13Z</time></trkpt>
<trkpt lat="45.26488" lon="-75.705299"><ele>46.0</ele><time>2022-10-08T17:37:14Z</time></trkpt>
<trkpt lat="45.264896" lon="-75.70529"><ele>46.0</ele><time>2022-10-08T17:37:15Z</time></trkpt>
<trkpt lat="45.264909" lon="-75.70529"><ele>46.0</ele><time>2022-10-08T17:37:16Z</time></trkpt>
<trkpt lat="45.264922" lon="-75.705281"><ele>46.0</ele><time>2022-10-08T17:37:17Z</time></trkpt>
<trkpt lat="45.264931" lon="-75.705281"><ele>46.0</ele><time>2022-10-08T17:37:18Z</time></trkpt>
<trkpt lat="45.264944" lon="-75.705281"><ele>46.0</ele><time>2022-10-08T17:37:19Z</time></trkpt>
<trkpt lat="45.264953" lon="-75.705281"><ele>46.0</ele><time>2022-10-08T17:37:20Z</time></trkpt>
<trkpt lat="45.264966" lon="-75.705281"><ele>47.0</ele><time>2022-10-08T17:37:21Z</time></trkpt>
<trkpt lat="45.264979" lon="-75.705281"><ele>47.0</ele><time>2022-10-08T17:37:22Z</time></trkpt>
<trkpt lat="45.264988" lon="-75.705272"><ele>47.0</ele><time>2022-10-08T17:37:23Z</time></trkpt>
<trkpt lat="45.265001" lon="-75.705272"><ele>46.0</ele><time>2022-10-08T17:37:24Z</time></trkpt>
<trkpt lat="45.265014" lon="-75.705272"><ele>46.0</ele><time>2022-10-08T17:37:25Z</time></trkpt>
<trkpt lat="45.265026" lon="-75.705272"><ele>47.0</ele><time>2022-10-08T17:37:26Z</time></trkpt>
<trkpt lat="45.265039" lon="-75.705272"><ele>47.0</ele><time>2022-10-08T17:37:27Z</time></trkpt>
<trkpt lat="45.265055" lon="-75.705272"><ele>47.0</ele><time>2022-10-08T17:37:28Z</time></trkpt>
<trkpt lat="45.265068" lon="-75.705263"><ele>47.0</ele><time>2022-10-08T17:37:29Z</time></trkpt>
<trkpt lat="45.265083" lon="-75.705263"><ele>47.0</ele><time>2022-10-08T17:37:30Z</time></trkpt>
<trkpt lat="45.265099" lon="-75.705254"><ele>47.0</ele><time>2022-10-08T17:37:31Z</time></trkpt>
<trkpt lat="45.265115" lon="-75.705245"><ele>46.0</ele><time>2022-10-08T17:37:32Z</time></trkpt>
<trkpt lat="45.265131" lon="-75.705236"><ele>46.0</ele><time>2022-10-08T17:37:33Z</time></trkpt>
<trkpt lat="45.265147" lon="-75.705218"><ele>46.0</ele><time>2022-10-08T17:37:34Z</time></trkpt>
<trkpt lat="45.265163" lon="-75.705209"><ele>46.0</ele><time>2022-10-08T17:37:35Z</time></trkpt>
<trkpt lat="45.265175" lon="-75.7052"><ele>46.0</ele><time>2022-10-08T17:37:36Z</time></trkpt>
<trkpt lat="45.265188" lon="-75.705182"><ele>46.0</ele><time>2022-10-08T17:37:37Z</time></trkpt>
<trkpt lat="45.265201" lon="-75.705173"><ele>46.0</ele><time>2022-10-08T17:37:38Z</time></trkpt>
<trkpt lat="45.265213" lon="-75.705164"><ele>46.0</ele><time>2022-10-08T17:37:39Z</time></trkpt>
<trkpt lat="45.269692" lon="-75.703278"><ele>44.0</ele><time>2022-10-08T17:45:24Z</time></trkpt>
<trkpt lat="45.269622" lon="-75.703394"><ele>48.0</ele><time>2022-10-08T17:45:25Z</time></trkpt>
<trkpt lat="45.269635" lon="-75.703367"><ele>47.0</ele><time>2022-10-08T17:45:26Z</time></trkpt>
<trkpt lat="45.269657" lon="-75.703358"><ele>47.0</ele><time>2022-10-08T17:45:27Z</time></trkpt>
<trkpt lat="45.26966" lon="-75.703331"><ele>47.0</ele><time>2022-10-08T17:45:28Z</time></trkpt>
<trkpt lat="45.26967" lon="-75.703322"><ele>48.0</ele><time>2022-10-08T17:45:29Z</time></trkpt>
<trkpt lat="45.269676" lon="-75.703304"><ele>48.0</ele><time>2022-10-08T17:45:30Z</time></trkpt>
<trkpt lat="45.269686" lon="-75.703295"><ele>48.0</ele><time>2022-10-08T17:45:31Z</time></trkpt>
<trkpt lat="45.269692" lon="-75.703278"><ele>48.0</ele><time>2022-10-08T17:45:32Z</time></trkpt>
<trkpt lat="45.269698" lon="-75.70326"><ele>48.0</ele><time>2022-10-08T17:45:33Z</time></trkpt>
<trkpt lat="45.269698" lon="-75.70326"><ele>48.0</ele><time>2022-10-08T17:45:34Z</time></trkpt>
<trkpt lat="45.272841" lon="-75.701571"><ele>47.0</ele><time>2022-10-08T17:50:36Z</time></trkpt>
<trkpt lat="45.272841" lon="-75.701571"><ele>47.0</ele><time>2022-10-08T17:50:36Z</time></trkpt>
<trkpt lat="45.272844" lon="-75.701562"><ele>46.0</ele><time>2022-10-08T17:50:36Z</time></trkpt>
<trkpt lat="45.272863" lon="-75.701544"><ele>39.0</ele><time>2022-10-08T17:50:37Z</time></trkpt>
<trkpt lat="45.272892" lon="-75.701526"><ele>46.0</ele><time>2022-10-08T17:50:38Z</time></trkpt>
<trkpt lat="45.272908" lon="-75.701544"><ele>46.0</ele><time>2022-10-08T17:50:39Z</time></trkpt>
<trkpt lat="45.27293" lon="-75.701535"><ele>45.0</ele><time>2022-10-08T17:50:40Z</time></trkpt>
<trkpt lat="45.272946" lon="-75.701535"><ele>46.0</ele><time>2022-10-08T17:50:41Z</time></trkpt>
<trkpt lat="45.272965" lon="-75.701544"><ele>46.0</ele><time>2022-10-08T17:50:42Z</time></trkpt>
<trkpt lat="45.272952" lon="-75.701517"><ele>46.0</ele><time>2022-10-08T17:50:43Z</time></trkpt>
<trkpt lat="45.272974" lon="-75.701526"><ele>45.0</ele><time>2022-10-08T17:50:44Z</time></trkpt>
<trkpt lat="45.272987" lon="-75.701526"><ele>45.0</ele><time>2022-10-08T17:50:45Z</time></trkpt>
<trkpt lat="45.273003" lon="-75.701517"><ele>46.0</ele><time>2022-10-08T17:50:46Z</time></trkpt>
<trkpt lat="45.273012" lon="-75.701508"><ele>45.0</ele><time>2022-10-08T17:50:47Z</time></trkpt>
<trkpt lat="45.273022" lon="-75.701499"><ele>45.0</ele><time>2022-10-08T17:50:48Z</time></trkpt>
<trkpt lat="45.273031" lon="-75.70149"><ele>45.0</ele><time>2022-10-08T17:50:49Z</time></trkpt>
<trkpt lat="45.273047" lon="-75.701499"><ele>47.0</ele><time>2022-10-08T17:50:50Z</time></trkpt>
<trkpt lat="45.273054" lon="-75.701508"><ele>47.0</ele><time>2022-10-08T17:50:51Z</time></trkpt>
<trkpt lat="45.273063" lon="-75.701508"><ele>47.0</ele><time>2022-10-08T17:50:52Z</time></trkpt>
<trkpt lat="45.273073" lon="-75.701499"><ele>47.0</ele><time>2022-10-08T17:50:53Z</time></trkpt>
<trkpt lat="45.273082" lon="-75.70149"><ele>47.0</ele><time>2022-10-08T17:50:54Z</time></trkpt>
<trkpt lat="45.273092" lon="-75.70149"><ele>47.0</ele><time>2022-10-08T17:50:55Z</time></trkpt>
<trkpt lat="45.273101" lon="-75.701481"><ele>47.0</ele><time>2022-10-08T17:50:56Z</time></trkpt>
<trkpt lat="45.273111" lon="-75.701472"><ele>47.0</ele><time>2022-10-08T17:50:57Z</time></trkpt>
<trkpt lat="45.273117" lon="-75.701472"><ele>47.0</ele><time>2022-10-08T17:50:58Z</time></trkpt>
<trkpt lat="45.273127" lon="-75.701463"><ele>47.0</ele><time>2022-10-08T17:50:59Z</time></trkpt>
<trkpt lat="45.273136" lon="-75.701454"><ele>47.0</ele><time>2022-10-08T17:51:00Z</time></trkpt>
<trkpt lat="45.273146" lon="-75.701454"><ele>47.0</ele><time>2022-10-08T17:51:01Z</time></trkpt>
<trkpt lat="45.273155" lon="-75.701445"><ele>47.0</ele><time>2022-10-08T17:51:02Z</time></trkpt>
<trkpt lat="45.273165" lon="-75.701445"><ele>47.0</ele><time>2022-10-08T17:51:03Z</time></trkpt>
<trkpt lat="45.273174" lon="-75.701436"><ele>47.0</ele><time>2022-10-08T17:51:04Z</time></trkpt>
<trkpt lat="45.273184" lon="-75.701436"><ele>47.0</ele><time>2022-10-08T17:51:05Z</time></trkpt>
<trkpt lat="45.273193" lon="-75.701427"><ele>47.0</ele><time>2022-10-08T17:51:06Z</time></trkpt>
<trkpt lat="45.273199" lon="-75.701418"><ele>47.0</ele><time>2022-10-08T17:51:07Z</time></trkpt>
<trkpt lat="45.273209" lon="-75.701418"><ele>47.0</ele><time>2022-10-08T17:51:08Z</time></trkpt>
<trkpt lat="45.273218" lon="-75.701409"><ele>47.0</ele><time>2022-10-08T17:51:09Z</time></trkpt>
<trkpt lat="45.273228" lon="-75.701409"><ele>47.0</ele><time>2022-10-08T17:51:10Z</time></trkpt>
<trkpt lat="45.273237" lon="-75.7014"><ele>47.0</ele><time>2022-10-08T17:51:11Z</time></trkpt>
<trkpt lat="45.273247" lon="-75.701391"><ele>47.0</ele><time>2022-10-08T17:51:12Z</time></trkpt>
<trkpt lat="45.273257" lon="-75.701391"><ele>46.0</ele><time>2022-10-08T17:51:13Z</time></trkpt>
<trkpt lat="45.273263" lon="-75.701382"><ele>46.0</ele><time>2022-10-08T17:51:14Z</time></trkpt>
<trkpt lat="45.273272" lon="-75.701373"><ele>47.0</ele><time>2022-10-08T17:51:15Z</time></trkpt>
<trkpt lat="45.273282" lon="-75.701364"><ele>47.0</ele><time>2022-10-08T17:51:16Z</time></trkpt>
<trkpt lat="45.273291" lon="-75.701364"><ele>48.0</ele><time>2022-10-08T17:51:17Z</time></trkpt>
<trkpt lat="45.273301" lon="-75.701373"><ele>47.0</ele><time>2022-10-08T17:51:18Z</time></trkpt>
<trkpt lat="45.27331" lon="-75.701364"><ele>47.0</ele><time>2022-10-08T17:51:19Z</time></trkpt>
<trkpt lat="45.273317" lon="-75.701355"><ele>48.0</ele><time>2022-10-08T17:51:20Z</time></trkpt>
<trkpt lat="45.273326" lon="-75.701346"><ele>48.0</ele><time>2022-10-08T17:51:21Z</time></trkpt>
<trkpt lat="45.273333" lon="-75.701337"><ele>47.0</ele><time>2022-10-08T17:51:22Z</time></trkpt>
<trkpt lat="45.273339" lon="-75.701328"><ele>47.0</ele><time>2022-10-08T17:51:23Z</time></trkpt>
<trkpt lat="45.273345" lon="-75.701328"><ele>47.0</ele><time>2022-10-08T17:51:24Z</time></trkpt>
<trkpt lat="45.273355" lon="-75.701319"><ele>47.0</ele><time>2022-10-08T17:51:25Z</time></trkpt>
<trkpt lat="45.273364" lon="-75.70131"><ele>47.0</ele><time>2022-10-08T17:51:26Z</time></trkpt>
<trkpt lat="45.273374" lon="-75.70131"><ele>48.0</ele><time>2022-10-08T17:51:27Z</time></trkpt>
<trkpt lat="45.27338" lon="-75.701301"><ele>48.0</ele><time>2022-10-08T17:51:28Z</time></trkpt>
<trkpt lat="45.27339" lon="-75.701292"><ele>48.0</ele><time>2022-10-08T17:51:29Z</time></trkpt>
<trkpt lat="45.273399" lon="-75.701292"><ele>48.0</ele><time>2022-10-08T17:51:30Z</time></trkpt>
<trkpt lat="45.273406" lon="-75.701283"><ele>48.0</ele><time>2022-10-08T17:51:31Z</time></trkpt>
<trkpt lat="45.273415" lon="-75.701283"><ele>48.0</ele><time>2022-10-08T17:51:32Z</time></trkpt>
<trkpt lat="45.273425" lon="-75.701274"><ele>48.0</ele><time>2022-10-08T17:51:33Z</time></trkpt>
<trkpt lat="45.273434" lon="-75.701274"><ele>48.0</ele><time>2022-10-08T17:51:34Z</time></trkpt>
<trkpt lat="45.273444" lon="-75.701265"><ele>48.0</ele><time>2022-10-08T17:51:35Z</time></trkpt>
<trkpt lat="45.273453" lon="-75.701265"><ele>48.0</ele><time>2022-10-08T17:51:36Z</time></trkpt>
<trkpt lat="45.273463" lon="-75.701256"><ele>48.0</ele><time>2022-10-08T17:51:37Z</time></trkpt>
<trkpt lat="45.273475" lon="-75.701256"><ele>48.0</ele><time>2022-10-08T17:51:38Z</time></trkpt>
<trkpt lat="45.273485" lon="-75.701247"><ele>48.0</ele><time>2022-10-08T17:51:39Z</time></trkpt>
<trkpt lat="45.273494" lon="-75.701247"><ele>48.0</ele><time>2022-10-08T17:51:40Z</time></trkpt>
<trkpt lat="45.273504" lon="-75.701247"><ele>48.0</ele><time>2022-10-08T17:51:41Z</time></trkpt>
<trkpt lat="45.273513" lon="-75.701247"><ele>48.0</ele><time>2022-10-08T17:51:42Z</time></trkpt>
<trkpt lat="45.273526" lon="-75.701247"><ele>47.0</ele><time>2022-10-08T17:51:43Z</time></trkpt>
<trkpt lat="45.273539" lon="-75.701238"><ele>48.0</ele><time>2022-10-08T17:51:44Z</time></trkpt>
<trkpt lat="45.273545" lon="-75.701229"><ele>48.0</ele><time>2022-10-08T17:51:45Z</time></trkpt>
<trkpt lat="45.273555" lon="-75.701229"><ele>48.0</ele><time>2022-10-08T17:51:46Z</time></trkpt>
<trkpt lat="45.273567" lon="-75.701229"><ele>47.0</ele><time>2022-10-08T17:51:47Z</time></trkpt>
<trkpt lat="45.27358" lon="-75.701229"><ele>47.0</ele><time>2022-10-08T17:51:48Z</time></trkpt>
<trkpt lat="45.27359" lon="-75.70122"><ele>47.0</ele><time>2022-10-08T17:51:49Z</time></trkpt>
<trkpt lat="45.273602" lon="-75.70122"><ele>47.0</ele><time>2022-10-08T17:51:50Z</time></trkpt>
<trkpt lat="45.273615" lon="-75.701211"><ele>47.0</ele><time>2022-10-08T17:51:51Z</time></trkpt>
<trkpt lat="45.273624" lon="-75.701211"><ele>48.0</ele><time>2022-10-08T17:51:52Z</time></trkpt>
<trkpt lat="45.273637" lon="-75.701202"><ele>48.0</ele><time>2022-10-08T17:51:53Z</time></trkpt>
<trkpt lat="45.273647" lon="-75.701202"><ele>48.0</ele><time>2022-10-08T17:51:54Z</time></trkpt>
<trkpt lat="45.273659" lon="-75.701202"><ele>48.0</ele><time>2022-10-08T17:51:55Z</time></trkpt>
<trkpt lat="45.273672" lon="-75.701202"><ele>48.0</ele><time>2022-10-08T17:51:56Z</time></trkpt>
<trkpt lat="45.273685" lon="-75.701194"><ele>48.0</ele><time>2022-10-08T17:51:57Z</time></trkpt>
<trkpt lat="45.273697" lon="-75.701194"><ele>48.0</ele><time>2022-10-08T17:51:58Z</time></trkpt>
<trkpt lat="45.273707" lon="-75.701194"><ele>48.0</ele><time>2022-10-08T17:51:59Z</time></trkpt>
<trkpt lat="45.27372" lon="-75.701194"><ele>47.0</ele><time>2022-10-08T17:52:00Z</time></trkpt>
<trkpt lat="45.273732" lon="-75.701185"><ele>47.0</ele><time>2022-10-08T17:52:01Z</time></trkpt>
<trkpt lat="45.273745" lon="-75.701185"><ele>47.0</ele><time>2022-10-08T17:52:02Z</time></trkpt>
<trkpt lat="45.273758" lon="-75.701185"><ele>47.0</ele><time>2022-10-08T17:52:03Z</time></trkpt>
<trkpt lat="45.27377" lon="-75.701185"><ele>47.0</ele><time>2022-10-08T17:52:04Z</time></trkpt>
<trkpt lat="45.273783" lon="-75.701176"><ele>47.0</ele><time>2022-10-08T17:52:05Z</time></trkpt>
<trkpt lat="45.273796" lon="-75.701176"><ele>47.0</ele><time>2022-10-08T17:52:06Z</time></trkpt>
<trkpt lat="45.273808" lon="-75.701176"><ele>47.0</ele><time>2022-10-08T17:52:07Z</time></trkpt>
<trkpt lat="45.273821" lon="-75.701176"><ele>47.0</ele><time>2022-10-08T17:52:08Z</time></trkpt>
<trkpt lat="45.273834" lon="-75.701176"><ele>47.0</ele><time>2022-10-08T17:52:09Z</time></trkpt>
<trkpt lat="45.273846" lon="-75.701176"><ele>47.0</ele><time>2022-10-08T17:52:10Z</time></trkpt>
<trkpt lat="45.273859" lon="-75.701176"><ele>47.0</ele><time>2022-10-08T17:52:11Z</time></trkpt>
<trkpt lat="45.273872" lon="-75.701176"><ele>48.0</ele><time>2022-10-08T17:52:12Z</time></trkpt>
<trkpt lat="45.273884" lon="-75.701176"><ele>48.0</ele><time>2022-10-08T17:52:13Z</time></trkpt>
<trkpt lat="45.273897" lon="-75.701176"><ele>47.0</ele><time>2022-10-08T17:52:14Z</time></trkpt>
<trkpt lat="45.27391" lon="-75.701176"><ele>48.0</ele><time>2022-10-08T17:52:15Z</time></trkpt>
<trkpt lat="45.273926" lon="-75.701176"><ele>48.0</ele><time>2022-10-08T17:52:16Z</time></trkpt>
<trkpt lat="45.273938" lon="-75.701176"><ele>48.0</ele><time>2022-10-08T17:52:17Z</time></trkpt>
<trkpt lat="45.273951" lon="-75.701176"><ele>47.0</ele><time>2022-10-08T17:52:18Z</time></trkpt>
<trkpt lat="45.273967" lon="-75.701176"><ele>47.0</ele><time>2022-10-08T17:52:19Z</time></trkpt>
<trkpt lat="45.27398" lon="-75.701176"><ele>47.0</ele><time>2022-10-08T17:52:20Z</time></trkpt>
<trkpt lat="45.273992" lon="-75.701176"><ele>47.0</ele><time>2022-10-08T17:52:21Z</time></trkpt>
<trkpt lat="45.274008" lon="-75.701176"><ele>47.0</ele><time>2022-10-08T17:52:22Z</time></trkpt>
<trkpt lat="45.274021" lon="-75.701176"><ele>47.0</ele><time>2022-10-08T17:52:23Z</time></trkpt>
<trkpt lat="45.274033" lon="-75.701176"><ele>48.0</ele><time>2022-10-08T17:52:24Z</time></trkpt>
<trkpt lat="45.274049" lon="-75.701176"><ele>48.0</ele><time>2022-10-08T17:52:25Z</time></trkpt>
<trkpt lat="45.274065" lon="-75.701176"><ele>48.0</ele><time>2022-10-08T17:52:26Z</time></trkpt>
<trkpt lat="45.274078" lon="-75.701185"><ele>48.0</ele><time>2022-10-08T17:52:27Z</time></trkpt>
<trkpt lat="45.274087" lon="-75.701185"><ele>47.0</ele><time>2022-10-08T17:52:28Z</time></trkpt>
<trkpt lat="45.2741" lon="-75.701185"><ele>48.0</ele><time>2022-10-08T17:52:29Z</time></trkpt>
<trkpt lat="45.27411" lon="-75.701185"><ele>47.0</ele><time>2022-10-08T17:52:30Z</time></trkpt>
<trkpt lat="45.274119" lon="-75.701176"><ele>47.0</ele><time>2022-10-08T17:52:31Z</time></trkpt>
<trkpt lat="45.274125" lon="-75.701176"><ele>48.0</ele><time>2022-10-08T17:52:32Z</time></trkpt>
<trkpt lat="45.274138" lon="-75.701176"><ele>48.0</ele><time>2022-10-08T17:52:33Z</time></trkpt>
<trkpt lat="45.274148" lon="-75.701185"><ele>48.0</ele><time>2022-10-08T17:52:34Z</time></trkpt>
<trkpt lat="45.27416" lon="-75.701176"><ele>48.0</ele><time>2022-10-08T17:52:35Z</time></trkpt>
<trkpt lat="45.27417" lon="-75.701176"><ele>48.0</ele><time>2022-10-08T17:52:36Z</time></trkpt>
<trkpt lat="45.274183" lon="-75.701176"><ele>48.0</ele><time>2022-10-08T17:52:37Z</time></trkpt>
<trkpt lat="45.274195" lon="-75.701185"><ele>48.0</ele><time>2022-10-08T17:52:38Z</time></trkpt>
<trkpt lat="45.274205" lon="-75.701185"><ele>48.0</ele><time>2022-10-08T17:52:39Z</time></trkpt>
<trkpt lat="45.274217" lon="-75.701185"><ele>48.0</ele><time>2022-10-08T17:52:40Z</time></trkpt>
<trkpt lat="45.27423" lon="-75.701185"><ele>48.0</ele><time>2022-10-08T17:52:41Z</time></trkpt>
<trkpt lat="45.274243" lon="-75.701185"><ele>48.0</ele><time>2022-10-08T17:52:42Z</time></trkpt>
<trkpt lat="45.274255" lon="-75.701185"><ele>48.0</ele><time>2022-10-08T17:52:43Z</time></trkpt>
<trkpt lat="45.274265" lon="-75.701185"><ele>47.0</ele><time>2022-10-08T17:52:44Z</time></trkpt>
<trkpt lat="45.274278" lon="-75.701185"><ele>48.0</ele><time>2022-10-08T17:52:45Z</time></trkpt>
<trkpt lat="45.274287" lon="-75.701185"><ele>48.0</ele><time>2022-10-08T17:52:46Z</time></trkpt>
<trkpt lat="45.274297" lon="-75.701185"><ele>48.0</ele><time>2022-10-08T17:52:47Z</time></trkpt>
<trkpt lat="45.274309" lon="-75.701185"><ele>48.0</ele><time>2022-10-08T17:52:48Z</time></trkpt>
<trkpt lat="45.274322" lon="-75.701185"><ele>47.0</ele><time>2022-10-08T17:52:49Z</time></trkpt>
<trkpt lat="45.274335" lon="-75.701185"><ele>47.0</ele><time>2022-10-08T17:52:50Z</time></trkpt>
<trkpt lat="45.274347" lon="-75.701185"><ele>48.0</ele><time>2022-10-08T17:52:51Z</time></trkpt>
<trkpt lat="45.27436" lon="-75.701185"><ele>48.0</ele><time>2022-10-08T17:52:52Z</time></trkpt>
<trkpt lat="45.274373" lon="-75.701185"><ele>48.0</ele><time>2022-10-08T17:52:53Z</time></trkpt>
<trkpt lat="45.274386" lon="-75.701185"><ele>48.0</ele><time>2022-10-08T17:52:54Z</time></trkpt>
<trkpt lat="45.274398" lon="-75.701185"><ele>48.0</ele><time>2022-10-08T17:52:55Z</time></trkpt>
<trkpt lat="45.274411" lon="-75.701185"><ele>48.0</ele><time>2022-10-08T17:52:56Z</time></trkpt>
<trkpt lat="45.274424" lon="-75.701185"><ele>48.0</ele><time>2022-10-08T17:52:57Z</time></trkpt>
<trkpt lat="45.274436" lon="-75.701185"><ele>48.0</ele><time>2022-10-08T17:52:58Z</time></trkpt>
<trkpt lat="45.274449" lon="-75.701185"><ele>47.0</ele><time>2022-10-08T17:52:59Z</time></trkpt>
<trkpt lat="45.274452" lon="-75.701185"><ele>48.0</ele><time>2022-10-08T17:53:00Z</time></trkpt>
<trkpt lat="45.274471" lon="-75.701185"><ele>47.0</ele><time>2022-10-08T17:53:01Z</time></trkpt>
<trkpt lat="45.274487" lon="-75.701185"><ele>48.0</ele><time>2022-10-08T17:53:02Z</time></trkpt>
<trkpt lat="45.2745" lon="-75.701194"><ele>47.0</ele><time>2022-10-08T17:53:03Z</time></trkpt>
<trkpt lat="45.274512" lon="-75.701185"><ele>48.0</ele><time>2022-10-08T17:53:04Z</time></trkpt>
<trkpt lat="45.274528" lon="-75.701185"><ele>48.0</ele><time>2022-10-08T17:53:05Z</time></trkpt>
<trkpt lat="45.274541" lon="-75.701185"><ele>48.0</ele><time>2022-10-08T17:53:06Z</time></trkpt>
<trkpt lat="45.274554" lon="-75.701176"><ele>48.0</ele><time>2022-10-08T17:53:07Z</time></trkpt>
<trkpt lat="45.274566" lon="-75.701176"><ele>47.0</ele><time>2022-10-08T17:53:08Z</time></trkpt>
<trkpt lat="45.274579" lon="-75.701176"><ele>47.0</ele><time>2022-10-08T17:53:09Z</time></trkpt>
<trkpt lat="45.274592" lon="-75.701176"><ele>47.0</ele><time>2022-10-08T17:53:10Z</time></trkpt>
<trkpt lat="45.274604" lon="-75.701176"><ele>47.0</ele><time>2022-10-08T17:53:11Z</time></trkpt>
<trkpt lat="45.274617" lon="-75.701176"><ele>47.0</ele><time>2022-10-08T17:53:12Z</time></trkpt>
<trkpt lat="45.27463" lon="-75.701176"><ele>47.0</ele><time>2022-10-08T17:53:13Z</time></trkpt>
<trkpt lat="45.274642" lon="-75.701176"><ele>47.0</ele><time>2022-10-08T17:53:14Z</time></trkpt>
<trkpt lat="45.274655" lon="-75.701167"><ele>47.0</ele><time>2022-10-08T17:53:15Z</time></trkpt>
<trkpt lat="45.274668" lon="-75.701167"><ele>47.0</ele><time>2022-10-08T17:53:16Z</time></trkpt>
<trkpt lat="45.27468" lon="-75.701167"><ele>47.0</ele><time>2022-10-08T17:53:17Z</time></trkpt>
<trkpt lat="45.274693" lon="-75.701167"><ele>47.0</ele><time>2022-10-08T17:53:18Z</time></trkpt>
<trkpt lat="45.274706" lon="-75.701167"><ele>47.0</ele><time>2022-10-08T17:53:19Z</time></trkpt>
<trkpt lat="45.274718" lon="-75.701167"><ele>47.0</ele><time>2022-10-08T17:53:20Z</time></trkpt>
<trkpt lat="45.274731" lon="-75.701167"><ele>47.0</ele><time>2022-10-08T17:53:21Z</time></trkpt>
<trkpt lat="45.274744" lon="-75.701167"><ele>47.0</ele><time>2022-10-08T17:53:22Z</time></trkpt>
<trkpt lat="45.274757" lon="-75.701167"><ele>47.0</ele><time>2022-10-08T17:53:23Z</time></trkpt>
<trkpt lat="45.274769" lon="-75.701167"><ele>47.0</ele><time>2022-10-08T17:53:24Z</time></trkpt>
<trkpt lat="45.274782" lon="-75.701167"><ele>47.0</ele><time>2022-10-08T17:53:25Z</time></trkpt>
<trkpt lat="45.274795" lon="-75.701167"><ele>47.0</ele><time>2022-10-08T17:53:26Z</time></trkpt>
<trkpt lat="45.274807" lon="-75.701167"><ele>47.0</ele><time>2022-10-08T17:53:27Z</time></trkpt>
<trkpt lat="45.27482" lon="-75.701167"><ele>47.0</ele><time>2022-10-08T17:53:28Z</time></trkpt>
<trkpt lat="45.274833" lon="-75.701167"><ele>47.0</ele><time>2022-10-08T17:53:29Z</time></trkpt>
<trkpt lat="45.274845" lon="-75.701167"><ele>47.0</ele><time>2022-10-08T17:53:30Z</time></trkpt>
<trkpt lat="45.274858" lon="-75.701158"><ele>47.0</ele><time>2022-10-08T17:53:31Z</time></trkpt>
<trkpt lat="45.274871" lon="-75.701158"><ele>47.0</ele><time>2022-10-08T17:53:32Z</time></trkpt>
<trkpt lat="45.274883" lon="-75.701158"><ele>47.0</ele><time>2022-10-08T17:53:33Z</time></trkpt>
<trkpt lat="45.274896" lon="-75.701158"><ele>47.0</ele><time>2022-10-08T17:53:34Z</time></trkpt>
<trkpt lat="45.274909" lon="-75.701158"><ele>47.0</ele><time>2022-10-08T17:53:35Z</time></trkpt>
<trkpt lat="45.274921" lon="-75.701158"><ele>47.0</ele><time>2022-10-08T17:53:36Z</time></trkpt>
<trkpt lat="45.274934" lon="-75.701158"><ele>47.0</ele><time>2022-10-08T17:53:37Z</time></trkpt>
<trkpt lat="45.274944" lon="-75.701158"><ele>47.0</ele><time>2022-10-08T17:53:38Z</time></trkpt>
<trkpt lat="45.274956" lon="-75.701158"><ele>47.0</ele><time>2022-10-08T17:53:39Z</time></trkpt>
<trkpt lat="45.274963" lon="-75.701149"><ele>47.0</ele><time>2022-10-08T17:53:40Z</time></trkpt>
<trkpt lat="45.27885" lon="-75.702047"><ele>56.0</ele><time>2022-10-08T18:03:48Z</time></trkpt>
<trkpt lat="45.278774" lon="-75.702083"><ele>48.0</ele><time>2022-10-08T18:03:49Z</time></trkpt>
<trkpt lat="45.278768" lon="-75.702083"><ele>48.0</ele><time>2022-10-08T18:03:50Z</time></trkpt>
<trkpt lat="45.278765" lon="-75.702074"><ele>48.0</ele><time>2022-10-08T18:03:51Z</time></trkpt>
<trkpt lat="45.278765" lon="-75.702074"><ele>48.0</ele><time>2022-10-08T18:03:52Z</time></trkpt>
<trkpt lat="45.278765" lon="-75.702065"><ele>48.0</ele><time>2022-10-08T18:03:53Z</time></trkpt>
<trkpt lat="45.278765" lon="-75.702065"><ele>48.0</ele><time>2022-10-08T18:03:54Z</time></trkpt>
<trkpt lat="45.278762" lon="-75.702065"><ele>49.0</ele><time>2022-10-08T18:03:55Z</time></trkpt>
<trkpt lat="45.278762" lon="-75.702065"><ele>49.0</ele><time>2022-10-08T18:03:56Z</time></trkpt>
<trkpt lat="45.278762" lon="-75.702065"><ele>48.0</ele><time>2022-10-08T18:03:57Z</time></trkpt>
<trkpt lat="45.278762" lon="-75.702065"><ele>48.0</ele><time>2022-10-08T18:03:58Z</time></trkpt>
<trkpt lat="45.278762" lon="-75.702065"><ele>49.0</ele><time>2022-10-08T18:03:58Z</time></trkpt>
<trkpt lat="45.278765" lon="-75.702065"><ele>49.0</ele><time>2022-10-08T18:03:59Z</time></trkpt>
<trkpt lat="45.278768" lon="-75.702065"><ele>49.0</ele><time>2022-10-08T18:04:00Z</time></trkpt>
<trkpt lat="45.278768" lon="-75.702065"><ele>48.0</ele><time>2022-10-08T18:04:01Z</time></trkpt>
</trkseg></trk></gpx>
