<?xml version="1.0" encoding="UTF-8"?> <gpx xmlns:xsi="http://www.w3.org/2001/XMLSchema-instance" version="1.1" xmlns="http://www.topografix.com/GPX/1/1" creator="Galileo Offline Maps" xsi:schemaLocation="http://www.topografix.com/GPX/1/1 http://www.topografix.com/GPX/1/1/gpx.xsd"><trk><name>Untitled Track</name><desc></desc><type>TrackStyle_ff7f00c8</type><trkseg>
<trkpt lat="51.113591" lon="-114.021438"><ele>1062.0</ele><time>2023-05-15T16:55:54Z</time></trkpt>
<trkpt lat="51.112879" lon="-114.021438"><ele>1062.0</ele><time>2023-05-15T16:55:55Z</time></trkpt>
<trkpt lat="51.112121" lon="-114.021456"><ele>1063.0</ele><time>2023-05-15T16:55:56Z</time></trkpt>
<trkpt lat="51.111364" lon="-114.021474"><ele>1062.0</ele><time>2023-05-15T16:55:57Z</time></trkpt>
<trkpt lat="51.110589" lon="-114.021447"><ele>1063.0</ele><time>2023-05-15T16:55:58Z</time></trkpt>
<trkpt lat="51.109811" lon="-114.021447"><ele>1064.0</ele><time>2023-05-15T16:55:59Z</time></trkpt>
<trkpt lat="51.109023" lon="-114.021456"><ele>1064.0</ele><time>2023-05-15T16:56:00Z</time></trkpt>
<trkpt lat="51.108205" lon="-114.021456"><ele>1066.0</ele><time>2023-05-15T16:56:01Z</time></trkpt>
<trkpt lat="51.107374" lon="-114.021501"><ele>1067.0</ele><time>2023-05-15T16:56:02Z</time></trkpt>
<trkpt lat="51.106534" lon="-114.021519"><ele>1069.0</ele><time>2023-05-15T16:56:03Z</time></trkpt>
<trkpt lat="51.105717" lon="-114.021564"><ele>1070.0</ele><time>2023-05-15T16:56:04Z</time></trkpt>
<trkpt lat="51.104869" lon="-114.021591"><ele>1071.0</ele><time>2023-05-15T16:56:05Z</time></trkpt>
<trkpt lat="51.104057" lon="-114.0216"><ele>1071.0</ele><time>2023-05-15T16:56:06Z</time></trkpt>
<trkpt lat="51.10324" lon="-114.021591"><ele>1071.0</ele><time>2023-05-15T16:56:07Z</time></trkpt>
<trkpt lat="51.102383" lon="-114.021636"><ele>1070.0</ele><time>2023-05-15T16:56:08Z</time></trkpt>
<trkpt lat="51.101569" lon="-114.021681"><ele>1070.0</ele><time>2023-05-15T16:56:09Z</time></trkpt>
<trkpt lat="51.10076" lon="-114.02169"><ele>1072.0</ele><time>2023-05-15T16:56:10Z</time></trkpt>
<trkpt lat="51.099946" lon="-114.021654"><ele>1078.0</ele><time>2023-05-15T16:56:11Z</time></trkpt>
<trkpt lat="51.099032" lon="-114.02169"><ele>1082.0</ele><time>2023-05-15T16:56:12Z</time></trkpt>
<trkpt lat="51.098201" lon="-114.021654"><ele>1085.0</ele><time>2023-05-15T16:56:13Z</time></trkpt>
<trkpt lat="51.097347" lon="-114.021663"><ele>1089.0</ele><time>2023-05-15T16:56:15Z</time></trkpt>
<trkpt lat="51.096487" lon="-114.021717"><ele>1088.0</ele><time>2023-05-15T16:56:15Z</time></trkpt>
<trkpt lat="51.095641" lon="-114.021726"><ele>1088.0</ele><time>2023-05-15T16:56:16Z</time></trkpt>
<trkpt lat="51.091396" lon="-114.022849"><ele>1354.0</ele><time>2023-05-15T16:56:22Z</time></trkpt>
<trkpt lat="51.090745" lon="-114.022857"><ele>1390.0</ele><time>2023-05-15T16:56:23Z</time></trkpt>
<trkpt lat="51.089894" lon="-114.023001"><ele>1443.0</ele><time>2023-05-15T16:56:24Z</time></trkpt>
<trkpt lat="51.089026" lon="-114.023055"><ele>1443.0</ele><time>2023-05-15T16:56:25Z</time></trkpt>
<trkpt lat="51.088304" lon="-114.022992"><ele>1425.0</ele><time>2023-05-15T16:56:26Z</time></trkpt>
<trkpt lat="51.087478" lon="-114.023019"><ele>1436.0</ele><time>2023-05-15T16:56:27Z</time></trkpt>
<trkpt lat="51.086669" lon="-114.023073"><ele>1449.0</ele><time>2023-05-15T16:56:28Z</time></trkpt>
<trkpt lat="51.085823" lon="-114.023064"><ele>1459.0</ele><time>2023-05-15T16:56:29Z</time></trkpt>
<trkpt lat="51.085048" lon="-114.023145"><ele>1479.0</ele><time>2023-05-15T16:56:30Z</time></trkpt>
<trkpt lat="51.084318" lon="-114.02319"><ele>1525.0</ele><time>2023-05-15T16:56:31Z</time></trkpt>
<trkpt lat="51.083594" lon="-114.023522"><ele>1557.0</ele><time>2023-05-15T16:56:32Z</time></trkpt>
<trkpt lat="51.082802" lon="-114.023738"><ele>1588.0</ele><time>2023-05-15T16:56:33Z</time></trkpt>
<trkpt lat="51.08203" lon="-114.023801"><ele>1584.0</ele><time>2023-05-15T16:56:34Z</time></trkpt>
<trkpt lat="51.081153" lon="-114.023944"><ele>1561.0</ele><time>2023-05-15T16:56:35Z</time></trkpt>
<trkpt lat="51.079679" lon="-114.022902"><ele>1086.0</ele><time>2023-05-15T16:56:36Z</time></trkpt>
<trkpt lat="51.079616" lon="-114.023271"><ele>1089.0</ele><time>2023-05-15T16:56:37Z</time></trkpt>
<trkpt lat="51.079102" lon="-114.023226"><ele>1090.0</ele><time>2023-05-15T16:56:38Z</time></trkpt>
<trkpt lat="51.068632" lon="-114.025489"><ele>1517.0</ele><time>2023-05-15T16:56:49Z</time></trkpt>
<trkpt lat="51.05647" lon="-114.026648"><ele>1573.0</ele><time>2023-05-15T16:57:02Z</time></trkpt>
<trkpt lat="51.055265" lon="-114.026612"><ele>1706.0</ele><time>2023-05-15T16:57:03Z</time></trkpt>
<trkpt lat="51.054441" lon="-114.027052"><ele>1708.0</ele><time>2023-05-15T16:57:04Z</time></trkpt>
<trkpt lat="51.0511" lon="-114.023693"><ele>1123.0</ele><time>2023-05-15T16:57:09Z</time></trkpt>
<trkpt lat="51.050126" lon="-114.023675"><ele>1124.0</ele><time>2023-05-15T16:57:10Z</time></trkpt>
<trkpt lat="51.049181" lon="-114.023648"><ele>1125.0</ele><time>2023-05-15T16:57:11Z</time></trkpt>
<trkpt lat="51.048269" lon="-114.023576"><ele>1127.0</ele><time>2023-05-15T16:57:12Z</time></trkpt>
<trkpt lat="51.047327" lon="-114.023657"><ele>1131.0</ele><time>2023-05-15T16:57:13Z</time></trkpt>
<trkpt lat="51.046214" lon="-114.023253"><ele>1137.0</ele><time>2023-05-15T16:57:14Z</time></trkpt>
<trkpt lat="51.045217" lon="-114.023208"><ele>1138.0</ele><time>2023-05-15T16:57:15Z</time></trkpt>
<trkpt lat="51.043099" lon="-114.022606"><ele>1146.0</ele><time>2023-05-15T16:57:17Z</time></trkpt>
<trkpt lat="51.042151" lon="-114.022471"><ele>1147.0</ele><time>2023-05-15T16:57:18Z</time></trkpt>
<trkpt lat="51.035847" lon="-114.022507"><ele>1173.0</ele><time>2023-05-15T16:57:23Z</time></trkpt>
<trkpt lat="51.034791" lon="-114.022336"><ele>1174.0</ele><time>2023-05-15T16:57:24Z</time></trkpt>
<trkpt lat="51.033998" lon="-114.022022"><ele>1175.0</ele><time>2023-05-15T16:57:25Z</time></trkpt>
<trkpt lat="51.033103" lon="-114.021833"><ele>1176.0</ele><time>2023-05-15T16:57:26Z</time></trkpt>
<trkpt lat="51.032098" lon="-114.021771"><ele>1176.0</ele><time>2023-05-15T16:57:27Z</time></trkpt>
<trkpt lat="51.031123" lon="-114.021582"><ele>1176.0</ele><time>2023-05-15T16:57:28Z</time></trkpt>
<trkpt lat="51.030197" lon="-114.021465"><ele>1177.0</ele><time>2023-05-15T16:57:29Z</time></trkpt>
<trkpt lat="51.029251" lon="-114.021357"><ele>1178.0</ele><time>2023-05-15T16:57:30Z</time></trkpt>
<trkpt lat="51.028354" lon="-114.021205"><ele>1179.0</ele><time>2023-05-15T16:57:31Z</time></trkpt>
<trkpt lat="51.027376" lon="-114.021124"><ele>1179.0</ele><time>2023-05-15T16:57:32Z</time></trkpt>
<trkpt lat="51.026413" lon="-114.021088"><ele>1179.0</ele><time>2023-05-15T16:57:33Z</time></trkpt>
<trkpt lat="51.025464" lon="-114.020989"><ele>1179.0</ele><time>2023-05-15T16:57:34Z</time></trkpt>
<trkpt lat="51.02062" lon="-114.020441"><ele>1181.0</ele><time>2023-05-15T16:57:39Z</time></trkpt>
<trkpt lat="51.019691" lon="-114.02027"><ele>1181.0</ele><time>2023-05-15T16:57:40Z</time></trkpt>
<trkpt lat="51.018742" lon="-114.020261"><ele>1181.0</ele><time>2023-05-15T16:57:41Z</time></trkpt>
<trkpt lat="51.017725" lon="-114.0208"><ele>1181.0</ele><time>2023-05-15T16:57:42Z</time></trkpt>
<trkpt lat="51.016838" lon="-114.020702"><ele>1182.0</ele><time>2023-05-15T16:57:43Z</time></trkpt>
<trkpt lat="51.015926" lon="-114.020558"><ele>1181.0</ele><time>2023-05-15T16:57:44Z</time></trkpt>
<trkpt lat="51.015093" lon="-114.020414"><ele>1182.0</ele><time>2023-05-15T16:57:45Z</time></trkpt>
<trkpt lat="51.014385" lon="-114.020163"><ele>1182.0</ele><time>2023-05-15T16:57:46Z</time></trkpt>
<trkpt lat="51.013481" lon="-114.020199"><ele>1182.0</ele><time>2023-05-15T16:57:47Z</time></trkpt>
<trkpt lat="51.013481" lon="-114.020199"><ele>1182.0</ele><time>2023-05-15T17:00:20Z</time></trkpt>
<trkpt lat="51.013481" lon="-114.020199"><ele>1182.0</ele><time>2023-05-15T17:00:21Z</time></trkpt>
<trkpt lat="51.013481" lon="-114.020199"><ele>1182.0</ele><time>2023-05-15T17:00:22Z</time></trkpt>
<trkpt lat="51.013481" lon="-114.020199"><ele>1182.0</ele><time>2023-05-15T17:00:23Z</time></trkpt>
</trkseg></trk></gpx>
