<?xml version="1.0" encoding="UTF-8"?> <gpx xmlns:xsi="http://www.w3.org/2001/XMLSchema-instance" version="1.1" xmlns="http://www.topografix.com/GPX/1/1" creator="Galileo Offline Maps" xsi:schemaLocation="http://www.topografix.com/GPX/1/1 http://www.topografix.com/GPX/1/1/gpx.xsd"><trk><name>Untitled Track</name><desc></desc><type>TrackStyle_ff7f00c8</type><trkseg>
<trkpt lat="44.237823" lon="-76.613927"><ele>34.0</ele><time>2023-05-22T16:34:56Z</time></trkpt>
<trkpt lat="44.23781" lon="-76.613954"><ele>34.0</ele><time>2023-05-22T16:34:57Z</time></trkpt>
<trkpt lat="44.237797" lon="-76.613972"><ele>34.0</ele><time>2023-05-22T16:34:58Z</time></trkpt>
<trkpt lat="44.237787" lon="-76.613999"><ele>34.0</ele><time>2023-05-22T16:34:59Z</time></trkpt>
<trkpt lat="44.237774" lon="-76.614026"><ele>34.0</ele><time>2023-05-22T16:35:00Z</time></trkpt>
<trkpt lat="44.237762" lon="-76.614053"><ele>34.0</ele><time>2023-05-22T16:35:01Z</time></trkpt>
<trkpt lat="44.237749" lon="-76.614079"><ele>35.0</ele><time>2023-05-22T16:35:02Z</time></trkpt>
<trkpt lat="44.237736" lon="-76.614106"><ele>34.0</ele><time>2023-05-22T16:35:03Z</time></trkpt>
<trkpt lat="44.237723" lon="-76.614142"><ele>34.0</ele><time>2023-05-22T16:35:04Z</time></trkpt>
<trkpt lat="44.23771" lon="-76.614169"><ele>34.0</ele><time>2023-05-22T16:35:05Z</time></trkpt>
<trkpt lat="44.237697" lon="-76.614196"><ele>34.0</ele><time>2023-05-22T16:35:06Z</time></trkpt>
<trkpt lat="44.237684" lon="-76.614223"><ele>34.0</ele><time>2023-05-22T16:35:07Z</time></trkpt>
<trkpt lat="44.237671" lon="-76.61425"><ele>34.0</ele><time>2023-05-22T16:35:08Z</time></trkpt>
<trkpt lat="44.237658" lon="-76.614277"><ele>34.0</ele><time>2023-05-22T16:35:09Z</time></trkpt>
<trkpt lat="44.237648" lon="-76.614304"><ele>34.0</ele><time>2023-05-22T16:35:10Z</time></trkpt>
<trkpt lat="44.237636" lon="-76.614331"><ele>34.0</ele><time>2023-05-22T16:35:11Z</time></trkpt>
<trkpt lat="44.236689" lon="-76.615732"><ele>33.0</ele><time>2023-05-22T16:36:14Z</time></trkpt>
<trkpt lat="44.236667" lon="-76.615759"><ele>38.0</ele><time>2023-05-22T16:36:14Z</time></trkpt>
<trkpt lat="44.236647" lon="-76.615777"><ele>38.0</ele><time>2023-05-22T16:36:15Z</time></trkpt>
<trkpt lat="44.236635" lon="-76.615804"><ele>38.0</ele><time>2023-05-22T16:36:16Z</time></trkpt>
<trkpt lat="44.236618" lon="-76.615822"><ele>37.0</ele><time>2023-05-22T16:36:17Z</time></trkpt>
<trkpt lat="44.236599" lon="-76.615849"><ele>37.0</ele><time>2023-05-22T16:36:18Z</time></trkpt>
<trkpt lat="44.236599" lon="-76.615849"><ele>37.0</ele><time>2023-05-22T16:36:19Z</time></trkpt>
<trkpt lat="44.236599" lon="-76.615849"><ele>37.0</ele><time>2023-05-22T16:37:50Z</time></trkpt>
<trkpt lat="44.236599" lon="-76.615849"><ele>37.0</ele><time>2023-05-22T16:37:51Z</time></trkpt>
<trkpt lat="44.236599" lon="-76.615849"><ele>37.0</ele><time>2023-05-22T16:37:52Z</time></trkpt>
<trkpt lat="44.236599" lon="-76.615849"><ele>37.0</ele><time>2023-05-22T16:37:53Z</time></trkpt>
<trkpt lat="44.236599" lon="-76.615849"><ele>37.0</ele><time>2023-05-22T16:37:54Z</time></trkpt>
<trkpt lat="44.236599" lon="-76.615849"><ele>37.0</ele><time>2023-05-22T16:37:55Z</time></trkpt>
<trkpt lat="44.236599" lon="-76.615849"><ele>37.0</ele><time>2023-05-22T16:37:56Z</time></trkpt>
<trkpt lat="44.236599" lon="-76.615849"><ele>37.0</ele><time>2023-05-22T16:40:25Z</time></trkpt>
<trkpt lat="44.236599" lon="-76.615849"><ele>37.0</ele><time>2023-05-22T16:40:26Z</time></trkpt>
<trkpt lat="44.236599" lon="-76.615849"><ele>37.0</ele><time>2023-05-22T16:40:26Z</time></trkpt>
<trkpt lat="44.231791" lon="-76.621005"><ele>26.0</ele><time>2023-05-22T16:40:28Z</time></trkpt>
<trkpt lat="44.231784" lon="-76.620933"><ele>29.0</ele><time>2023-05-22T16:40:29Z</time></trkpt>
<trkpt lat="44.231762" lon="-76.620933"><ele>31.0</ele><time>2023-05-22T16:40:30Z</time></trkpt>
<trkpt lat="44.231729" lon="-76.620924"><ele>35.0</ele><time>2023-05-22T16:40:31Z</time></trkpt>
<trkpt lat="44.231703" lon="-76.620933"><ele>35.0</ele><time>2023-05-22T16:40:32Z</time></trkpt>
<trkpt lat="44.231681" lon="-76.620951"><ele>36.0</ele><time>2023-05-22T16:40:33Z</time></trkpt>
<trkpt lat="44.231661" lon="-76.620969"><ele>36.0</ele><time>2023-05-22T16:40:34Z</time></trkpt>
<trkpt lat="44.231639" lon="-76.620987"><ele>36.0</ele><time>2023-05-22T16:40:35Z</time></trkpt>
<trkpt lat="44.23162" lon="-76.621005"><ele>36.0</ele><time>2023-05-22T16:40:36Z</time></trkpt>
<trkpt lat="44.231597" lon="-76.621014"><ele>36.0</ele><time>2023-05-22T16:40:37Z</time></trkpt>
<trkpt lat="44.231578" lon="-76.621032"><ele>36.0</ele><time>2023-05-22T16:40:38Z</time></trkpt>
<trkpt lat="44.231555" lon="-76.62105"><ele>36.0</ele><time>2023-05-22T16:40:39Z</time></trkpt>
<trkpt lat="44.231532" lon="-76.621059"><ele>36.0</ele><time>2023-05-22T16:40:40Z</time></trkpt>
<trkpt lat="44.231513" lon="-76.621077"><ele>36.0</ele><time>2023-05-22T16:40:41Z</time></trkpt>
<trkpt lat="44.23149" lon="-76.621095"><ele>37.0</ele><time>2023-05-22T16:40:42Z</time></trkpt>
<trkpt lat="44.231471" lon="-76.621104"><ele>37.0</ele><time>2023-05-22T16:40:43Z</time></trkpt>
<trkpt lat="44.231448" lon="-76.621122"><ele>37.0</ele><time>2023-05-22T16:40:44Z</time></trkpt>
<trkpt lat="44.231429" lon="-76.62114"><ele>37.0</ele><time>2023-05-22T16:40:45Z</time></trkpt>
<trkpt lat="44.231406" lon="-76.621158"><ele>37.0</ele><time>2023-05-22T16:40:46Z</time></trkpt>
<trkpt lat="44.231387" lon="-76.621176"><ele>37.0</ele><time>2023-05-22T16:40:47Z</time></trkpt>
<trkpt lat="44.231364" lon="-76.621185"><ele>37.0</ele><time>2023-05-22T16:40:48Z</time></trkpt>
<trkpt lat="44.231345" lon="-76.621203"><ele>37.0</ele><time>2023-05-22T16:40:49Z</time></trkpt>
<trkpt lat="44.231322" lon="-76.621221"><ele>37.0</ele><time>2023-05-22T16:40:50Z</time></trkpt>
<trkpt lat="44.2313" lon="-76.62123"><ele>37.0</ele><time>2023-05-22T16:40:51Z</time></trkpt>
<trkpt lat="44.23128" lon="-76.621248"><ele>37.0</ele><time>2023-05-22T16:40:52Z</time></trkpt>
<trkpt lat="44.231258" lon="-76.621266"><ele>37.0</ele><time>2023-05-22T16:40:53Z</time></trkpt>
<trkpt lat="44.231238" lon="-76.621284"><ele>37.0</ele><time>2023-05-22T16:40:54Z</time></trkpt>
<trkpt lat="44.231216" lon="-76.621293"><ele>37.0</ele><time>2023-05-22T16:40:55Z</time></trkpt>
<trkpt lat="44.231193" lon="-76.621311"><ele>37.0</ele><time>2023-05-22T16:40:56Z</time></trkpt>
<trkpt lat="44.231174" lon="-76.621329"><ele>37.0</ele><time>2023-05-22T16:40:57Z</time></trkpt>
<trkpt lat="44.231151" lon="-76.621347"><ele>37.0</ele><time>2023-05-22T16:40:58Z</time></trkpt>
<trkpt lat="44.231132" lon="-76.621365"><ele>37.0</ele><time>2023-05-22T16:40:59Z</time></trkpt>
<trkpt lat="44.231112" lon="-76.621374"><ele>37.0</ele><time>2023-05-22T16:41:00Z</time></trkpt>
<trkpt lat="44.23109" lon="-76.621391"><ele>37.0</ele><time>2023-05-22T16:41:01Z</time></trkpt>
<trkpt lat="44.231067" lon="-76.621409"><ele>37.0</ele><time>2023-05-22T16:41:02Z</time></trkpt>
<trkpt lat="44.231045" lon="-76.621427"><ele>38.0</ele><time>2023-05-22T16:41:03Z</time></trkpt>
<trkpt lat="44.231022" lon="-76.621436"><ele>37.0</ele><time>2023-05-22T16:41:04Z</time></trkpt>
<trkpt lat="44.230999" lon="-76.621454"><ele>37.0</ele><time>2023-05-22T16:41:05Z</time></trkpt>
<trkpt lat="44.23098" lon="-76.621463"><ele>37.0</ele><time>2023-05-22T16:41:06Z</time></trkpt>
<trkpt lat="44.230957" lon="-76.621481"><ele>37.0</ele><time>2023-05-22T16:41:07Z</time></trkpt>
<trkpt lat="44.230935" lon="-76.621499"><ele>37.0</ele><time>2023-05-22T16:41:08Z</time></trkpt>
<trkpt lat="44.230915" lon="-76.621508"><ele>37.0</ele><time>2023-05-22T16:41:09Z</time></trkpt>
<trkpt lat="44.230893" lon="-76.621526"><ele>37.0</ele><time>2023-05-22T16:41:10Z</time></trkpt>
<trkpt lat="44.23087" lon="-76.621544"><ele>37.0</ele><time>2023-05-22T16:41:11Z</time></trkpt>
<trkpt lat="44.230848" lon="-76.621553"><ele>37.0</ele><time>2023-05-22T16:41:12Z</time></trkpt>
<trkpt lat="44.230828" lon="-76.621571"><ele>37.0</ele><time>2023-05-22T16:41:13Z</time></trkpt>
<trkpt lat="44.230806" lon="-76.62158"><ele>37.0</ele><time>2023-05-22T16:41:14Z</time></trkpt>
<trkpt lat="44.230783" lon="-76.621598"><ele>37.0</ele><time>2023-05-22T16:41:15Z</time></trkpt>
<trkpt lat="44.23076" lon="-76.621616"><ele>37.0</ele><time>2023-05-22T16:41:16Z</time></trkpt>
<trkpt lat="44.230741" lon="-76.621625"><ele>37.0</ele><time>2023-05-22T16:41:17Z</time></trkpt>
<trkpt lat="44.230718" lon="-76.621643"><ele>37.0</ele><time>2023-05-22T16:41:18Z</time></trkpt>
<trkpt lat="44.230696" lon="-76.621652"><ele>37.0</ele><time>2023-05-22T16:41:19Z</time></trkpt>
<trkpt lat="44.230677" lon="-76.62167"><ele>37.0</ele><time>2023-05-22T16:41:20Z</time></trkpt>
<trkpt lat="44.230654" lon="-76.621688"><ele>37.0</ele><time>2023-05-22T16:41:21Z</time></trkpt>
<trkpt lat="44.230631" lon="-76.621697"><ele>37.0</ele><time>2023-05-22T16:41:22Z</time></trkpt>
<trkpt lat="44.230609" lon="-76.621715"><ele>37.0</ele><time>2023-05-22T16:41:23Z</time></trkpt>
<trkpt lat="44.230589" lon="-76.621724"><ele>37.0</ele><time>2023-05-22T16:41:24Z</time></trkpt>
<trkpt lat="44.230567" lon="-76.621742"><ele>37.0</ele><time>2023-05-22T16:41:25Z</time></trkpt>
<trkpt lat="44.230544" lon="-76.621751"><ele>37.0</ele><time>2023-05-22T16:41:26Z</time></trkpt>
<trkpt lat="44.230525" lon="-76.621769"><ele>37.0</ele><time>2023-05-22T16:41:27Z</time></trkpt>
<trkpt lat="44.230502" lon="-76.621778"><ele>37.0</ele><time>2023-05-22T16:41:28Z</time></trkpt>
<trkpt lat="44.23048" lon="-76.621796"><ele>37.0</ele><time>2023-05-22T16:41:29Z</time></trkpt>
<trkpt lat="44.230457" lon="-76.621805"><ele>37.0</ele><time>2023-05-22T16:41:30Z</time></trkpt>
<trkpt lat="44.230434" lon="-76.621823"><ele>37.0</ele><time>2023-05-22T16:41:31Z</time></trkpt>
<trkpt lat="44.230415" lon="-76.621841"><ele>37.0</ele><time>2023-05-22T16:41:32Z</time></trkpt>
<trkpt lat="44.230392" lon="-76.62185"><ele>37.0</ele><time>2023-05-22T16:41:33Z</time></trkpt>
<trkpt lat="44.23037" lon="-76.621868"><ele>37.0</ele><time>2023-05-22T16:41:34Z</time></trkpt>
<trkpt lat="44.230347" lon="-76.621877"><ele>37.0</ele><time>2023-05-22T16:41:35Z</time></trkpt>
<trkpt lat="44.230328" lon="-76.621895"><ele>37.0</ele><time>2023-05-22T16:41:36Z</time></trkpt>
<trkpt lat="44.230305" lon="-76.621903"><ele>37.0</ele><time>2023-05-22T16:41:37Z</time></trkpt>
<trkpt lat="44.230283" lon="-76.621921"><ele>37.0</ele><time>2023-05-22T16:41:38Z</time></trkpt>
<trkpt lat="44.23026" lon="-76.621939"><ele>37.0</ele><time>2023-05-22T16:41:39Z</time></trkpt>
<trkpt lat="44.230241" lon="-76.621948"><ele>37.0</ele><time>2023-05-22T16:41:40Z</time></trkpt>
<trkpt lat="44.230218" lon="-76.621966"><ele>37.0</ele><time>2023-05-22T16:41:41Z</time></trkpt>
<trkpt lat="44.230195" lon="-76.621975"><ele>37.0</ele><time>2023-05-22T16:41:42Z</time></trkpt>
<trkpt lat="44.230173" lon="-76.621993"><ele>37.0</ele><time>2023-05-22T16:41:43Z</time></trkpt>
<trkpt lat="44.230153" lon="-76.622002"><ele>37.0</ele><time>2023-05-22T16:41:44Z</time></trkpt>
<trkpt lat="44.230131" lon="-76.62202"><ele>37.0</ele><time>2023-05-22T16:41:45Z</time></trkpt>
<trkpt lat="44.230108" lon="-76.622038"><ele>37.0</ele><time>2023-05-22T16:41:46Z</time></trkpt>
<trkpt lat="44.230086" lon="-76.622047"><ele>37.0</ele><time>2023-05-22T16:41:47Z</time></trkpt>
<trkpt lat="44.230063" lon="-76.622065"><ele>37.0</ele><time>2023-05-22T16:41:48Z</time></trkpt>
<trkpt lat="44.230063" lon="-76.622065"><ele>37.0</ele><time>2023-05-22T16:49:17Z</time></trkpt>
<trkpt lat="44.230063" lon="-76.622065"><ele>37.0</ele><time>2023-05-22T16:49:18Z</time></trkpt>
<trkpt lat="44.230063" lon="-76.622065"><ele>37.0</ele><time>2023-05-22T16:49:19Z</time></trkpt>
<trkpt lat="44.230063" lon="-76.622065"><ele>37.0</ele><time>2023-05-22T16:49:20Z</time></trkpt>
<trkpt lat="44.230063" lon="-76.622065"><ele>37.0</ele><time>2023-05-22T16:49:21Z</time></trkpt>
<trkpt lat="44.230063" lon="-76.622065"><ele>37.0</ele><time>2023-05-22T16:49:22Z</time></trkpt>
<trkpt lat="44.230063" lon="-76.622065"><ele>37.0</ele><time>2023-05-22T16:49:23Z</time></trkpt>
<trkpt lat="44.230063" lon="-76.622065"><ele>37.0</ele><time>2023-05-22T16:50:22Z</time></trkpt>
<trkpt lat="44.230063" lon="-76.622065"><ele>37.0</ele><time>2023-05-22T16:50:23Z</time></trkpt>
<trkpt lat="44.230063" lon="-76.622065"><ele>37.0</ele><time>2023-05-22T16:50:24Z</time></trkpt>
<trkpt lat="44.230063" lon="-76.622065"><ele>37.0</ele><time>2023-05-22T16:50:25Z</time></trkpt>
<trkpt lat="44.230063" lon="-76.622065"><ele>37.0</ele><time>2023-05-22T16:50:26Z</time></trkpt>
<trkpt lat="44.230063" lon="-76.622065"><ele>37.0</ele><time>2023-05-22T16:50:27Z</time></trkpt>
<trkpt lat="44.221714" lon="-76.62397"><ele>25.0</ele><time>2023-05-22T16:50:28Z</time></trkpt>
<trkpt lat="44.221624" lon="-76.623871"><ele>33.0</ele><time>2023-05-22T16:50:29Z</time></trkpt>
<trkpt lat="44.221721" lon="-76.623979"><ele>30.0</ele><time>2023-05-22T16:50:30Z</time></trkpt>
<trkpt lat="44.221695" lon="-76.62397"><ele>33.0</ele><time>2023-05-22T16:50:31Z</time></trkpt>
<trkpt lat="44.221688" lon="-76.62397"><ele>34.0</ele><time>2023-05-22T16:50:32Z</time></trkpt>
<trkpt lat="44.221672" lon="-76.623961"><ele>35.0</ele><time>2023-05-22T16:50:33Z</time></trkpt>
<trkpt lat="44.221659" lon="-76.623952"><ele>35.0</ele><time>2023-05-22T16:50:34Z</time></trkpt>
<trkpt lat="44.22165" lon="-76.623943"><ele>35.0</ele><time>2023-05-22T16:50:35Z</time></trkpt>
<trkpt lat="44.22164" lon="-76.623934"><ele>36.0</ele><time>2023-05-22T16:50:36Z</time></trkpt>
<trkpt lat="44.221627" lon="-76.623925"><ele>36.0</ele><time>2023-05-22T16:50:37Z</time></trkpt>
<trkpt lat="44.221617" lon="-76.623925"><ele>36.0</ele><time>2023-05-22T16:50:38Z</time></trkpt>
<trkpt lat="44.221608" lon="-76.623916"><ele>37.0</ele><time>2023-05-22T16:50:39Z</time></trkpt>
<trkpt lat="44.221598" lon="-76.623907"><ele>37.0</ele><time>2023-05-22T16:50:40Z</time></trkpt>
<trkpt lat="44.221588" lon="-76.623898"><ele>36.0</ele><time>2023-05-22T16:50:41Z</time></trkpt>
<trkpt lat="44.221578" lon="-76.623889"><ele>37.0</ele><time>2023-05-22T16:50:42Z</time></trkpt>
<trkpt lat="44.221566" lon="-76.62388"><ele>36.0</ele><time>2023-05-22T16:50:43Z</time></trkpt>
<trkpt lat="44.221553" lon="-76.623871"><ele>36.0</ele><time>2023-05-22T16:50:44Z</time></trkpt>
<trkpt lat="44.221546" lon="-76.623862"><ele>37.0</ele><time>2023-05-22T16:50:45Z</time></trkpt>
<trkpt lat="44.221536" lon="-76.623853"><ele>37.0</ele><time>2023-05-22T16:50:46Z</time></trkpt>
<trkpt lat="44.221527" lon="-76.623844"><ele>37.0</ele><time>2023-05-22T16:50:47Z</time></trkpt>
<trkpt lat="44.221517" lon="-76.623835"><ele>36.0</ele><time>2023-05-22T16:50:48Z</time></trkpt>
<trkpt lat="44.221507" lon="-76.623817"><ele>37.0</ele><time>2023-05-22T16:50:49Z</time></trkpt>
<trkpt lat="44.221498" lon="-76.623808"><ele>37.0</ele><time>2023-05-22T16:50:50Z</time></trkpt>
<trkpt lat="44.221488" lon="-76.623799"><ele>37.0</ele><time>2023-05-22T16:50:51Z</time></trkpt>
<trkpt lat="44.221475" lon="-76.62379"><ele>37.0</ele><time>2023-05-22T16:50:52Z</time></trkpt>
<trkpt lat="44.221465" lon="-76.623781"><ele>37.0</ele><time>2023-05-22T16:50:53Z</time></trkpt>
<trkpt lat="44.221456" lon="-76.623772"><ele>37.0</ele><time>2023-05-22T16:50:54Z</time></trkpt>
<trkpt lat="44.221446" lon="-76.623763"><ele>37.0</ele><time>2023-05-22T16:50:55Z</time></trkpt>
<trkpt lat="44.221433" lon="-76.623754"><ele>37.0</ele><time>2023-05-22T16:50:56Z</time></trkpt>
<trkpt lat="44.221423" lon="-76.623745"><ele>37.0</ele><time>2023-05-22T16:50:57Z</time></trkpt>
<trkpt lat="44.221414" lon="-76.623736"><ele>37.0</ele><time>2023-05-22T16:50:58Z</time></trkpt>
<trkpt lat="44.221404" lon="-76.623727"><ele>37.0</ele><time>2023-05-22T16:50:59Z</time></trkpt>
<trkpt lat="44.221391" lon="-76.623718"><ele>37.0</ele><time>2023-05-22T16:51:00Z</time></trkpt>
<trkpt lat="44.221381" lon="-76.623709"><ele>37.0</ele><time>2023-05-22T16:51:01Z</time></trkpt>
<trkpt lat="44.221372" lon="-76.6237"><ele>37.0</ele><time>2023-05-22T16:51:02Z</time></trkpt>
<trkpt lat="44.221362" lon="-76.623691"><ele>37.0</ele><time>2023-05-22T16:51:03Z</time></trkpt>
<trkpt lat="44.221352" lon="-76.623682"><ele>37.0</ele><time>2023-05-22T16:51:04Z</time></trkpt>
<trkpt lat="44.221343" lon="-76.623673"><ele>37.0</ele><time>2023-05-22T16:51:05Z</time></trkpt>
<trkpt lat="44.221333" lon="-76.623655"><ele>38.0</ele><time>2023-05-22T16:51:06Z</time></trkpt>
<trkpt lat="44.221323" lon="-76.623646"><ele>38.0</ele><time>2023-05-22T16:51:07Z</time></trkpt>
<trkpt lat="44.221314" lon="-76.623637"><ele>38.0</ele><time>2023-05-22T16:51:08Z</time></trkpt>
<trkpt lat="44.221304" lon="-76.623628"><ele>38.0</ele><time>2023-05-22T16:51:09Z</time></trkpt>
<trkpt lat="44.221294" lon="-76.623619"><ele>38.0</ele><time>2023-05-22T16:51:10Z</time></trkpt>
<trkpt lat="44.221285" lon="-76.62361"><ele>38.0</ele><time>2023-05-22T16:51:11Z</time></trkpt>
<trkpt lat="44.221272" lon="-76.623592"><ele>38.0</ele><time>2023-05-22T16:51:12Z</time></trkpt>
<trkpt lat="44.221262" lon="-76.623583"><ele>38.0</ele><time>2023-05-22T16:51:13Z</time></trkpt>
<trkpt lat="44.221252" lon="-76.623574"><ele>38.0</ele><time>2023-05-22T16:51:14Z</time></trkpt>
<trkpt lat="44.221243" lon="-76.623565"><ele>38.0</ele><time>2023-05-22T16:51:15Z</time></trkpt>
<trkpt lat="44.221233" lon="-76.623547"><ele>38.0</ele><time>2023-05-22T16:51:16Z</time></trkpt>
<trkpt lat="44.22122" lon="-76.623538"><ele>38.0</ele><time>2023-05-22T16:51:17Z</time></trkpt>
<trkpt lat="44.22121" lon="-76.62352"><ele>38.0</ele><time>2023-05-22T16:51:18Z</time></trkpt>
<trkpt lat="44.221201" lon="-76.623511"><ele>38.0</ele><time>2023-05-22T16:51:19Z</time></trkpt>
<trkpt lat="44.221191" lon="-76.623493"><ele>38.0</ele><time>2023-05-22T16:51:20Z</time></trkpt>
<trkpt lat="44.221181" lon="-76.623484"><ele>38.0</ele><time>2023-05-22T16:51:21Z</time></trkpt>
<trkpt lat="44.221168" lon="-76.623467"><ele>38.0</ele><time>2023-05-22T16:51:22Z</time></trkpt>
<trkpt lat="44.221159" lon="-76.623458"><ele>38.0</ele><time>2023-05-22T16:51:23Z</time></trkpt>
<trkpt lat="44.221149" lon="-76.62344"><ele>38.0</ele><time>2023-05-22T16:51:24Z</time></trkpt>
<trkpt lat="44.221139" lon="-76.623431"><ele>38.0</ele><time>2023-05-22T16:51:25Z</time></trkpt>
<trkpt lat="44.221129" lon="-76.623413"><ele>38.0</ele><time>2023-05-22T16:51:26Z</time></trkpt>
<trkpt lat="44.22112" lon="-76.623404"><ele>38.0</ele><time>2023-05-22T16:51:27Z</time></trkpt>
<trkpt lat="44.22111" lon="-76.623395"><ele>38.0</ele><time>2023-05-22T16:51:28Z</time></trkpt>
<trkpt lat="44.22111" lon="-76.623395"><ele>38.0</ele><time>2023-05-22T16:54:25Z</time></trkpt>
<trkpt lat="44.22111" lon="-76.623395"><ele>38.0</ele><time>2023-05-22T16:54:26Z</time></trkpt>
<trkpt lat="44.22111" lon="-76.623395"><ele>38.0</ele><time>2023-05-22T16:54:27Z</time></trkpt>
<trkpt lat="44.22111" lon="-76.623395"><ele>38.0</ele><time>2023-05-22T16:54:28Z</time></trkpt>
<trkpt lat="44.22111" lon="-76.623395"><ele>38.0</ele><time>2023-05-22T16:54:29Z</time></trkpt>
<trkpt lat="44.22111" lon="-76.623395"><ele>38.0</ele><time>2023-05-22T16:54:30Z</time></trkpt>
<trkpt lat="44.22111" lon="-76.623395"><ele>38.0</ele><time>2023-05-22T16:54:31Z</time></trkpt>
<trkpt lat="44.22111" lon="-76.623395"><ele>38.0</ele><time>2023-05-22T16:54:32Z</time></trkpt>
<trkpt lat="44.22111" lon="-76.623395"><ele>38.0</ele><time>2023-05-22T16:54:32Z</time></trkpt>
<trkpt lat="44.220345" lon="-76.622775"><ele>32.0</ele><time>2023-05-22T16:54:35Z</time></trkpt>
<trkpt lat="44.22029" lon="-76.62273"><ele>33.0</ele><time>2023-05-22T16:54:36Z</time></trkpt>
<trkpt lat="44.220306" lon="-76.622721"><ele>33.0</ele><time>2023-05-22T16:54:37Z</time></trkpt>
<trkpt lat="44.220322" lon="-76.62273"><ele>33.0</ele><time>2023-05-22T16:54:38Z</time></trkpt>
<trkpt lat="44.220328" lon="-76.622739"><ele>34.0</ele><time>2023-05-22T16:54:39Z</time></trkpt>
<trkpt lat="44.220335" lon="-76.622739"><ele>34.0</ele><time>2023-05-22T16:54:40Z</time></trkpt>
<trkpt lat="44.220338" lon="-76.622748"><ele>34.0</ele><time>2023-05-22T16:54:41Z</time></trkpt>
<trkpt lat="44.220341" lon="-76.622757"><ele>34.0</ele><time>2023-05-22T16:54:42Z</time></trkpt>
<trkpt lat="44.220341" lon="-76.622757"><ele>34.0</ele><time>2023-05-22T16:54:43Z</time></trkpt>
<trkpt lat="44.220345" lon="-76.622766"><ele>34.0</ele><time>2023-05-22T16:54:44Z</time></trkpt>
<trkpt lat="44.220351" lon="-76.622775"><ele>34.0</ele><time>2023-05-22T16:54:45Z</time></trkpt>
<trkpt lat="44.220354" lon="-76.622775"><ele>34.0</ele><time>2023-05-22T16:54:46Z</time></trkpt>
<trkpt lat="44.220358" lon="-76.622784"><ele>34.0</ele><time>2023-05-22T16:54:47Z</time></trkpt>
<trkpt lat="44.220361" lon="-76.622793"><ele>34.0</ele><time>2023-05-22T16:54:48Z</time></trkpt>
<trkpt lat="44.220364" lon="-76.622802"><ele>34.0</ele><time>2023-05-22T16:54:49Z</time></trkpt>
<trkpt lat="44.220367" lon="-76.622802"><ele>34.0</ele><time>2023-05-22T16:54:50Z</time></trkpt>
<trkpt lat="44.220374" lon="-76.622811"><ele>34.0</ele><time>2023-05-22T16:54:51Z</time></trkpt>
<trkpt lat="44.220377" lon="-76.62282"><ele>34.0</ele><time>2023-05-22T16:54:52Z</time></trkpt>
<trkpt lat="44.22038" lon="-76.622829"><ele>34.0</ele><time>2023-05-22T16:54:53Z</time></trkpt>
<trkpt lat="44.220387" lon="-76.622829"><ele>34.0</ele><time>2023-05-22T16:54:54Z</time></trkpt>
<trkpt lat="44.22039" lon="-76.622838"><ele>34.0</ele><time>2023-05-22T16:54:55Z</time></trkpt>
<trkpt lat="44.220396" lon="-76.622847"><ele>34.0</ele><time>2023-05-22T16:54:56Z</time></trkpt>
<trkpt lat="44.2204" lon="-76.622856"><ele>34.0</ele><time>2023-05-22T16:54:57Z</time></trkpt>
<trkpt lat="44.220406" lon="-76.622865"><ele>34.0</ele><time>2023-05-22T16:54:58Z</time></trkpt>
<trkpt lat="44.220409" lon="-76.622874"><ele>34.0</ele><time>2023-05-22T16:54:59Z</time></trkpt>
<trkpt lat="44.220412" lon="-76.622883"><ele>34.0</ele><time>2023-05-22T16:55:00Z</time></trkpt>
<trkpt lat="44.220419" lon="-76.622883"><ele>34.0</ele><time>2023-05-22T16:55:01Z</time></trkpt>
<trkpt lat="44.220422" lon="-76.622892"><ele>34.0</ele><time>2023-05-22T16:55:02Z</time></trkpt>
<trkpt lat="44.220425" lon="-76.622901"><ele>34.0</ele><time>2023-05-22T16:55:03Z</time></trkpt>
<trkpt lat="44.220432" lon="-76.62291"><ele>34.0</ele><time>2023-05-22T16:55:04Z</time></trkpt>
<trkpt lat="44.220435" lon="-76.622919"><ele>34.0</ele><time>2023-05-22T16:55:05Z</time></trkpt>
<trkpt lat="44.220441" lon="-76.622937"><ele>34.0</ele><time>2023-05-22T16:55:06Z</time></trkpt>
<trkpt lat="44.220445" lon="-76.622946"><ele>34.0</ele><time>2023-05-22T16:55:07Z</time></trkpt>
<trkpt lat="44.220451" lon="-76.622954"><ele>34.0</ele><time>2023-05-22T16:55:08Z</time></trkpt>
<trkpt lat="44.220454" lon="-76.622963"><ele>34.0</ele><time>2023-05-22T16:55:09Z</time></trkpt>
<trkpt lat="44.220461" lon="-76.622972"><ele>34.0</ele><time>2023-05-22T16:55:10Z</time></trkpt>
<trkpt lat="44.220464" lon="-76.622981"><ele>34.0</ele><time>2023-05-22T16:55:11Z</time></trkpt>
<trkpt lat="44.220467" lon="-76.62299"><ele>34.0</ele><time>2023-05-22T16:55:12Z</time></trkpt>
<trkpt lat="44.220474" lon="-76.622999"><ele>34.0</ele><time>2023-05-22T16:55:13Z</time></trkpt>
<trkpt lat="44.220477" lon="-76.623008"><ele>34.0</ele><time>2023-05-22T16:55:14Z</time></trkpt>
<trkpt lat="44.220483" lon="-76.623017"><ele>34.0</ele><time>2023-05-22T16:55:15Z</time></trkpt>
<trkpt lat="44.220487" lon="-76.623026"><ele>34.0</ele><time>2023-05-22T16:55:16Z</time></trkpt>
<trkpt lat="44.220493" lon="-76.623035"><ele>34.0</ele><time>2023-05-22T16:55:17Z</time></trkpt>
<trkpt lat="44.220496" lon="-76.623044"><ele>34.0</ele><time>2023-05-22T16:55:18Z</time></trkpt>
<trkpt lat="44.220503" lon="-76.623053"><ele>34.0</ele><time>2023-05-22T16:55:19Z</time></trkpt>
<trkpt lat="44.220506" lon="-76.623062"><ele>34.0</ele><time>2023-05-22T16:55:20Z</time></trkpt>
<trkpt lat="44.220509" lon="-76.623071"><ele>34.0</ele><time>2023-05-22T16:55:21Z</time></trkpt>
<trkpt lat="44.220513" lon="-76.62308"><ele>34.0</ele><time>2023-05-22T16:55:22Z</time></trkpt>
<trkpt lat="44.220519" lon="-76.623098"><ele>34.0</ele><time>2023-05-22T16:55:23Z</time></trkpt>
<trkpt lat="44.220522" lon="-76.623107"><ele>34.0</ele><time>2023-05-22T16:55:24Z</time></trkpt>
<trkpt lat="44.220522" lon="-76.623116"><ele>34.0</ele><time>2023-05-22T16:55:25Z</time></trkpt>
<trkpt lat="44.220525" lon="-76.623134"><ele>34.0</ele><time>2023-05-22T16:55:26Z</time></trkpt>
<trkpt lat="44.220529" lon="-76.623143"><ele>34.0</ele><time>2023-05-22T16:55:27Z</time></trkpt>
<trkpt lat="44.220529" lon="-76.623152"><ele>34.0</ele><time>2023-05-22T16:55:28Z</time></trkpt>
<trkpt lat="44.220529" lon="-76.62317"><ele>34.0</ele><time>2023-05-22T16:55:29Z</time></trkpt>
<trkpt lat="44.220532" lon="-76.623179"><ele>34.0</ele><time>2023-05-22T16:55:30Z</time></trkpt>
<trkpt lat="44.220532" lon="-76.623188"><ele>34.0</ele><time>2023-05-22T16:55:31Z</time></trkpt>
<trkpt lat="44.220532" lon="-76.623206"><ele>34.0</ele><time>2023-05-22T16:55:32Z</time></trkpt>
<trkpt lat="44.220532" lon="-76.623215"><ele>34.0</ele><time>2023-05-22T16:55:33Z</time></trkpt>
<trkpt lat="44.220532" lon="-76.623215"><ele>34.0</ele><time>2023-05-22T16:57:50Z</time></trkpt>
<trkpt lat="44.220532" lon="-76.623215"><ele>34.0</ele><time>2023-05-22T16:57:51Z</time></trkpt>
<trkpt lat="44.220532" lon="-76.623215"><ele>34.0</ele><time>2023-05-22T16:57:52Z</time></trkpt>
<trkpt lat="44.220532" lon="-76.623215"><ele>34.0</ele><time>2023-05-22T16:57:53Z</time></trkpt>
<trkpt lat="44.220648" lon="-76.623116"><ele>32.0</ele><time>2023-05-22T16:57:54Z</time></trkpt>
<trkpt lat="44.220655" lon="-76.623125"><ele>30.0</ele><time>2023-05-22T16:57:54Z</time></trkpt>
<trkpt lat="44.220645" lon="-76.623107"><ele>33.0</ele><time>2023-05-22T16:57:55Z</time></trkpt>
<trkpt lat="44.220639" lon="-76.623098"><ele>34.0</ele><time>2023-05-22T16:57:56Z</time></trkpt>
<trkpt lat="44.220632" lon="-76.623089"><ele>35.0</ele><time>2023-05-22T16:57:57Z</time></trkpt>
<trkpt lat="44.220632" lon="-76.623071"><ele>36.0</ele><time>2023-05-22T16:57:58Z</time></trkpt>
<trkpt lat="44.220632" lon="-76.623062"><ele>36.0</ele><time>2023-05-22T16:57:59Z</time></trkpt>
<trkpt lat="44.220635" lon="-76.623053"><ele>36.0</ele><time>2023-05-22T16:58:00Z</time></trkpt>
<trkpt lat="44.220632" lon="-76.623044"><ele>36.0</ele><time>2023-05-22T16:58:01Z</time></trkpt>
<trkpt lat="44.220635" lon="-76.623035"><ele>36.0</ele><time>2023-05-22T16:58:02Z</time></trkpt>
<trkpt lat="44.220635" lon="-76.623026"><ele>35.0</ele><time>2023-05-22T16:58:03Z</time></trkpt>
<trkpt lat="44.220635" lon="-76.623017"><ele>35.0</ele><time>2023-05-22T16:58:04Z</time></trkpt>
<trkpt lat="44.220635" lon="-76.622999"><ele>35.0</ele><time>2023-05-22T16:58:05Z</time></trkpt>
<trkpt lat="44.220635" lon="-76.62299"><ele>35.0</ele><time>2023-05-22T16:58:06Z</time></trkpt>
<trkpt lat="44.220635" lon="-76.622981"><ele>35.0</ele><time>2023-05-22T16:58:07Z</time></trkpt>
<trkpt lat="44.220635" lon="-76.622972"><ele>35.0</ele><time>2023-05-22T16:58:08Z</time></trkpt>
<trkpt lat="44.220635" lon="-76.622963"><ele>35.0</ele><time>2023-05-22T16:58:09Z</time></trkpt>
<trkpt lat="44.220635" lon="-76.622946"><ele>35.0</ele><time>2023-05-22T16:58:10Z</time></trkpt>
<trkpt lat="44.220635" lon="-76.622937"><ele>35.0</ele><time>2023-05-22T16:58:11Z</time></trkpt>
<trkpt lat="44.220635" lon="-76.622928"><ele>35.0</ele><time>2023-05-22T16:58:12Z</time></trkpt>
<trkpt lat="44.220639" lon="-76.622919"><ele>35.0</ele><time>2023-05-22T16:58:13Z</time></trkpt>
<trkpt lat="44.220639" lon="-76.62291"><ele>35.0</ele><time>2023-05-22T16:58:14Z</time></trkpt>
<trkpt lat="44.220639" lon="-76.622901"><ele>35.0</ele><time>2023-05-22T16:58:15Z</time></trkpt>
<trkpt lat="44.220642" lon="-76.622883"><ele>35.0</ele><time>2023-05-22T16:58:16Z</time></trkpt>
<trkpt lat="44.220642" lon="-76.622874"><ele>35.0</ele><time>2023-05-22T16:58:17Z</time></trkpt>
<trkpt lat="44.220642" lon="-76.622865"><ele>35.0</ele><time>2023-05-22T16:58:18Z</time></trkpt>
<trkpt lat="44.220645" lon="-76.622856"><ele>35.0</ele><time>2023-05-22T16:58:19Z</time></trkpt>
<trkpt lat="44.220645" lon="-76.622847"><ele>35.0</ele><time>2023-05-22T16:58:20Z</time></trkpt>
<trkpt lat="44.220645" lon="-76.622838"><ele>35.0</ele><time>2023-05-22T16:58:21Z</time></trkpt>
<trkpt lat="44.220648" lon="-76.622829"><ele>35.0</ele><time>2023-05-22T16:58:22Z</time></trkpt>
<trkpt lat="44.220648" lon="-76.62282"><ele>35.0</ele><time>2023-05-22T16:58:23Z</time></trkpt>
<trkpt lat="44.220648" lon="-76.622802"><ele>35.0</ele><time>2023-05-22T16:58:24Z</time></trkpt>
<trkpt lat="44.220648" lon="-76.622793"><ele>35.0</ele><time>2023-05-22T16:58:25Z</time></trkpt>
<trkpt lat="44.220648" lon="-76.622784"><ele>35.0</ele><time>2023-05-22T16:58:26Z</time></trkpt>
<trkpt lat="44.220648" lon="-76.622775"><ele>35.0</ele><time>2023-05-22T16:58:27Z</time></trkpt>
<trkpt lat="44.220648" lon="-76.622766"><ele>35.0</ele><time>2023-05-22T16:58:28Z</time></trkpt>
<trkpt lat="44.220648" lon="-76.622757"><ele>35.0</ele><time>2023-05-22T16:58:29Z</time></trkpt>
<trkpt lat="44.220648" lon="-76.622748"><ele>35.0</ele><time>2023-05-22T16:58:30Z</time></trkpt>
<trkpt lat="44.220648" lon="-76.62273"><ele>35.0</ele><time>2023-05-22T16:58:31Z</time></trkpt>
<trkpt lat="44.220651" lon="-76.622721"><ele>35.0</ele><time>2023-05-22T16:58:32Z</time></trkpt>
<trkpt lat="44.220651" lon="-76.622712"><ele>35.0</ele><time>2023-05-22T16:58:33Z</time></trkpt>
<trkpt lat="44.220655" lon="-76.622703"><ele>35.0</ele><time>2023-05-22T16:58:34Z</time></trkpt>
<trkpt lat="44.220658" lon="-76.622694"><ele>35.0</ele><time>2023-05-22T16:58:35Z</time></trkpt>
<trkpt lat="44.220658" lon="-76.622685"><ele>35.0</ele><time>2023-05-22T16:58:36Z</time></trkpt>
<trkpt lat="44.220661" lon="-76.622676"><ele>35.0</ele><time>2023-05-22T16:58:37Z</time></trkpt>
<trkpt lat="44.220661" lon="-76.622667"><ele>35.0</ele><time>2023-05-22T16:58:38Z</time></trkpt>
<trkpt lat="44.220664" lon="-76.622658"><ele>35.0</ele><time>2023-05-22T16:58:39Z</time></trkpt>
<trkpt lat="44.220664" lon="-76.622649"><ele>34.0</ele><time>2023-05-22T16:58:40Z</time></trkpt>
<trkpt lat="44.220664" lon="-76.62264"><ele>35.0</ele><time>2023-05-22T16:58:41Z</time></trkpt>
<trkpt lat="44.220664" lon="-76.622631"><ele>35.0</ele><time>2023-05-22T16:58:42Z</time></trkpt>
<trkpt lat="44.220664" lon="-76.622622"><ele>35.0</ele><time>2023-05-22T16:58:43Z</time></trkpt>
<trkpt lat="44.220664" lon="-76.622613"><ele>35.0</ele><time>2023-05-22T16:58:44Z</time></trkpt>
<trkpt lat="44.220664" lon="-76.622604"><ele>35.0</ele><time>2023-05-22T16:58:45Z</time></trkpt>
<trkpt lat="44.220661" lon="-76.622595"><ele>35.0</ele><time>2023-05-22T16:58:46Z</time></trkpt>
<trkpt lat="44.220661" lon="-76.622586"><ele>35.0</ele><time>2023-05-22T16:58:47Z</time></trkpt>
<trkpt lat="44.220661" lon="-76.622577"><ele>35.0</ele><time>2023-05-22T16:58:48Z</time></trkpt>
<trkpt lat="44.220658" lon="-76.622568"><ele>35.0</ele><time>2023-05-22T16:58:49Z</time></trkpt>
<trkpt lat="44.220658" lon="-76.622559"><ele>35.0</ele><time>2023-05-22T16:58:50Z</time></trkpt>
<trkpt lat="44.220658" lon="-76.62255"><ele>34.0</ele><time>2023-05-22T16:58:51Z</time></trkpt>
<trkpt lat="44.220655" lon="-76.622532"><ele>34.0</ele><time>2023-05-22T16:58:52Z</time></trkpt>
<trkpt lat="44.220655" lon="-76.622523"><ele>34.0</ele><time>2023-05-22T16:58:53Z</time></trkpt>
<trkpt lat="44.220655" lon="-76.622523"><ele>34.0</ele><time>2023-05-22T17:06:18Z</time></trkpt>
<trkpt lat="44.220655" lon="-76.622523"><ele>34.0</ele><time>2023-05-22T17:06:19Z</time></trkpt>
<trkpt lat="44.220655" lon="-76.622523"><ele>34.0</ele><time>2023-05-22T17:06:20Z</time></trkpt>
<trkpt lat="44.220655" lon="-76.622523"><ele>34.0</ele><time>2023-05-22T17:06:21Z</time></trkpt>
<trkpt lat="44.220655" lon="-76.622523"><ele>34.0</ele><time>2023-05-22T17:06:21Z</time></trkpt>
<trkpt lat="44.221304" lon="-76.625802"><ele>36.0</ele><time>2023-05-22T17:06:23Z</time></trkpt>
<trkpt lat="44.221372" lon="-76.625775"><ele>30.0</ele><time>2023-05-22T17:06:24Z</time></trkpt>
<trkpt lat="44.221356" lon="-76.625793"><ele>31.0</ele><time>2023-05-22T17:06:25Z</time></trkpt>
<trkpt lat="44.221339" lon="-76.625847"><ele>31.0</ele><time>2023-05-22T17:06:26Z</time></trkpt>
<trkpt lat="44.221333" lon="-76.625883"><ele>32.0</ele><time>2023-05-22T17:06:27Z</time></trkpt>
<trkpt lat="44.221323" lon="-76.625919"><ele>33.0</ele><time>2023-05-22T17:06:28Z</time></trkpt>
<trkpt lat="44.22132" lon="-76.625946"><ele>33.0</ele><time>2023-05-22T17:06:29Z</time></trkpt>
<trkpt lat="44.221314" lon="-76.625973"><ele>33.0</ele><time>2023-05-22T17:06:30Z</time></trkpt>
<trkpt lat="44.22131" lon="-76.626"><ele>34.0</ele><time>2023-05-22T17:06:31Z</time></trkpt>
<trkpt lat="44.221307" lon="-76.626027"><ele>34.0</ele><time>2023-05-22T17:06:32Z</time></trkpt>
<trkpt lat="44.221301" lon="-76.626054"><ele>34.0</ele><time>2023-05-22T17:06:33Z</time></trkpt>
<trkpt lat="44.221297" lon="-76.62608"><ele>34.0</ele><time>2023-05-22T17:06:34Z</time></trkpt>
<trkpt lat="44.221291" lon="-76.626107"><ele>35.0</ele><time>2023-05-22T17:06:35Z</time></trkpt>
<trkpt lat="44.221285" lon="-76.626134"><ele>35.0</ele><time>2023-05-22T17:06:36Z</time></trkpt>
<trkpt lat="44.221281" lon="-76.626161"><ele>35.0</ele><time>2023-05-22T17:06:37Z</time></trkpt>
<trkpt lat="44.221278" lon="-76.626188"><ele>35.0</ele><time>2023-05-22T17:06:38Z</time></trkpt>
<trkpt lat="44.221272" lon="-76.626206"><ele>35.0</ele><time>2023-05-22T17:06:39Z</time></trkpt>
<trkpt lat="44.221268" lon="-76.626233"><ele>35.0</ele><time>2023-05-22T17:06:40Z</time></trkpt>
<trkpt lat="44.221265" lon="-76.62626"><ele>35.0</ele><time>2023-05-22T17:06:41Z</time></trkpt>
<trkpt lat="44.221259" lon="-76.626287"><ele>35.0</ele><time>2023-05-22T17:06:42Z</time></trkpt>
<trkpt lat="44.221255" lon="-76.626305"><ele>36.0</ele><time>2023-05-22T17:06:43Z</time></trkpt>
<trkpt lat="44.221249" lon="-76.626332"><ele>36.0</ele><time>2023-05-22T17:06:44Z</time></trkpt>
<trkpt lat="44.221246" lon="-76.626359"><ele>36.0</ele><time>2023-05-22T17:06:45Z</time></trkpt>
<trkpt lat="44.221243" lon="-76.626386"><ele>36.0</ele><time>2023-05-22T17:06:46Z</time></trkpt>
<trkpt lat="44.221236" lon="-76.626413"><ele>36.0</ele><time>2023-05-22T17:06:47Z</time></trkpt>
<trkpt lat="44.221233" lon="-76.626431"><ele>36.0</ele><time>2023-05-22T17:06:48Z</time></trkpt>
<trkpt lat="44.22123" lon="-76.626458"><ele>36.0</ele><time>2023-05-22T17:06:49Z</time></trkpt>
<trkpt lat="44.221226" lon="-76.626485"><ele>36.0</ele><time>2023-05-22T17:06:50Z</time></trkpt>
<trkpt lat="44.221226" lon="-76.626512"><ele>36.0</ele><time>2023-05-22T17:06:51Z</time></trkpt>
<trkpt lat="44.221223" lon="-76.626539"><ele>36.0</ele><time>2023-05-22T17:06:52Z</time></trkpt>
<trkpt lat="44.221223" lon="-76.626566"><ele>35.0</ele><time>2023-05-22T17:06:53Z</time></trkpt>
<trkpt lat="44.22122" lon="-76.626593"><ele>35.0</ele><time>2023-05-22T17:06:54Z</time></trkpt>
<trkpt lat="44.22122" lon="-76.626619"><ele>35.0</ele><time>2023-05-22T17:06:55Z</time></trkpt>
<trkpt lat="44.221217" lon="-76.626637"><ele>36.0</ele><time>2023-05-22T17:06:56Z</time></trkpt>
<trkpt lat="44.221213" lon="-76.626664"><ele>36.0</ele><time>2023-05-22T17:06:57Z</time></trkpt>
<trkpt lat="44.22121" lon="-76.626691"><ele>36.0</ele><time>2023-05-22T17:06:58Z</time></trkpt>
<trkpt lat="44.221207" lon="-76.626718"><ele>36.0</ele><time>2023-05-22T17:06:59Z</time></trkpt>
<trkpt lat="44.221204" lon="-76.626745"><ele>36.0</ele><time>2023-05-22T17:07:00Z</time></trkpt>
<trkpt lat="44.221204" lon="-76.626772"><ele>36.0</ele><time>2023-05-22T17:07:01Z</time></trkpt>
<trkpt lat="44.221201" lon="-76.626799"><ele>36.0</ele><time>2023-05-22T17:07:02Z</time></trkpt>
<trkpt lat="44.221197" lon="-76.626817"><ele>36.0</ele><time>2023-05-22T17:07:03Z</time></trkpt>
<trkpt lat="44.221194" lon="-76.626844"><ele>36.0</ele><time>2023-05-22T17:07:04Z</time></trkpt>
<trkpt lat="44.221188" lon="-76.626871"><ele>36.0</ele><time>2023-05-22T17:07:05Z</time></trkpt>
<trkpt lat="44.221184" lon="-76.626898"><ele>36.0</ele><time>2023-05-22T17:07:06Z</time></trkpt>
<trkpt lat="44.221184" lon="-76.626925"><ele>36.0</ele><time>2023-05-22T17:07:07Z</time></trkpt>
<trkpt lat="44.221181" lon="-76.626952"><ele>36.0</ele><time>2023-05-22T17:07:08Z</time></trkpt>
<trkpt lat="44.221181" lon="-76.626979"><ele>36.0</ele><time>2023-05-22T17:07:09Z</time></trkpt>
<trkpt lat="44.221178" lon="-76.627006"><ele>36.0</ele><time>2023-05-22T17:07:10Z</time></trkpt>
<trkpt lat="44.221175" lon="-76.627033"><ele>36.0</ele><time>2023-05-22T17:07:11Z</time></trkpt>
<trkpt lat="44.221171" lon="-76.62706"><ele>36.0</ele><time>2023-05-22T17:07:12Z</time></trkpt>
<trkpt lat="44.221165" lon="-76.627087"><ele>36.0</ele><time>2023-05-22T17:07:13Z</time></trkpt>
<trkpt lat="44.221162" lon="-76.627105"><ele>36.0</ele><time>2023-05-22T17:07:14Z</time></trkpt>
<trkpt lat="44.221155" lon="-76.627131"><ele>36.0</ele><time>2023-05-22T17:07:15Z</time></trkpt>
<trkpt lat="44.221149" lon="-76.627158"><ele>36.0</ele><time>2023-05-22T17:07:16Z</time></trkpt>
<trkpt lat="44.221146" lon="-76.627185"><ele>36.0</ele><time>2023-05-22T17:07:17Z</time></trkpt>
<trkpt lat="44.221139" lon="-76.627212"><ele>36.0</ele><time>2023-05-22T17:07:18Z</time></trkpt>
<trkpt lat="44.221133" lon="-76.627239"><ele>36.0</ele><time>2023-05-22T17:07:19Z</time></trkpt>
<trkpt lat="44.221126" lon="-76.627257"><ele>36.0</ele><time>2023-05-22T17:07:20Z</time></trkpt>
<trkpt lat="44.221123" lon="-76.627284"><ele>36.0</ele><time>2023-05-22T17:07:21Z</time></trkpt>
<trkpt lat="44.221123" lon="-76.627284"><ele>36.0</ele><time>2023-05-22T17:12:23Z</time></trkpt>
<trkpt lat="44.221123" lon="-76.627284"><ele>36.0</ele><time>2023-05-22T17:12:24Z</time></trkpt>
<trkpt lat="44.221123" lon="-76.627284"><ele>36.0</ele><time>2023-05-22T17:12:25Z</time></trkpt>
<trkpt lat="44.221123" lon="-76.627284"><ele>36.0</ele><time>2023-05-22T17:12:26Z</time></trkpt>
<trkpt lat="44.221123" lon="-76.627284"><ele>36.0</ele><time>2023-05-22T17:12:27Z</time></trkpt>
<trkpt lat="44.221123" lon="-76.627284"><ele>36.0</ele><time>2023-05-22T17:12:28Z</time></trkpt>
<trkpt lat="44.221123" lon="-76.627284"><ele>36.0</ele><time>2023-05-22T17:12:29Z</time></trkpt>
<trkpt lat="44.221123" lon="-76.627284"><ele>36.0</ele><time>2023-05-22T17:12:30Z</time></trkpt>
<trkpt lat="44.221123" lon="-76.627284"><ele>36.0</ele><time>2023-05-22T17:12:31Z</time></trkpt>
<trkpt lat="44.221123" lon="-76.627284"><ele>36.0</ele><time>2023-05-22T17:12:32Z</time></trkpt>
<trkpt lat="44.221123" lon="-76.627284"><ele>36.0</ele><time>2023-05-22T17:12:33Z</time></trkpt>
<trkpt lat="44.221123" lon="-76.627284"><ele>36.0</ele><time>2023-05-22T17:12:34Z</time></trkpt>
<trkpt lat="44.221123" lon="-76.627284"><ele>36.0</ele><time>2023-05-22T17:12:35Z</time></trkpt>
<trkpt lat="44.221123" lon="-76.627284"><ele>36.0</ele><time>2023-05-22T17:12:36Z</time></trkpt>
<trkpt lat="44.221123" lon="-76.627284"><ele>36.0</ele><time>2023-05-22T17:12:37Z</time></trkpt>
<trkpt lat="44.221123" lon="-76.627284"><ele>36.0</ele><time>2023-05-22T17:12:42Z</time></trkpt>
<trkpt lat="44.221123" lon="-76.627284"><ele>36.0</ele><time>2023-05-22T17:12:43Z</time></trkpt>
<trkpt lat="44.219198" lon="-76.6328"><ele>42.0</ele><time>2023-05-22T17:12:45Z</time></trkpt>
<trkpt lat="44.219146" lon="-76.632818"><ele>33.0</ele><time>2023-05-22T17:12:46Z</time></trkpt>
<trkpt lat="44.21914" lon="-76.632836"><ele>33.0</ele><time>2023-05-22T17:12:47Z</time></trkpt>
<trkpt lat="44.219137" lon="-76.632836"><ele>34.0</ele><time>2023-05-22T17:12:48Z</time></trkpt>
<trkpt lat="44.219133" lon="-76.632827"><ele>34.0</ele><time>2023-05-22T17:12:49Z</time></trkpt>
<trkpt lat="44.21913" lon="-76.632836"><ele>35.0</ele><time>2023-05-22T17:12:50Z</time></trkpt>
<trkpt lat="44.21913" lon="-76.632836"><ele>35.0</ele><time>2023-05-22T17:12:51Z</time></trkpt>
<trkpt lat="44.219124" lon="-76.632836"><ele>35.0</ele><time>2023-05-22T17:12:52Z</time></trkpt>
<trkpt lat="44.21912" lon="-76.632836"><ele>35.0</ele><time>2023-05-22T17:12:53Z</time></trkpt>
<trkpt lat="44.219114" lon="-76.632836"><ele>35.0</ele><time>2023-05-22T17:12:54Z</time></trkpt>
<trkpt lat="44.219111" lon="-76.632836"><ele>35.0</ele><time>2023-05-22T17:12:55Z</time></trkpt>
<trkpt lat="44.219107" lon="-76.632845"><ele>36.0</ele><time>2023-05-22T17:12:56Z</time></trkpt>
<trkpt lat="44.219104" lon="-76.632845"><ele>36.0</ele><time>2023-05-22T17:12:57Z</time></trkpt>
<trkpt lat="44.219098" lon="-76.632845"><ele>36.0</ele><time>2023-05-22T17:12:58Z</time></trkpt>
<trkpt lat="44.219095" lon="-76.632845"><ele>36.0</ele><time>2023-05-22T17:12:59Z</time></trkpt>
<trkpt lat="44.219088" lon="-76.632845"><ele>36.0</ele><time>2023-05-22T17:13:00Z</time></trkpt>
<trkpt lat="44.219085" lon="-76.632854"><ele>36.0</ele><time>2023-05-22T17:13:01Z</time></trkpt>
<trkpt lat="44.219078" lon="-76.632854"><ele>35.0</ele><time>2023-05-22T17:13:02Z</time></trkpt>
<trkpt lat="44.219075" lon="-76.632854"><ele>36.0</ele><time>2023-05-22T17:13:03Z</time></trkpt>
<trkpt lat="44.219072" lon="-76.632863"><ele>35.0</ele><time>2023-05-22T17:13:04Z</time></trkpt>
<trkpt lat="44.219065" lon="-76.632863"><ele>35.0</ele><time>2023-05-22T17:13:05Z</time></trkpt>
<trkpt lat="44.219062" lon="-76.632863"><ele>35.0</ele><time>2023-05-22T17:13:06Z</time></trkpt>
<trkpt lat="44.219059" lon="-76.632871"><ele>35.0</ele><time>2023-05-22T17:13:07Z</time></trkpt>
<trkpt lat="44.219056" lon="-76.632871"><ele>35.0</ele><time>2023-05-22T17:13:08Z</time></trkpt>
<trkpt lat="44.219049" lon="-76.632871"><ele>35.0</ele><time>2023-05-22T17:13:09Z</time></trkpt>
<trkpt lat="44.219046" lon="-76.63288"><ele>35.0</ele><time>2023-05-22T17:13:10Z</time></trkpt>
<trkpt lat="44.219043" lon="-76.63288"><ele>35.0</ele><time>2023-05-22T17:13:11Z</time></trkpt>
<trkpt lat="44.219036" lon="-76.63288"><ele>35.0</ele><time>2023-05-22T17:13:12Z</time></trkpt>
<trkpt lat="44.219033" lon="-76.632889"><ele>35.0</ele><time>2023-05-22T17:13:13Z</time></trkpt>
<trkpt lat="44.21903" lon="-76.632889"><ele>35.0</ele><time>2023-05-22T17:13:14Z</time></trkpt>
<trkpt lat="44.219027" lon="-76.632889"><ele>35.0</ele><time>2023-05-22T17:13:15Z</time></trkpt>
<trkpt lat="44.219023" lon="-76.632898"><ele>35.0</ele><time>2023-05-22T17:13:16Z</time></trkpt>
<trkpt lat="44.21902" lon="-76.632898"><ele>35.0</ele><time>2023-05-22T17:13:17Z</time></trkpt>
<trkpt lat="44.219014" lon="-76.632898"><ele>35.0</ele><time>2023-05-22T17:13:18Z</time></trkpt>
<trkpt lat="44.219011" lon="-76.632907"><ele>35.0</ele><time>2023-05-22T17:13:19Z</time></trkpt>
<trkpt lat="44.219007" lon="-76.632907"><ele>35.0</ele><time>2023-05-22T17:13:20Z</time></trkpt>
<trkpt lat="44.219004" lon="-76.632907"><ele>35.0</ele><time>2023-05-22T17:13:21Z</time></trkpt>
<trkpt lat="44.219001" lon="-76.632907"><ele>35.0</ele><time>2023-05-22T17:13:22Z</time></trkpt>
<trkpt lat="44.218994" lon="-76.632916"><ele>35.0</ele><time>2023-05-22T17:13:23Z</time></trkpt>
<trkpt lat="44.218991" lon="-76.632916"><ele>35.0</ele><time>2023-05-22T17:13:24Z</time></trkpt>
<trkpt lat="44.218988" lon="-76.632925"><ele>35.0</ele><time>2023-05-22T17:13:25Z</time></trkpt>
<trkpt lat="44.218982" lon="-76.632925"><ele>35.0</ele><time>2023-05-22T17:13:26Z</time></trkpt>
<trkpt lat="44.218978" lon="-76.632925"><ele>35.0</ele><time>2023-05-22T17:13:27Z</time></trkpt>
<trkpt lat="44.218975" lon="-76.632934"><ele>35.0</ele><time>2023-05-22T17:13:28Z</time></trkpt>
<trkpt lat="44.218969" lon="-76.632934"><ele>35.0</ele><time>2023-05-22T17:13:29Z</time></trkpt>
<trkpt lat="44.218965" lon="-76.632934"><ele>35.0</ele><time>2023-05-22T17:13:30Z</time></trkpt>
<trkpt lat="44.218962" lon="-76.632943"><ele>35.0</ele><time>2023-05-22T17:13:31Z</time></trkpt>
<trkpt lat="44.218959" lon="-76.632943"><ele>35.0</ele><time>2023-05-22T17:13:32Z</time></trkpt>
<trkpt lat="44.218952" lon="-76.632952"><ele>35.0</ele><time>2023-05-22T17:13:33Z</time></trkpt>
<trkpt lat="44.218949" lon="-76.632952"><ele>35.0</ele><time>2023-05-22T17:13:34Z</time></trkpt>
<trkpt lat="44.218946" lon="-76.632952"><ele>35.0</ele><time>2023-05-22T17:13:35Z</time></trkpt>
<trkpt lat="44.21894" lon="-76.632961"><ele>35.0</ele><time>2023-05-22T17:13:36Z</time></trkpt>
<trkpt lat="44.218936" lon="-76.632961"><ele>35.0</ele><time>2023-05-22T17:13:37Z</time></trkpt>
<trkpt lat="44.21893" lon="-76.632961"><ele>35.0</ele><time>2023-05-22T17:13:38Z</time></trkpt>
<trkpt lat="44.218927" lon="-76.63297"><ele>35.0</ele><time>2023-05-22T17:13:39Z</time></trkpt>
<trkpt lat="44.21892" lon="-76.63297"><ele>35.0</ele><time>2023-05-22T17:13:40Z</time></trkpt>
<trkpt lat="44.218914" lon="-76.63297"><ele>35.0</ele><time>2023-05-22T17:13:41Z</time></trkpt>
<trkpt lat="44.21891" lon="-76.63297"><ele>35.0</ele><time>2023-05-22T17:13:42Z</time></trkpt>
<trkpt lat="44.218904" lon="-76.632979"><ele>35.0</ele><time>2023-05-22T17:13:43Z</time></trkpt>
<trkpt lat="44.218901" lon="-76.632979"><ele>35.0</ele><time>2023-05-22T17:13:44Z</time></trkpt>
<trkpt lat="44.218894" lon="-76.632979"><ele>35.0</ele><time>2023-05-22T17:13:45Z</time></trkpt>
<trkpt lat="44.218891" lon="-76.632988"><ele>35.0</ele><time>2023-05-22T17:13:46Z</time></trkpt>
<trkpt lat="44.218885" lon="-76.632988"><ele>35.0</ele><time>2023-05-22T17:13:47Z</time></trkpt>
<trkpt lat="44.218885" lon="-76.632988"><ele>35.0</ele><time>2023-05-22T18:11:42Z</time></trkpt>
<trkpt lat="44.218885" lon="-76.632988"><ele>35.0</ele><time>2023-05-22T18:11:43Z</time></trkpt>
<trkpt lat="44.218885" lon="-76.632988"><ele>35.0</ele><time>2023-05-22T18:11:44Z</time></trkpt>
<trkpt lat="44.218885" lon="-76.632988"><ele>35.0</ele><time>2023-05-22T18:11:45Z</time></trkpt>
<trkpt lat="44.218885" lon="-76.632988"><ele>35.0</ele><time>2023-05-22T18:11:46Z</time></trkpt>
<trkpt lat="44.218885" lon="-76.632988"><ele>35.0</ele><time>2023-05-22T18:11:47Z</time></trkpt>
<trkpt lat="44.218885" lon="-76.632988"><ele>35.0</ele><time>2023-05-22T18:11:48Z</time></trkpt>
<trkpt lat="44.216268" lon="-76.62697"><ele>30.0</ele><time>2023-05-22T18:11:51Z</time></trkpt>
<trkpt lat="44.216262" lon="-76.626988"><ele>36.0</ele><time>2023-05-22T18:11:52Z</time></trkpt>
<trkpt lat="44.216246" lon="-76.626988"><ele>37.0</ele><time>2023-05-22T18:11:53Z</time></trkpt>
<trkpt lat="44.216258" lon="-76.626997"><ele>38.0</ele><time>2023-05-22T18:11:54Z</time></trkpt>
<trkpt lat="44.216278" lon="-76.627006"><ele>38.0</ele><time>2023-05-22T18:11:55Z</time></trkpt>
<trkpt lat="44.216294" lon="-76.627024"><ele>39.0</ele><time>2023-05-22T18:11:56Z</time></trkpt>
<trkpt lat="44.21631" lon="-76.627033"><ele>39.0</ele><time>2023-05-22T18:11:57Z</time></trkpt>
<trkpt lat="44.216326" lon="-76.627042"><ele>38.0</ele><time>2023-05-22T18:11:58Z</time></trkpt>
<trkpt lat="44.216339" lon="-76.627051"><ele>38.0</ele><time>2023-05-22T18:11:59Z</time></trkpt>
<trkpt lat="44.216355" lon="-76.62706"><ele>38.0</ele><time>2023-05-22T18:12:00Z</time></trkpt>
<trkpt lat="44.216372" lon="-76.627069"><ele>38.0</ele><time>2023-05-22T18:12:01Z</time></trkpt>
<trkpt lat="44.216384" lon="-76.627078"><ele>38.0</ele><time>2023-05-22T18:12:02Z</time></trkpt>
<trkpt lat="44.216401" lon="-76.627087"><ele>38.0</ele><time>2023-05-22T18:12:03Z</time></trkpt>
<trkpt lat="44.216414" lon="-76.627096"><ele>38.0</ele><time>2023-05-22T18:12:04Z</time></trkpt>
<trkpt lat="44.21643" lon="-76.627105"><ele>38.0</ele><time>2023-05-22T18:12:05Z</time></trkpt>
<trkpt lat="44.216443" lon="-76.627114"><ele>38.0</ele><time>2023-05-22T18:12:06Z</time></trkpt>
<trkpt lat="44.216456" lon="-76.627123"><ele>38.0</ele><time>2023-05-22T18:12:07Z</time></trkpt>
<trkpt lat="44.216465" lon="-76.62714"><ele>37.0</ele><time>2023-05-22T18:12:08Z</time></trkpt>
<trkpt lat="44.216478" lon="-76.627149"><ele>37.0</ele><time>2023-05-22T18:12:09Z</time></trkpt>
<trkpt lat="44.216491" lon="-76.627158"><ele>37.0</ele><time>2023-05-22T18:12:10Z</time></trkpt>
<trkpt lat="44.216504" lon="-76.627167"><ele>37.0</ele><time>2023-05-22T18:12:11Z</time></trkpt>
<trkpt lat="44.216514" lon="-76.627176"><ele>37.0</ele><time>2023-05-22T18:12:12Z</time></trkpt>
<trkpt lat="44.216527" lon="-76.627185"><ele>37.0</ele><time>2023-05-22T18:12:13Z</time></trkpt>
<trkpt lat="44.216536" lon="-76.627194"><ele>37.0</ele><time>2023-05-22T18:12:14Z</time></trkpt>
<trkpt lat="44.216549" lon="-76.627203"><ele>37.0</ele><time>2023-05-22T18:12:15Z</time></trkpt>
<trkpt lat="44.216559" lon="-76.627212"><ele>37.0</ele><time>2023-05-22T18:12:16Z</time></trkpt>
<trkpt lat="44.216572" lon="-76.627221"><ele>37.0</ele><time>2023-05-22T18:12:17Z</time></trkpt>
<trkpt lat="44.216581" lon="-76.627239"><ele>38.0</ele><time>2023-05-22T18:12:18Z</time></trkpt>
<trkpt lat="44.216591" lon="-76.627248"><ele>38.0</ele><time>2023-05-22T18:12:19Z</time></trkpt>
<trkpt lat="44.216601" lon="-76.627257"><ele>38.0</ele><time>2023-05-22T18:12:20Z</time></trkpt>
<trkpt lat="44.216611" lon="-76.627266"><ele>38.0</ele><time>2023-05-22T18:12:21Z</time></trkpt>
<trkpt lat="44.216623" lon="-76.627284"><ele>38.0</ele><time>2023-05-22T18:12:22Z</time></trkpt>
<trkpt lat="44.216633" lon="-76.627293"><ele>38.0</ele><time>2023-05-22T18:12:23Z</time></trkpt>
<trkpt lat="44.216643" lon="-76.627302"><ele>38.0</ele><time>2023-05-22T18:12:24Z</time></trkpt>
<trkpt lat="44.216653" lon="-76.627311"><ele>38.0</ele><time>2023-05-22T18:12:25Z</time></trkpt>
<trkpt lat="44.216662" lon="-76.62732"><ele>38.0</ele><time>2023-05-22T18:12:26Z</time></trkpt>
<trkpt lat="44.216675" lon="-76.627338"><ele>38.0</ele><time>2023-05-22T18:12:27Z</time></trkpt>
<trkpt lat="44.216685" lon="-76.627347"><ele>38.0</ele><time>2023-05-22T18:12:28Z</time></trkpt>
<trkpt lat="44.216695" lon="-76.627356"><ele>38.0</ele><time>2023-05-22T18:12:29Z</time></trkpt>
<trkpt lat="44.216704" lon="-76.627365"><ele>37.0</ele><time>2023-05-22T18:12:30Z</time></trkpt>
<trkpt lat="44.216717" lon="-76.627374"><ele>37.0</ele><time>2023-05-22T18:12:31Z</time></trkpt>
<trkpt lat="44.216727" lon="-76.627383"><ele>37.0</ele><time>2023-05-22T18:12:32Z</time></trkpt>
<trkpt lat="44.21674" lon="-76.627392"><ele>37.0</ele><time>2023-05-22T18:12:33Z</time></trkpt>
<trkpt lat="44.216749" lon="-76.627401"><ele>37.0</ele><time>2023-05-22T18:12:34Z</time></trkpt>
<trkpt lat="44.216759" lon="-76.627419"><ele>37.0</ele><time>2023-05-22T18:12:35Z</time></trkpt>
<trkpt lat="44.216772" lon="-76.627419"><ele>37.0</ele><time>2023-05-22T18:12:36Z</time></trkpt>
<trkpt lat="44.216782" lon="-76.627428"><ele>37.0</ele><time>2023-05-22T18:12:37Z</time></trkpt>
<trkpt lat="44.216791" lon="-76.627437"><ele>37.0</ele><time>2023-05-22T18:12:38Z</time></trkpt>
<trkpt lat="44.216804" lon="-76.627446"><ele>37.0</ele><time>2023-05-22T18:12:39Z</time></trkpt>
<trkpt lat="44.216814" lon="-76.627455"><ele>37.0</ele><time>2023-05-22T18:12:40Z</time></trkpt>
<trkpt lat="44.216824" lon="-76.627464"><ele>37.0</ele><time>2023-05-22T18:12:41Z</time></trkpt>
<trkpt lat="44.216833" lon="-76.627473"><ele>37.0</ele><time>2023-05-22T18:12:42Z</time></trkpt>
<trkpt lat="44.216843" lon="-76.627482"><ele>37.0</ele><time>2023-05-22T18:12:43Z</time></trkpt>
<trkpt lat="44.216853" lon="-76.627491"><ele>37.0</ele><time>2023-05-22T18:12:44Z</time></trkpt>
<trkpt lat="44.216866" lon="-76.6275"><ele>37.0</ele><time>2023-05-22T18:12:45Z</time></trkpt>
<trkpt lat="44.216875" lon="-76.6275"><ele>37.0</ele><time>2023-05-22T18:12:46Z</time></trkpt>
<trkpt lat="44.216885" lon="-76.627509"><ele>37.0</ele><time>2023-05-22T18:12:47Z</time></trkpt>
<trkpt lat="44.216895" lon="-76.627518"><ele>37.0</ele><time>2023-05-22T18:12:48Z</time></trkpt>
<trkpt lat="44.216895" lon="-76.627518"><ele>37.0</ele><time>2023-05-22T18:15:15Z</time></trkpt>
<trkpt lat="44.216895" lon="-76.627518"><ele>37.0</ele><time>2023-05-22T18:15:16Z</time></trkpt>
<trkpt lat="44.216895" lon="-76.627518"><ele>37.0</ele><time>2023-05-22T18:15:17Z</time></trkpt>
<trkpt lat="44.216895" lon="-76.627518"><ele>37.0</ele><time>2023-05-22T18:15:17Z</time></trkpt>
<trkpt lat="44.217896" lon="-76.627697"><ele>25.0</ele><time>2023-05-22T18:15:18Z</time></trkpt>
<trkpt lat="44.217948" lon="-76.627697"><ele>33.0</ele><time>2023-05-22T18:15:19Z</time></trkpt>
<trkpt lat="44.217954" lon="-76.627679"><ele>35.0</ele><time>2023-05-22T18:15:20Z</time></trkpt>
<trkpt lat="44.21798" lon="-76.627661"><ele>35.0</ele><time>2023-05-22T18:15:21Z</time></trkpt>
<trkpt lat="44.217993" lon="-76.627644"><ele>36.0</ele><time>2023-05-22T18:15:22Z</time></trkpt>
<trkpt lat="44.218006" lon="-76.627617"><ele>36.0</ele><time>2023-05-22T18:15:23Z</time></trkpt>
<trkpt lat="44.218019" lon="-76.627599"><ele>36.0</ele><time>2023-05-22T18:15:24Z</time></trkpt>
<trkpt lat="44.218029" lon="-76.627581"><ele>36.0</ele><time>2023-05-22T18:15:25Z</time></trkpt>
<trkpt lat="44.218045" lon="-76.627563"><ele>36.0</ele><time>2023-05-22T18:15:26Z</time></trkpt>
<trkpt lat="44.218058" lon="-76.627545"><ele>37.0</ele><time>2023-05-22T18:15:27Z</time></trkpt>
<trkpt lat="44.218071" lon="-76.627527"><ele>37.0</ele><time>2023-05-22T18:15:28Z</time></trkpt>
<trkpt lat="44.218084" lon="-76.627509"><ele>37.0</ele><time>2023-05-22T18:15:29Z</time></trkpt>
<trkpt lat="44.218093" lon="-76.627491"><ele>37.0</ele><time>2023-05-22T18:15:30Z</time></trkpt>
<trkpt lat="44.218106" lon="-76.627464"><ele>37.0</ele><time>2023-05-22T18:15:31Z</time></trkpt>
<trkpt lat="44.218119" lon="-76.627446"><ele>37.0</ele><time>2023-05-22T18:15:32Z</time></trkpt>
<trkpt lat="44.218129" lon="-76.627428"><ele>37.0</ele><time>2023-05-22T18:15:33Z</time></trkpt>
<trkpt lat="44.218142" lon="-76.62741"><ele>37.0</ele><time>2023-05-22T18:15:34Z</time></trkpt>
<trkpt lat="44.218155" lon="-76.627383"><ele>37.0</ele><time>2023-05-22T18:15:35Z</time></trkpt>
<trkpt lat="44.218168" lon="-76.627365"><ele>37.0</ele><time>2023-05-22T18:15:36Z</time></trkpt>
<trkpt lat="44.21818" lon="-76.627347"><ele>37.0</ele><time>2023-05-22T18:15:37Z</time></trkpt>
<trkpt lat="44.218193" lon="-76.627329"><ele>37.0</ele><time>2023-05-22T18:15:38Z</time></trkpt>
<trkpt lat="44.218206" lon="-76.627311"><ele>37.0</ele><time>2023-05-22T18:15:39Z</time></trkpt>
<trkpt lat="44.218219" lon="-76.627293"><ele>37.0</ele><time>2023-05-22T18:15:40Z</time></trkpt>
<trkpt lat="44.218232" lon="-76.627275"><ele>37.0</ele><time>2023-05-22T18:15:41Z</time></trkpt>
<trkpt lat="44.218245" lon="-76.627248"><ele>37.0</ele><time>2023-05-22T18:15:42Z</time></trkpt>
<trkpt lat="44.218255" lon="-76.62723"><ele>37.0</ele><time>2023-05-22T18:15:43Z</time></trkpt>
<trkpt lat="44.218268" lon="-76.627212"><ele>37.0</ele><time>2023-05-22T18:15:44Z</time></trkpt>
<trkpt lat="44.218277" lon="-76.627194"><ele>37.0</ele><time>2023-05-22T18:15:45Z</time></trkpt>
<trkpt lat="44.21829" lon="-76.627176"><ele>37.0</ele><time>2023-05-22T18:15:46Z</time></trkpt>
<trkpt lat="44.2183" lon="-76.627149"><ele>37.0</ele><time>2023-05-22T18:15:47Z</time></trkpt>
<trkpt lat="44.21831" lon="-76.627131"><ele>37.0</ele><time>2023-05-22T18:15:48Z</time></trkpt>
<trkpt lat="44.218319" lon="-76.627114"><ele>37.0</ele><time>2023-05-22T18:15:49Z</time></trkpt>
<trkpt lat="44.218332" lon="-76.627096"><ele>37.0</ele><time>2023-05-22T18:15:50Z</time></trkpt>
<trkpt lat="44.218342" lon="-76.627078"><ele>37.0</ele><time>2023-05-22T18:15:51Z</time></trkpt>
<trkpt lat="44.218352" lon="-76.62706"><ele>37.0</ele><time>2023-05-22T18:15:52Z</time></trkpt>
<trkpt lat="44.218361" lon="-76.627042"><ele>37.0</ele><time>2023-05-22T18:15:53Z</time></trkpt>
<trkpt lat="44.218371" lon="-76.627024"><ele>37.0</ele><time>2023-05-22T18:15:54Z</time></trkpt>
<trkpt lat="44.218381" lon="-76.626997"><ele>37.0</ele><time>2023-05-22T18:15:55Z</time></trkpt>
<trkpt lat="44.218387" lon="-76.626979"><ele>37.0</ele><time>2023-05-22T18:15:56Z</time></trkpt>
<trkpt lat="44.218397" lon="-76.626961"><ele>37.0</ele><time>2023-05-22T18:15:57Z</time></trkpt>
<trkpt lat="44.218407" lon="-76.626934"><ele>37.0</ele><time>2023-05-22T18:15:58Z</time></trkpt>
<trkpt lat="44.218416" lon="-76.626916"><ele>37.0</ele><time>2023-05-22T18:15:59Z</time></trkpt>
<trkpt lat="44.218426" lon="-76.626898"><ele>37.0</ele><time>2023-05-22T18:16:00Z</time></trkpt>
<trkpt lat="44.218436" lon="-76.626871"><ele>37.0</ele><time>2023-05-22T18:16:01Z</time></trkpt>
<trkpt lat="44.218445" lon="-76.626853"><ele>37.0</ele><time>2023-05-22T18:16:02Z</time></trkpt>
<trkpt lat="44.218458" lon="-76.626835"><ele>37.0</ele><time>2023-05-22T18:16:03Z</time></trkpt>
<trkpt lat="44.218468" lon="-76.626808"><ele>38.0</ele><time>2023-05-22T18:16:04Z</time></trkpt>
<trkpt lat="44.218478" lon="-76.62679"><ele>38.0</ele><time>2023-05-22T18:16:05Z</time></trkpt>
<trkpt lat="44.218487" lon="-76.626763"><ele>37.0</ele><time>2023-05-22T18:16:06Z</time></trkpt>
<trkpt lat="44.218497" lon="-76.626745"><ele>37.0</ele><time>2023-05-22T18:16:07Z</time></trkpt>
<trkpt lat="44.21851" lon="-76.626718"><ele>37.0</ele><time>2023-05-22T18:16:08Z</time></trkpt>
<trkpt lat="44.21852" lon="-76.6267"><ele>38.0</ele><time>2023-05-22T18:16:09Z</time></trkpt>
<trkpt lat="44.218529" lon="-76.626673"><ele>38.0</ele><time>2023-05-22T18:16:10Z</time></trkpt>
<trkpt lat="44.218539" lon="-76.626655"><ele>38.0</ele><time>2023-05-22T18:16:11Z</time></trkpt>
<trkpt lat="44.218549" lon="-76.626628"><ele>38.0</ele><time>2023-05-22T18:16:12Z</time></trkpt>
<trkpt lat="44.218562" lon="-76.62661"><ele>38.0</ele><time>2023-05-22T18:16:13Z</time></trkpt>
<trkpt lat="44.218575" lon="-76.626593"><ele>38.0</ele><time>2023-05-22T18:16:14Z</time></trkpt>
<trkpt lat="44.218584" lon="-76.626575"><ele>38.0</ele><time>2023-05-22T18:16:15Z</time></trkpt>
<trkpt lat="44.218594" lon="-76.626548"><ele>38.0</ele><time>2023-05-22T18:16:16Z</time></trkpt>
<trkpt lat="44.218607" lon="-76.62653"><ele>38.0</ele><time>2023-05-22T18:16:17Z</time></trkpt>
<trkpt lat="44.218617" lon="-76.626512"><ele>37.0</ele><time>2023-05-22T18:16:18Z</time></trkpt>
<trkpt lat="44.218626" lon="-76.626485"><ele>37.0</ele><time>2023-05-22T18:16:19Z</time></trkpt>
<trkpt lat="44.218636" lon="-76.626467"><ele>37.0</ele><time>2023-05-22T18:16:20Z</time></trkpt>
<trkpt lat="44.218646" lon="-76.626449"><ele>37.0</ele><time>2023-05-22T18:16:21Z</time></trkpt>
<trkpt lat="44.218658" lon="-76.626422"><ele>37.0</ele><time>2023-05-22T18:16:22Z</time></trkpt>
<trkpt lat="44.218668" lon="-76.626404"><ele>37.0</ele><time>2023-05-22T18:16:23Z</time></trkpt>
<trkpt lat="44.218678" lon="-76.626386"><ele>37.0</ele><time>2023-05-22T18:16:24Z</time></trkpt>
<trkpt lat="44.218688" lon="-76.626368"><ele>37.0</ele><time>2023-05-22T18:16:25Z</time></trkpt>
<trkpt lat="44.218697" lon="-76.62635"><ele>37.0</ele><time>2023-05-22T18:16:26Z</time></trkpt>
<trkpt lat="44.218707" lon="-76.626332"><ele>37.0</ele><time>2023-05-22T18:16:27Z</time></trkpt>
<trkpt lat="44.218717" lon="-76.626314"><ele>37.0</ele><time>2023-05-22T18:16:28Z</time></trkpt>
<trkpt lat="44.218726" lon="-76.626296"><ele>37.0</ele><time>2023-05-22T18:16:29Z</time></trkpt>
<trkpt lat="44.218733" lon="-76.626269"><ele>37.0</ele><time>2023-05-22T18:16:30Z</time></trkpt>
<trkpt lat="44.219195" lon="-76.625218"><ele>34.0</ele><time>2023-05-22T18:17:33Z</time></trkpt>
<trkpt lat="44.219195" lon="-76.625218"><ele>34.0</ele><time>2023-05-22T18:17:33Z</time></trkpt>
<trkpt lat="44.219188" lon="-76.625209"><ele>35.0</ele><time>2023-05-22T18:17:34Z</time></trkpt>
<trkpt lat="44.219188" lon="-76.625191"><ele>36.0</ele><time>2023-05-22T18:17:35Z</time></trkpt>
<trkpt lat="44.219188" lon="-76.625173"><ele>36.0</ele><time>2023-05-22T18:17:36Z</time></trkpt>
<trkpt lat="44.219195" lon="-76.625164"><ele>36.0</ele><time>2023-05-22T18:17:37Z</time></trkpt>
<trkpt lat="44.219201" lon="-76.625146"><ele>36.0</ele><time>2023-05-22T18:17:38Z</time></trkpt>
<trkpt lat="44.219204" lon="-76.625128"><ele>36.0</ele><time>2023-05-22T18:17:39Z</time></trkpt>
<trkpt lat="44.219211" lon="-76.62511"><ele>36.0</ele><time>2023-05-22T18:17:40Z</time></trkpt>
<trkpt lat="44.219214" lon="-76.625092"><ele>36.0</ele><time>2023-05-22T18:17:41Z</time></trkpt>
<trkpt lat="44.219217" lon="-76.625074"><ele>36.0</ele><time>2023-05-22T18:17:42Z</time></trkpt>
<trkpt lat="44.219221" lon="-76.625056"><ele>36.0</ele><time>2023-05-22T18:17:43Z</time></trkpt>
<trkpt lat="44.219227" lon="-76.625047"><ele>36.0</ele><time>2023-05-22T18:17:44Z</time></trkpt>
<trkpt lat="44.21923" lon="-76.62503"><ele>36.0</ele><time>2023-05-22T18:17:45Z</time></trkpt>
<trkpt lat="44.219233" lon="-76.625012"><ele>36.0</ele><time>2023-05-22T18:17:46Z</time></trkpt>
<trkpt lat="44.21924" lon="-76.624994"><ele>36.0</ele><time>2023-05-22T18:17:47Z</time></trkpt>
<trkpt lat="44.219243" lon="-76.624976"><ele>36.0</ele><time>2023-05-22T18:17:48Z</time></trkpt>
<trkpt lat="44.21925" lon="-76.624958"><ele>36.0</ele><time>2023-05-22T18:17:49Z</time></trkpt>
<trkpt lat="44.219256" lon="-76.624949"><ele>36.0</ele><time>2023-05-22T18:17:50Z</time></trkpt>
<trkpt lat="44.219259" lon="-76.624931"><ele>36.0</ele><time>2023-05-22T18:17:51Z</time></trkpt>
<trkpt lat="44.219259" lon="-76.624931"><ele>36.0</ele><time>2023-05-22T18:20:29Z</time></trkpt>
<trkpt lat="44.219259" lon="-76.624931"><ele>36.0</ele><time>2023-05-22T18:20:30Z</time></trkpt>
<trkpt lat="44.219259" lon="-76.624931"><ele>36.0</ele><time>2023-05-22T18:20:31Z</time></trkpt>
<trkpt lat="44.219259" lon="-76.624931"><ele>36.0</ele><time>2023-05-22T18:20:31Z</time></trkpt>
<trkpt lat="44.220981" lon="-76.622847"><ele>33.0</ele><time>2023-05-22T18:20:32Z</time></trkpt>
<trkpt lat="44.220958" lon="-76.622829"><ele>34.0</ele><time>2023-05-22T18:20:33Z</time></trkpt>
<trkpt lat="44.220968" lon="-76.62282"><ele>35.0</ele><time>2023-05-22T18:20:34Z</time></trkpt>
<trkpt lat="44.220974" lon="-76.622811"><ele>37.0</ele><time>2023-05-22T18:20:35Z</time></trkpt>
<trkpt lat="44.220974" lon="-76.622802"><ele>37.0</ele><time>2023-05-22T18:20:36Z</time></trkpt>
<trkpt lat="44.220984" lon="-76.622784"><ele>37.0</ele><time>2023-05-22T18:20:37Z</time></trkpt>
<trkpt lat="44.220991" lon="-76.622775"><ele>37.0</ele><time>2023-05-22T18:20:38Z</time></trkpt>
<trkpt lat="44.220997" lon="-76.622766"><ele>37.0</ele><time>2023-05-22T18:20:39Z</time></trkpt>
<trkpt lat="44.221004" lon="-76.622748"><ele>37.0</ele><time>2023-05-22T18:20:40Z</time></trkpt>
<trkpt lat="44.22101" lon="-76.622739"><ele>37.0</ele><time>2023-05-22T18:20:41Z</time></trkpt>
<trkpt lat="44.221013" lon="-76.622721"><ele>37.0</ele><time>2023-05-22T18:20:42Z</time></trkpt>
<trkpt lat="44.22102" lon="-76.622712"><ele>37.0</ele><time>2023-05-22T18:20:43Z</time></trkpt>
<trkpt lat="44.221026" lon="-76.622694"><ele>37.0</ele><time>2023-05-22T18:20:44Z</time></trkpt>
<trkpt lat="44.221033" lon="-76.622685"><ele>37.0</ele><time>2023-05-22T18:20:45Z</time></trkpt>
<trkpt lat="44.221039" lon="-76.622667"><ele>38.0</ele><time>2023-05-22T18:20:46Z</time></trkpt>
<trkpt lat="44.221046" lon="-76.622658"><ele>38.0</ele><time>2023-05-22T18:20:47Z</time></trkpt>
<trkpt lat="44.221052" lon="-76.62264"><ele>37.0</ele><time>2023-05-22T18:20:48Z</time></trkpt>
<trkpt lat="44.221058" lon="-76.622631"><ele>37.0</ele><time>2023-05-22T18:20:49Z</time></trkpt>
<trkpt lat="44.221065" lon="-76.622613"><ele>37.0</ele><time>2023-05-22T18:20:50Z</time></trkpt>
<trkpt lat="44.221075" lon="-76.622604"><ele>37.0</ele><time>2023-05-22T18:20:51Z</time></trkpt>
<trkpt lat="44.221081" lon="-76.622595"><ele>37.0</ele><time>2023-05-22T18:20:52Z</time></trkpt>
<trkpt lat="44.221087" lon="-76.622577"><ele>37.0</ele><time>2023-05-22T18:20:53Z</time></trkpt>
<trkpt lat="44.221097" lon="-76.622568"><ele>37.0</ele><time>2023-05-22T18:20:54Z</time></trkpt>
<trkpt lat="44.221104" lon="-76.62255"><ele>37.0</ele><time>2023-05-22T18:20:55Z</time></trkpt>
<trkpt lat="44.221113" lon="-76.622541"><ele>37.0</ele><time>2023-05-22T18:20:56Z</time></trkpt>
<trkpt lat="44.221123" lon="-76.622523"><ele>37.0</ele><time>2023-05-22T18:20:57Z</time></trkpt>
<trkpt lat="44.221133" lon="-76.622514"><ele>37.0</ele><time>2023-05-22T18:20:58Z</time></trkpt>
<trkpt lat="44.221142" lon="-76.622496"><ele>37.0</ele><time>2023-05-22T18:20:59Z</time></trkpt>
<trkpt lat="44.221152" lon="-76.622487"><ele>37.0</ele><time>2023-05-22T18:21:00Z</time></trkpt>
<trkpt lat="44.221162" lon="-76.622478"><ele>37.0</ele><time>2023-05-22T18:21:01Z</time></trkpt>
<trkpt lat="44.221171" lon="-76.622469"><ele>37.0</ele><time>2023-05-22T18:21:02Z</time></trkpt>
<trkpt lat="44.221181" lon="-76.62246"><ele>37.0</ele><time>2023-05-22T18:21:03Z</time></trkpt>
<trkpt lat="44.221191" lon="-76.622451"><ele>37.0</ele><time>2023-05-22T18:21:04Z</time></trkpt>
<trkpt lat="44.221201" lon="-76.622442"><ele>37.0</ele><time>2023-05-22T18:21:05Z</time></trkpt>
<trkpt lat="44.221207" lon="-76.622433"><ele>37.0</ele><time>2023-05-22T18:21:06Z</time></trkpt>
<trkpt lat="44.221217" lon="-76.622424"><ele>37.0</ele><time>2023-05-22T18:21:07Z</time></trkpt>
<trkpt lat="44.221226" lon="-76.622416"><ele>37.0</ele><time>2023-05-22T18:21:08Z</time></trkpt>
<trkpt lat="44.221233" lon="-76.622407"><ele>37.0</ele><time>2023-05-22T18:21:09Z</time></trkpt>
<trkpt lat="44.221239" lon="-76.622389"><ele>37.0</ele><time>2023-05-22T18:21:10Z</time></trkpt>
<trkpt lat="44.221249" lon="-76.62238"><ele>37.0</ele><time>2023-05-22T18:21:11Z</time></trkpt>
<trkpt lat="44.221255" lon="-76.622371"><ele>37.0</ele><time>2023-05-22T18:21:12Z</time></trkpt>
<trkpt lat="44.221262" lon="-76.622353"><ele>37.0</ele><time>2023-05-22T18:21:13Z</time></trkpt>
<trkpt lat="44.221268" lon="-76.622335"><ele>37.0</ele><time>2023-05-22T18:21:14Z</time></trkpt>
<trkpt lat="44.221275" lon="-76.622326"><ele>37.0</ele><time>2023-05-22T18:21:15Z</time></trkpt>
<trkpt lat="44.221285" lon="-76.622308"><ele>37.0</ele><time>2023-05-22T18:21:16Z</time></trkpt>
<trkpt lat="44.221291" lon="-76.622299"><ele>37.0</ele><time>2023-05-22T18:21:17Z</time></trkpt>
<trkpt lat="44.221301" lon="-76.62229"><ele>37.0</ele><time>2023-05-22T18:21:18Z</time></trkpt>
<trkpt lat="44.221307" lon="-76.622272"><ele>37.0</ele><time>2023-05-22T18:21:19Z</time></trkpt>
<trkpt lat="44.221317" lon="-76.622263"><ele>37.0</ele><time>2023-05-22T18:21:20Z</time></trkpt>
<trkpt lat="44.221323" lon="-76.622254"><ele>37.0</ele><time>2023-05-22T18:21:21Z</time></trkpt>
<trkpt lat="44.221333" lon="-76.622245"><ele>37.0</ele><time>2023-05-22T18:21:22Z</time></trkpt>
<trkpt lat="44.221339" lon="-76.622227"><ele>37.0</ele><time>2023-05-22T18:21:23Z</time></trkpt>
<trkpt lat="44.221349" lon="-76.622218"><ele>37.0</ele><time>2023-05-22T18:21:24Z</time></trkpt>
<trkpt lat="44.221356" lon="-76.622209"><ele>37.0</ele><time>2023-05-22T18:21:25Z</time></trkpt>
<trkpt lat="44.221362" lon="-76.6222"><ele>37.0</ele><time>2023-05-22T18:21:26Z</time></trkpt>
<trkpt lat="44.221368" lon="-76.622191"><ele>37.0</ele><time>2023-05-22T18:21:27Z</time></trkpt>
<trkpt lat="44.221378" lon="-76.622182"><ele>37.0</ele><time>2023-05-22T18:21:28Z</time></trkpt>
<trkpt lat="44.221385" lon="-76.622173"><ele>37.0</ele><time>2023-05-22T18:21:29Z</time></trkpt>
<trkpt lat="44.221391" lon="-76.622164"><ele>37.0</ele><time>2023-05-22T18:21:30Z</time></trkpt>
<trkpt lat="44.221398" lon="-76.622155"><ele>37.0</ele><time>2023-05-22T18:21:31Z</time></trkpt>
<trkpt lat="44.221514" lon="-76.621948"><ele>32.0</ele><time>2023-05-22T18:21:52Z</time></trkpt>
<trkpt lat="44.221517" lon="-76.62193"><ele>35.0</ele><time>2023-05-22T18:21:53Z</time></trkpt>
<trkpt lat="44.221511" lon="-76.62193"><ele>37.0</ele><time>2023-05-22T18:21:54Z</time></trkpt>
<trkpt lat="44.221507" lon="-76.62193"><ele>37.0</ele><time>2023-05-22T18:21:55Z</time></trkpt>
<trkpt lat="44.221507" lon="-76.621921"><ele>37.0</ele><time>2023-05-22T18:21:56Z</time></trkpt>
<trkpt lat="44.221511" lon="-76.621912"><ele>37.0</ele><time>2023-05-22T18:21:57Z</time></trkpt>
<trkpt lat="44.221769" lon="-76.621463"><ele>38.0</ele><time>2023-05-22T18:22:59Z</time></trkpt>
<trkpt lat="44.221779" lon="-76.621427"><ele>33.0</ele><time>2023-05-22T18:23:00Z</time></trkpt>
<trkpt lat="44.221775" lon="-76.621418"><ele>32.0</ele><time>2023-05-22T18:23:01Z</time></trkpt>
<trkpt lat="44.221775" lon="-76.621418"><ele>33.0</ele><time>2023-05-22T18:23:02Z</time></trkpt>
<trkpt lat="44.221775" lon="-76.6214"><ele>34.0</ele><time>2023-05-22T18:23:03Z</time></trkpt>
<trkpt lat="44.221775" lon="-76.621391"><ele>35.0</ele><time>2023-05-22T18:23:04Z</time></trkpt>
<trkpt lat="44.221775" lon="-76.621391"><ele>35.0</ele><time>2023-05-22T18:23:40Z</time></trkpt>
<trkpt lat="44.221775" lon="-76.621391"><ele>35.0</ele><time>2023-05-22T18:23:41Z</time></trkpt>
<trkpt lat="44.221775" lon="-76.621391"><ele>35.0</ele><time>2023-05-22T18:23:42Z</time></trkpt>
<trkpt lat="44.221775" lon="-76.621391"><ele>35.0</ele><time>2023-05-22T18:23:43Z</time></trkpt>
<trkpt lat="44.221827" lon="-76.620924"><ele>57.0</ele><time>2023-05-22T18:23:44Z</time></trkpt>
<trkpt lat="44.221863" lon="-76.621059"><ele>39.0</ele><time>2023-05-22T18:23:45Z</time></trkpt>
<trkpt lat="44.221872" lon="-76.621059"><ele>39.0</ele><time>2023-05-22T18:23:46Z</time></trkpt>
<trkpt lat="44.221876" lon="-76.62105"><ele>39.0</ele><time>2023-05-22T18:23:47Z</time></trkpt>
<trkpt lat="44.221879" lon="-76.62105"><ele>39.0</ele><time>2023-05-22T18:23:48Z</time></trkpt>
<trkpt lat="44.221879" lon="-76.621041"><ele>38.0</ele><time>2023-05-22T18:23:49Z</time></trkpt>
<trkpt lat="44.221882" lon="-76.621032"><ele>38.0</ele><time>2023-05-22T18:23:50Z</time></trkpt>
<trkpt lat="44.221889" lon="-76.621032"><ele>38.0</ele><time>2023-05-22T18:23:51Z</time></trkpt>
<trkpt lat="44.221892" lon="-76.621023"><ele>38.0</ele><time>2023-05-22T18:23:52Z</time></trkpt>
<trkpt lat="44.221898" lon="-76.621014"><ele>38.0</ele><time>2023-05-22T18:23:53Z</time></trkpt>
<trkpt lat="44.221901" lon="-76.621014"><ele>38.0</ele><time>2023-05-22T18:23:54Z</time></trkpt>
<trkpt lat="44.221908" lon="-76.621014"><ele>37.0</ele><time>2023-05-22T18:23:55Z</time></trkpt>
<trkpt lat="44.221914" lon="-76.621005"><ele>37.0</ele><time>2023-05-22T18:23:56Z</time></trkpt>
<trkpt lat="44.221921" lon="-76.621005"><ele>37.0</ele><time>2023-05-22T18:23:57Z</time></trkpt>
<trkpt lat="44.221927" lon="-76.621005"><ele>37.0</ele><time>2023-05-22T18:23:58Z</time></trkpt>
<trkpt lat="44.221934" lon="-76.621005"><ele>37.0</ele><time>2023-05-22T18:23:59Z</time></trkpt>
<trkpt lat="44.221937" lon="-76.621014"><ele>37.0</ele><time>2023-05-22T18:24:00Z</time></trkpt>
<trkpt lat="44.221943" lon="-76.621014"><ele>37.0</ele><time>2023-05-22T18:24:01Z</time></trkpt>
<trkpt lat="44.22195" lon="-76.621023"><ele>37.0</ele><time>2023-05-22T18:24:02Z</time></trkpt>
<trkpt lat="44.221953" lon="-76.621023"><ele>37.0</ele><time>2023-05-22T18:24:03Z</time></trkpt>
<trkpt lat="44.22196" lon="-76.621032"><ele>37.0</ele><time>2023-05-22T18:24:04Z</time></trkpt>
<trkpt lat="44.221966" lon="-76.621032"><ele>37.0</ele><time>2023-05-22T18:24:05Z</time></trkpt>
<trkpt lat="44.221969" lon="-76.621041"><ele>37.0</ele><time>2023-05-22T18:24:06Z</time></trkpt>
<trkpt lat="44.221976" lon="-76.62105"><ele>37.0</ele><time>2023-05-22T18:24:07Z</time></trkpt>
<trkpt lat="44.221982" lon="-76.621059"><ele>37.0</ele><time>2023-05-22T18:24:08Z</time></trkpt>
<trkpt lat="44.221985" lon="-76.621059"><ele>37.0</ele><time>2023-05-22T18:24:09Z</time></trkpt>
<trkpt lat="44.221992" lon="-76.621068"><ele>37.0</ele><time>2023-05-22T18:24:10Z</time></trkpt>
<trkpt lat="44.221998" lon="-76.621077"><ele>37.0</ele><time>2023-05-22T18:24:11Z</time></trkpt>
<trkpt lat="44.222002" lon="-76.621077"><ele>37.0</ele><time>2023-05-22T18:24:12Z</time></trkpt>
<trkpt lat="44.222008" lon="-76.621086"><ele>37.0</ele><time>2023-05-22T18:24:13Z</time></trkpt>
<trkpt lat="44.222014" lon="-76.621095"><ele>37.0</ele><time>2023-05-22T18:24:14Z</time></trkpt>
<trkpt lat="44.222021" lon="-76.621095"><ele>37.0</ele><time>2023-05-22T18:24:15Z</time></trkpt>
<trkpt lat="44.222027" lon="-76.621104"><ele>37.0</ele><time>2023-05-22T18:24:16Z</time></trkpt>
<trkpt lat="44.222034" lon="-76.621104"><ele>37.0</ele><time>2023-05-22T18:24:17Z</time></trkpt>
<trkpt lat="44.22204" lon="-76.621113"><ele>37.0</ele><time>2023-05-22T18:24:18Z</time></trkpt>
<trkpt lat="44.222047" lon="-76.621113"><ele>37.0</ele><time>2023-05-22T18:24:19Z</time></trkpt>
<trkpt lat="44.222053" lon="-76.621122"><ele>36.0</ele><time>2023-05-22T18:24:20Z</time></trkpt>
<trkpt lat="44.22206" lon="-76.621122"><ele>36.0</ele><time>2023-05-22T18:24:21Z</time></trkpt>
<trkpt lat="44.222066" lon="-76.621131"><ele>37.0</ele><time>2023-05-22T18:24:22Z</time></trkpt>
<trkpt lat="44.222073" lon="-76.62114"><ele>37.0</ele><time>2023-05-22T18:24:23Z</time></trkpt>
<trkpt lat="44.222079" lon="-76.62114"><ele>37.0</ele><time>2023-05-22T18:24:24Z</time></trkpt>
<trkpt lat="44.222086" lon="-76.62114"><ele>37.0</ele><time>2023-05-22T18:24:25Z</time></trkpt>
<trkpt lat="44.222092" lon="-76.621149"><ele>37.0</ele><time>2023-05-22T18:24:26Z</time></trkpt>
<trkpt lat="44.222098" lon="-76.621149"><ele>37.0</ele><time>2023-05-22T18:24:27Z</time></trkpt>
<trkpt lat="44.222105" lon="-76.621158"><ele>37.0</ele><time>2023-05-22T18:24:28Z</time></trkpt>
<trkpt lat="44.222111" lon="-76.621158"><ele>37.0</ele><time>2023-05-22T18:24:29Z</time></trkpt>
<trkpt lat="44.222118" lon="-76.621158"><ele>37.0</ele><time>2023-05-22T18:24:30Z</time></trkpt>
<trkpt lat="44.222124" lon="-76.621167"><ele>37.0</ele><time>2023-05-22T18:24:31Z</time></trkpt>
<trkpt lat="44.222131" lon="-76.621167"><ele>37.0</ele><time>2023-05-22T18:24:32Z</time></trkpt>
<trkpt lat="44.222137" lon="-76.621176"><ele>37.0</ele><time>2023-05-22T18:24:33Z</time></trkpt>
<trkpt lat="44.222144" lon="-76.621176"><ele>37.0</ele><time>2023-05-22T18:24:34Z</time></trkpt>
<trkpt lat="44.22215" lon="-76.621176"><ele>37.0</ele><time>2023-05-22T18:24:35Z</time></trkpt>
<trkpt lat="44.222153" lon="-76.621185"><ele>37.0</ele><time>2023-05-22T18:24:36Z</time></trkpt>
<trkpt lat="44.22216" lon="-76.621185"><ele>37.0</ele><time>2023-05-22T18:24:37Z</time></trkpt>
<trkpt lat="44.222166" lon="-76.621185"><ele>37.0</ele><time>2023-05-22T18:24:38Z</time></trkpt>
<trkpt lat="44.222173" lon="-76.621194"><ele>37.0</ele><time>2023-05-22T18:24:39Z</time></trkpt>
<trkpt lat="44.222179" lon="-76.621194"><ele>37.0</ele><time>2023-05-22T18:24:40Z</time></trkpt>
<trkpt lat="44.222186" lon="-76.621194"><ele>37.0</ele><time>2023-05-22T18:24:41Z</time></trkpt>
<trkpt lat="44.222189" lon="-76.621203"><ele>37.0</ele><time>2023-05-22T18:24:42Z</time></trkpt>
<trkpt lat="44.222195" lon="-76.621203"><ele>37.0</ele><time>2023-05-22T18:24:43Z</time></trkpt>
<trkpt lat="44.222202" lon="-76.621212"><ele>37.0</ele><time>2023-05-22T18:24:44Z</time></trkpt>
<trkpt lat="44.222205" lon="-76.621212"><ele>37.0</ele><time>2023-05-22T18:24:45Z</time></trkpt>
<trkpt lat="44.222212" lon="-76.621221"><ele>37.0</ele><time>2023-05-22T18:24:46Z</time></trkpt>
<trkpt lat="44.222212" lon="-76.621221"><ele>37.0</ele><time>2023-05-22T18:28:31Z</time></trkpt>
<trkpt lat="44.222212" lon="-76.621221"><ele>37.0</ele><time>2023-05-22T18:28:32Z</time></trkpt>
<trkpt lat="44.222212" lon="-76.621221"><ele>37.0</ele><time>2023-05-22T18:28:33Z</time></trkpt>
<trkpt lat="44.224166" lon="-76.623952"><ele>41.0</ele><time>2023-05-22T18:28:35Z</time></trkpt>
<trkpt lat="44.22413" lon="-76.623988"><ele>38.0</ele><time>2023-05-22T18:28:36Z</time></trkpt>
<trkpt lat="44.224127" lon="-76.623996"><ele>37.0</ele><time>2023-05-22T18:28:37Z</time></trkpt>
<trkpt lat="44.224127" lon="-76.624014"><ele>38.0</ele><time>2023-05-22T18:28:38Z</time></trkpt>
<trkpt lat="44.22413" lon="-76.624023"><ele>38.0</ele><time>2023-05-22T18:28:39Z</time></trkpt>
<trkpt lat="44.224133" lon="-76.624041"><ele>38.0</ele><time>2023-05-22T18:28:40Z</time></trkpt>
<trkpt lat="44.22414" lon="-76.624059"><ele>38.0</ele><time>2023-05-22T18:28:41Z</time></trkpt>
<trkpt lat="44.224146" lon="-76.624068"><ele>38.0</ele><time>2023-05-22T18:28:42Z</time></trkpt>
<trkpt lat="44.224153" lon="-76.624086"><ele>37.0</ele><time>2023-05-22T18:28:43Z</time></trkpt>
<trkpt lat="44.224156" lon="-76.624104"><ele>38.0</ele><time>2023-05-22T18:28:44Z</time></trkpt>
<trkpt lat="44.224162" lon="-76.624113"><ele>38.0</ele><time>2023-05-22T18:28:45Z</time></trkpt>
<trkpt lat="44.224169" lon="-76.624131"><ele>38.0</ele><time>2023-05-22T18:28:46Z</time></trkpt>
<trkpt lat="44.224175" lon="-76.62414"><ele>38.0</ele><time>2023-05-22T18:28:47Z</time></trkpt>
<trkpt lat="44.224179" lon="-76.624149"><ele>38.0</ele><time>2023-05-22T18:28:48Z</time></trkpt>
<trkpt lat="44.224179" lon="-76.624149"><ele>38.0</ele><time>2023-05-22T18:34:57Z</time></trkpt>
<trkpt lat="44.224179" lon="-76.624149"><ele>38.0</ele><time>2023-05-22T18:34:58Z</time></trkpt>
<trkpt lat="44.224179" lon="-76.624149"><ele>38.0</ele><time>2023-05-22T18:34:59Z</time></trkpt>
<trkpt lat="44.224179" lon="-76.624149"><ele>38.0</ele><time>2023-05-22T18:35:00Z</time></trkpt>
<trkpt lat="44.225742" lon="-76.621724"><ele>51.0</ele><time>2023-05-22T18:35:01Z</time></trkpt>
<trkpt lat="44.225742" lon="-76.621688"><ele>45.0</ele><time>2023-05-22T18:35:02Z</time></trkpt>
<trkpt lat="44.225745" lon="-76.621652"><ele>35.0</ele><time>2023-05-22T18:35:03Z</time></trkpt>
<trkpt lat="44.225742" lon="-76.621652"><ele>36.0</ele><time>2023-05-22T18:35:04Z</time></trkpt>
<trkpt lat="44.225748" lon="-76.621643"><ele>37.0</ele><time>2023-05-22T18:35:05Z</time></trkpt>
<trkpt lat="44.225758" lon="-76.621625"><ele>37.0</ele><time>2023-05-22T18:35:06Z</time></trkpt>
<trkpt lat="44.225768" lon="-76.621616"><ele>38.0</ele><time>2023-05-22T18:35:07Z</time></trkpt>
<trkpt lat="44.225768" lon="-76.621598"><ele>38.0</ele><time>2023-05-22T18:35:08Z</time></trkpt>
<trkpt lat="44.225774" lon="-76.62158"><ele>38.0</ele><time>2023-05-22T18:35:09Z</time></trkpt>
<trkpt lat="44.225784" lon="-76.621571"><ele>38.0</ele><time>2023-05-22T18:35:10Z</time></trkpt>
<trkpt lat="44.22579" lon="-76.621562"><ele>38.0</ele><time>2023-05-22T18:35:11Z</time></trkpt>
<trkpt lat="44.22579" lon="-76.621562"><ele>38.0</ele><time>2023-05-22T18:38:40Z</time></trkpt>
<trkpt lat="44.22579" lon="-76.621562"><ele>38.0</ele><time>2023-05-22T18:38:41Z</time></trkpt>
<trkpt lat="44.22579" lon="-76.621562"><ele>38.0</ele><time>2023-05-22T18:38:42Z</time></trkpt>
<trkpt lat="44.22579" lon="-76.621562"><ele>38.0</ele><time>2023-05-22T18:38:43Z</time></trkpt>
<trkpt lat="44.22579" lon="-76.621562"><ele>38.0</ele><time>2023-05-22T18:38:43Z</time></trkpt>
<trkpt lat="44.226455" lon="-76.62026"><ele>36.0</ele><time>2023-05-22T18:38:45Z</time></trkpt>
<trkpt lat="44.226417" lon="-76.620287"><ele>32.0</ele><time>2023-05-22T18:38:46Z</time></trkpt>
<trkpt lat="44.226446" lon="-76.620287"><ele>34.0</ele><time>2023-05-22T18:38:47Z</time></trkpt>
<trkpt lat="44.226462" lon="-76.620296"><ele>36.0</ele><time>2023-05-22T18:38:48Z</time></trkpt>
<trkpt lat="44.226475" lon="-76.620305"><ele>36.0</ele><time>2023-05-22T18:38:49Z</time></trkpt>
<trkpt lat="44.226481" lon="-76.620323"><ele>36.0</ele><time>2023-05-22T18:38:50Z</time></trkpt>
<trkpt lat="44.226488" lon="-76.62034"><ele>36.0</ele><time>2023-05-22T18:38:51Z</time></trkpt>
<trkpt lat="44.226494" lon="-76.620358"><ele>36.0</ele><time>2023-05-22T18:38:52Z</time></trkpt>
<trkpt lat="44.226504" lon="-76.620376"><ele>36.0</ele><time>2023-05-22T18:38:53Z</time></trkpt>
<trkpt lat="44.226514" lon="-76.620394"><ele>37.0</ele><time>2023-05-22T18:38:54Z</time></trkpt>
<trkpt lat="44.22652" lon="-76.620412"><ele>37.0</ele><time>2023-05-22T18:38:55Z</time></trkpt>
<trkpt lat="44.226527" lon="-76.62043"><ele>37.0</ele><time>2023-05-22T18:38:56Z</time></trkpt>
<trkpt lat="44.226533" lon="-76.620448"><ele>37.0</ele><time>2023-05-22T18:38:57Z</time></trkpt>
<trkpt lat="44.226543" lon="-76.620466"><ele>37.0</ele><time>2023-05-22T18:38:58Z</time></trkpt>
<trkpt lat="44.226549" lon="-76.620484"><ele>37.0</ele><time>2023-05-22T18:38:59Z</time></trkpt>
<trkpt lat="44.226556" lon="-76.620511"><ele>37.0</ele><time>2023-05-22T18:39:00Z</time></trkpt>
<trkpt lat="44.226562" lon="-76.620529"><ele>37.0</ele><time>2023-05-22T18:39:01Z</time></trkpt>
<trkpt lat="44.226572" lon="-76.620547"><ele>37.0</ele><time>2023-05-22T18:39:02Z</time></trkpt>
<trkpt lat="44.226581" lon="-76.620565"><ele>37.0</ele><time>2023-05-22T18:39:03Z</time></trkpt>
<trkpt lat="44.226588" lon="-76.620583"><ele>37.0</ele><time>2023-05-22T18:39:04Z</time></trkpt>
<trkpt lat="44.226598" lon="-76.620601"><ele>37.0</ele><time>2023-05-22T18:39:05Z</time></trkpt>
<trkpt lat="44.226607" lon="-76.620619"><ele>37.0</ele><time>2023-05-22T18:39:06Z</time></trkpt>
<trkpt lat="44.226617" lon="-76.620637"><ele>37.0</ele><time>2023-05-22T18:39:07Z</time></trkpt>
<trkpt lat="44.226623" lon="-76.620655"><ele>37.0</ele><time>2023-05-22T18:39:08Z</time></trkpt>
<trkpt lat="44.22663" lon="-76.620682"><ele>37.0</ele><time>2023-05-22T18:39:09Z</time></trkpt>
<trkpt lat="44.22664" lon="-76.6207"><ele>38.0</ele><time>2023-05-22T18:39:10Z</time></trkpt>
<trkpt lat="44.226646" lon="-76.620718"><ele>37.0</ele><time>2023-05-22T18:39:11Z</time></trkpt>
<trkpt lat="44.226656" lon="-76.620736"><ele>37.0</ele><time>2023-05-22T18:39:12Z</time></trkpt>
<trkpt lat="44.226665" lon="-76.620745"><ele>37.0</ele><time>2023-05-22T18:39:13Z</time></trkpt>
<trkpt lat="44.226672" lon="-76.620763"><ele>37.0</ele><time>2023-05-22T18:39:14Z</time></trkpt>
<trkpt lat="44.226682" lon="-76.620781"><ele>38.0</ele><time>2023-05-22T18:39:15Z</time></trkpt>
<trkpt lat="44.226691" lon="-76.620799"><ele>38.0</ele><time>2023-05-22T18:39:16Z</time></trkpt>
<trkpt lat="44.226698" lon="-76.620817"><ele>38.0</ele><time>2023-05-22T18:39:17Z</time></trkpt>
<trkpt lat="44.226704" lon="-76.620835"><ele>38.0</ele><time>2023-05-22T18:39:18Z</time></trkpt>
<trkpt lat="44.226711" lon="-76.620853"><ele>38.0</ele><time>2023-05-22T18:39:19Z</time></trkpt>
<trkpt lat="44.226714" lon="-76.62087"><ele>38.0</ele><time>2023-05-22T18:39:20Z</time></trkpt>
<trkpt lat="44.22672" lon="-76.620897"><ele>37.0</ele><time>2023-05-22T18:39:21Z</time></trkpt>
<trkpt lat="44.226727" lon="-76.620906"><ele>38.0</ele><time>2023-05-22T18:39:22Z</time></trkpt>
<trkpt lat="44.226733" lon="-76.620924"><ele>37.0</ele><time>2023-05-22T18:39:23Z</time></trkpt>
<trkpt lat="44.22674" lon="-76.620933"><ele>37.0</ele><time>2023-05-22T18:39:24Z</time></trkpt>
<trkpt lat="44.226753" lon="-76.620942"><ele>36.0</ele><time>2023-05-22T18:39:26Z</time></trkpt>
<trkpt lat="44.226762" lon="-76.620942"><ele>36.0</ele><time>2023-05-22T18:39:26Z</time></trkpt>
<trkpt lat="44.226775" lon="-76.620951"><ele>36.0</ele><time>2023-05-22T18:39:27Z</time></trkpt>
<trkpt lat="44.226778" lon="-76.620978"><ele>35.0</ele><time>2023-05-22T18:39:28Z</time></trkpt>
<trkpt lat="44.226785" lon="-76.620996"><ele>36.0</ele><time>2023-05-22T18:39:29Z</time></trkpt>
<trkpt lat="44.226788" lon="-76.621023"><ele>35.0</ele><time>2023-05-22T18:39:30Z</time></trkpt>
<trkpt lat="44.226791" lon="-76.621041"><ele>36.0</ele><time>2023-05-22T18:39:31Z</time></trkpt>
<trkpt lat="44.226795" lon="-76.621059"><ele>37.0</ele><time>2023-05-22T18:39:32Z</time></trkpt>
<trkpt lat="44.226798" lon="-76.621077"><ele>37.0</ele><time>2023-05-22T18:39:33Z</time></trkpt>
<trkpt lat="44.226798" lon="-76.621077"><ele>37.0</ele><time>2023-05-22T18:46:46Z</time></trkpt>
<trkpt lat="44.226798" lon="-76.621077"><ele>37.0</ele><time>2023-05-22T18:46:47Z</time></trkpt>
<trkpt lat="44.226798" lon="-76.621077"><ele>37.0</ele><time>2023-05-22T18:46:48Z</time></trkpt>
<trkpt lat="44.226798" lon="-76.621077"><ele>37.0</ele><time>2023-05-22T18:46:49Z</time></trkpt>
<trkpt lat="44.229801" lon="-76.620062"><ele>33.0</ele><time>2023-05-22T18:46:50Z</time></trkpt>
<trkpt lat="44.229792" lon="-76.620206"><ele>52.0</ele><time>2023-05-22T18:46:50Z</time></trkpt>
<trkpt lat="44.22985" lon="-76.620134"><ele>19.0</ele><time>2023-05-22T18:46:51Z</time></trkpt>
<trkpt lat="44.229843" lon="-76.620125"><ele>31.0</ele><time>2023-05-22T18:46:52Z</time></trkpt>
<trkpt lat="44.22983" lon="-76.620098"><ele>32.0</ele><time>2023-05-22T18:46:53Z</time></trkpt>
<trkpt lat="44.229824" lon="-76.620044"><ele>34.0</ele><time>2023-05-22T18:46:54Z</time></trkpt>
<trkpt lat="44.229824" lon="-76.620017"><ele>35.0</ele><time>2023-05-22T18:46:55Z</time></trkpt>
<trkpt lat="44.229827" lon="-76.619999"><ele>35.0</ele><time>2023-05-22T18:46:56Z</time></trkpt>
<trkpt lat="44.229837" lon="-76.619972"><ele>35.0</ele><time>2023-05-22T18:46:57Z</time></trkpt>
<trkpt lat="44.22984" lon="-76.619963"><ele>35.0</ele><time>2023-05-22T18:46:58Z</time></trkpt>
<trkpt lat="44.229847" lon="-76.619936"><ele>35.0</ele><time>2023-05-22T18:46:59Z</time></trkpt>
<trkpt lat="44.229856" lon="-76.619918"><ele>36.0</ele><time>2023-05-22T18:47:00Z</time></trkpt>
<trkpt lat="44.229866" lon="-76.6199"><ele>35.0</ele><time>2023-05-22T18:47:01Z</time></trkpt>
<trkpt lat="44.229872" lon="-76.619873"><ele>35.0</ele><time>2023-05-22T18:47:02Z</time></trkpt>
<trkpt lat="44.229882" lon="-76.619855"><ele>35.0</ele><time>2023-05-22T18:47:03Z</time></trkpt>
<trkpt lat="44.229895" lon="-76.619837"><ele>35.0</ele><time>2023-05-22T18:47:04Z</time></trkpt>
<trkpt lat="44.229908" lon="-76.619828"><ele>36.0</ele><time>2023-05-22T18:47:05Z</time></trkpt>
<trkpt lat="44.229921" lon="-76.619819"><ele>36.0</ele><time>2023-05-22T18:47:06Z</time></trkpt>
<trkpt lat="44.229934" lon="-76.619802"><ele>36.0</ele><time>2023-05-22T18:47:07Z</time></trkpt>
<trkpt lat="44.229943" lon="-76.619784"><ele>36.0</ele><time>2023-05-22T18:47:08Z</time></trkpt>
<trkpt lat="44.229956" lon="-76.619775"><ele>36.0</ele><time>2023-05-22T18:47:09Z</time></trkpt>
<trkpt lat="44.229966" lon="-76.619757"><ele>36.0</ele><time>2023-05-22T18:47:10Z</time></trkpt>
<trkpt lat="44.229979" lon="-76.619739"><ele>36.0</ele><time>2023-05-22T18:47:11Z</time></trkpt>
<trkpt lat="44.229992" lon="-76.619721"><ele>36.0</ele><time>2023-05-22T18:47:12Z</time></trkpt>
<trkpt lat="44.230357" lon="-76.620215"><ele>39.0</ele><time>2023-05-22T18:48:24Z</time></trkpt>
<trkpt lat="44.230354" lon="-76.620224"><ele>40.0</ele><time>2023-05-22T18:48:25Z</time></trkpt>
<trkpt lat="44.230354" lon="-76.620224"><ele>40.0</ele><time>2023-05-22T18:48:25Z</time></trkpt>
<trkpt lat="44.230357" lon="-76.620224"><ele>40.0</ele><time>2023-05-22T18:48:26Z</time></trkpt>
<trkpt lat="44.23036" lon="-76.620233"><ele>39.0</ele><time>2023-05-22T18:48:27Z</time></trkpt>
<trkpt lat="44.230366" lon="-76.620251"><ele>38.0</ele><time>2023-05-22T18:48:28Z</time></trkpt>
<trkpt lat="44.23037" lon="-76.620269"><ele>39.0</ele><time>2023-05-22T18:48:29Z</time></trkpt>
<trkpt lat="44.230373" lon="-76.620278"><ele>38.0</ele><time>2023-05-22T18:48:30Z</time></trkpt>
<trkpt lat="44.230376" lon="-76.620287"><ele>38.0</ele><time>2023-05-22T18:48:31Z</time></trkpt>
<trkpt lat="44.230379" lon="-76.620305"><ele>39.0</ele><time>2023-05-22T18:48:32Z</time></trkpt>
<trkpt lat="44.230383" lon="-76.620314"><ele>39.0</ele><time>2023-05-22T18:48:33Z</time></trkpt>
<trkpt lat="44.230383" lon="-76.620323"><ele>38.0</ele><time>2023-05-22T18:48:34Z</time></trkpt>
<trkpt lat="44.230386" lon="-76.62034"><ele>38.0</ele><time>2023-05-22T18:48:35Z</time></trkpt>
<trkpt lat="44.230389" lon="-76.620349"><ele>38.0</ele><time>2023-05-22T18:48:36Z</time></trkpt>
<trkpt lat="44.230392" lon="-76.620367"><ele>38.0</ele><time>2023-05-22T18:48:37Z</time></trkpt>
<trkpt lat="44.230396" lon="-76.620376"><ele>38.0</ele><time>2023-05-22T18:48:38Z</time></trkpt>
<trkpt lat="44.230399" lon="-76.620385"><ele>38.0</ele><time>2023-05-22T18:48:39Z</time></trkpt>
<trkpt lat="44.230405" lon="-76.620403"><ele>38.0</ele><time>2023-05-22T18:48:40Z</time></trkpt>
<trkpt lat="44.230405" lon="-76.620403"><ele>38.0</ele><time>2023-05-22T18:48:41Z</time></trkpt>
<trkpt lat="44.230408" lon="-76.620421"><ele>38.0</ele><time>2023-05-22T18:48:42Z</time></trkpt>
<trkpt lat="44.230412" lon="-76.62043"><ele>38.0</ele><time>2023-05-22T18:48:43Z</time></trkpt>
<trkpt lat="44.230415" lon="-76.620439"><ele>38.0</ele><time>2023-05-22T18:48:44Z</time></trkpt>
<trkpt lat="44.230418" lon="-76.620448"><ele>38.0</ele><time>2023-05-22T18:48:45Z</time></trkpt>
<trkpt lat="44.230425" lon="-76.620466"><ele>37.0</ele><time>2023-05-22T18:48:46Z</time></trkpt>
<trkpt lat="44.230425" lon="-76.620466"><ele>37.0</ele><time>2023-05-22T19:21:38Z</time></trkpt>
<trkpt lat="44.230425" lon="-76.620466"><ele>37.0</ele><time>2023-05-22T19:21:39Z</time></trkpt>
<trkpt lat="44.230425" lon="-76.620466"><ele>37.0</ele><time>2023-05-22T19:21:40Z</time></trkpt>
<trkpt lat="44.230425" lon="-76.620466"><ele>37.0</ele><time>2023-05-22T19:21:41Z</time></trkpt>
<trkpt lat="44.230425" lon="-76.620466"><ele>37.0</ele><time>2023-05-22T19:21:42Z</time></trkpt>
<trkpt lat="44.230425" lon="-76.620466"><ele>37.0</ele><time>2023-05-22T19:21:43Z</time></trkpt>
<trkpt lat="44.230425" lon="-76.620466"><ele>37.0</ele><time>2023-05-22T19:21:44Z</time></trkpt>
<trkpt lat="44.230425" lon="-76.620466"><ele>37.0</ele><time>2023-05-22T19:21:44Z</time></trkpt>
<trkpt lat="44.239692" lon="-76.603174"><ele>43.0</ele><time>2023-05-22T19:21:46Z</time></trkpt>
<trkpt lat="44.239692" lon="-76.603183"><ele>46.0</ele><time>2023-05-22T19:21:47Z</time></trkpt>
</trkseg></trk></gpx>
