<?xml version="1.0" encoding="UTF-8"?> <gpx xmlns:xsi="http://www.w3.org/2001/XMLSchema-instance" version="1.1" xmlns="http://www.topografix.com/GPX/1/1" creator="Galileo Offline Maps" xsi:schemaLocation="http://www.topografix.com/GPX/1/1 http://www.topografix.com/GPX/1/1/gpx.xsd"><trk><name>Untitled Track</name><desc></desc><type>TrackStyle_ff7f00c8</type><trkseg>
<trkpt lat="45.353611" lon="-75.82651"><ele>30.0</ele><time>2024-06-15T15:38:30Z</time></trkpt>
<trkpt lat="45.353605" lon="-75.826483"><ele>29.0</ele><time>2024-06-15T15:38:31Z</time></trkpt>
<trkpt lat="45.353614" lon="-75.826456"><ele>28.0</ele><time>2024-06-15T15:38:32Z</time></trkpt>
<trkpt lat="45.35363" lon="-75.826438"><ele>27.0</ele><time>2024-06-15T15:38:33Z</time></trkpt>
<trkpt lat="45.353627" lon="-75.82642"><ele>28.0</ele><time>2024-06-15T15:38:34Z</time></trkpt>
<trkpt lat="45.353618" lon="-75.826402"><ele>28.0</ele><time>2024-06-15T15:38:35Z</time></trkpt>
<trkpt lat="45.353608" lon="-75.826384"><ele>28.0</ele><time>2024-06-15T15:38:36Z</time></trkpt>
<trkpt lat="45.353602" lon="-75.826366"><ele>28.0</ele><time>2024-06-15T15:38:37Z</time></trkpt>
<trkpt lat="45.353595" lon="-75.826348"><ele>28.0</ele><time>2024-06-15T15:38:38Z</time></trkpt>
<trkpt lat="45.353589" lon="-75.82633"><ele>28.0</ele><time>2024-06-15T15:38:39Z</time></trkpt>
<trkpt lat="45.353583" lon="-75.826312"><ele>28.0</ele><time>2024-06-15T15:38:40Z</time></trkpt>
<trkpt lat="45.35358" lon="-75.826294"><ele>28.0</ele><time>2024-06-15T15:38:41Z</time></trkpt>
<trkpt lat="45.353573" lon="-75.826276"><ele>28.0</ele><time>2024-06-15T15:38:42Z</time></trkpt>
<trkpt lat="45.353567" lon="-75.826258"><ele>28.0</ele><time>2024-06-15T15:38:43Z</time></trkpt>
<trkpt lat="45.353561" lon="-75.826231"><ele>28.0</ele><time>2024-06-15T15:38:44Z</time></trkpt>
<trkpt lat="45.353554" lon="-75.826213"><ele>28.0</ele><time>2024-06-15T15:38:45Z</time></trkpt>
<trkpt lat="45.353551" lon="-75.826195"><ele>28.0</ele><time>2024-06-15T15:38:46Z</time></trkpt>
<trkpt lat="45.353545" lon="-75.826177"><ele>28.0</ele><time>2024-06-15T15:38:47Z</time></trkpt>
<trkpt lat="45.353538" lon="-75.826159"><ele>28.0</ele><time>2024-06-15T15:38:48Z</time></trkpt>
<trkpt lat="45.353532" lon="-75.826141"><ele>28.0</ele><time>2024-06-15T15:38:49Z</time></trkpt>
<trkpt lat="45.353526" lon="-75.826123"><ele>28.0</ele><time>2024-06-15T15:38:50Z</time></trkpt>
<trkpt lat="45.353523" lon="-75.826106"><ele>28.0</ele><time>2024-06-15T15:38:51Z</time></trkpt>
<trkpt lat="45.353516" lon="-75.826079"><ele>28.0</ele><time>2024-06-15T15:38:52Z</time></trkpt>
<trkpt lat="45.35351" lon="-75.82607"><ele>28.0</ele><time>2024-06-15T15:38:53Z</time></trkpt>
<trkpt lat="45.353504" lon="-75.826052"><ele>28.0</ele><time>2024-06-15T15:38:54Z</time></trkpt>
<trkpt lat="45.353497" lon="-75.826034"><ele>28.0</ele><time>2024-06-15T15:38:55Z</time></trkpt>
<trkpt lat="45.353491" lon="-75.826016"><ele>28.0</ele><time>2024-06-15T15:38:56Z</time></trkpt>
<trkpt lat="45.353485" lon="-75.826007"><ele>28.0</ele><time>2024-06-15T15:38:57Z</time></trkpt>
<trkpt lat="45.353478" lon="-75.825989"><ele>27.0</ele><time>2024-06-15T15:38:58Z</time></trkpt>
<trkpt lat="45.353469" lon="-75.825962"><ele>28.0</ele><time>2024-06-15T15:38:59Z</time></trkpt>
<trkpt lat="45.353466" lon="-75.825944"><ele>28.0</ele><time>2024-06-15T15:39:00Z</time></trkpt>
<trkpt lat="45.353459" lon="-75.825926"><ele>28.0</ele><time>2024-06-15T15:39:01Z</time></trkpt>
<trkpt lat="45.353456" lon="-75.825908"><ele>28.0</ele><time>2024-06-15T15:39:02Z</time></trkpt>
<trkpt lat="45.35345" lon="-75.82589"><ele>28.0</ele><time>2024-06-15T15:39:03Z</time></trkpt>
<trkpt lat="45.353443" lon="-75.825872"><ele>28.0</ele><time>2024-06-15T15:39:04Z</time></trkpt>
<trkpt lat="45.353437" lon="-75.825854"><ele>28.0</ele><time>2024-06-15T15:39:05Z</time></trkpt>
<trkpt lat="45.353431" lon="-75.825836"><ele>28.0</ele><time>2024-06-15T15:39:06Z</time></trkpt>
<trkpt lat="45.353421" lon="-75.825809"><ele>28.0</ele><time>2024-06-15T15:39:07Z</time></trkpt>
<trkpt lat="45.353415" lon="-75.825791"><ele>28.0</ele><time>2024-06-15T15:39:08Z</time></trkpt>
<trkpt lat="45.353405" lon="-75.825773"><ele>28.0</ele><time>2024-06-15T15:39:09Z</time></trkpt>
<trkpt lat="45.353399" lon="-75.825746"><ele>29.0</ele><time>2024-06-15T15:39:10Z</time></trkpt>
<trkpt lat="45.35339" lon="-75.825728"><ele>28.0</ele><time>2024-06-15T15:39:11Z</time></trkpt>
<trkpt lat="45.353383" lon="-75.825701"><ele>29.0</ele><time>2024-06-15T15:39:12Z</time></trkpt>
<trkpt lat="45.353377" lon="-75.825683"><ele>29.0</ele><time>2024-06-15T15:39:13Z</time></trkpt>
<trkpt lat="45.353371" lon="-75.825656"><ele>29.0</ele><time>2024-06-15T15:39:14Z</time></trkpt>
<trkpt lat="45.353364" lon="-75.825638"><ele>29.0</ele><time>2024-06-15T15:39:15Z</time></trkpt>
<trkpt lat="45.353358" lon="-75.82562"><ele>29.0</ele><time>2024-06-15T15:39:16Z</time></trkpt>
<trkpt lat="45.353348" lon="-75.825593"><ele>29.0</ele><time>2024-06-15T15:39:17Z</time></trkpt>
<trkpt lat="45.353342" lon="-75.825576"><ele>28.0</ele><time>2024-06-15T15:39:18Z</time></trkpt>
<trkpt lat="45.353336" lon="-75.825558"><ele>28.0</ele><time>2024-06-15T15:39:19Z</time></trkpt>
<trkpt lat="45.353329" lon="-75.825531"><ele>28.0</ele><time>2024-06-15T15:39:20Z</time></trkpt>
<trkpt lat="45.35332" lon="-75.825513"><ele>29.0</ele><time>2024-06-15T15:39:21Z</time></trkpt>
<trkpt lat="45.353314" lon="-75.825486"><ele>28.0</ele><time>2024-06-15T15:39:22Z</time></trkpt>
<trkpt lat="45.353307" lon="-75.825468"><ele>28.0</ele><time>2024-06-15T15:39:23Z</time></trkpt>
<trkpt lat="45.353301" lon="-75.82545"><ele>28.0</ele><time>2024-06-15T15:39:24Z</time></trkpt>
<trkpt lat="45.353295" lon="-75.825423"><ele>29.0</ele><time>2024-06-15T15:39:25Z</time></trkpt>
<trkpt lat="45.353285" lon="-75.825405"><ele>29.0</ele><time>2024-06-15T15:39:26Z</time></trkpt>
<trkpt lat="45.353279" lon="-75.825378"><ele>29.0</ele><time>2024-06-15T15:39:27Z</time></trkpt>
<trkpt lat="45.353272" lon="-75.82536"><ele>29.0</ele><time>2024-06-15T15:39:28Z</time></trkpt>
<trkpt lat="45.353266" lon="-75.825342"><ele>29.0</ele><time>2024-06-15T15:39:29Z</time></trkpt>
<trkpt lat="45.353257" lon="-75.825315"><ele>29.0</ele><time>2024-06-15T15:39:30Z</time></trkpt>
<trkpt lat="45.35325" lon="-75.825288"><ele>29.0</ele><time>2024-06-15T15:39:31Z</time></trkpt>
<trkpt lat="45.353241" lon="-75.825261"><ele>29.0</ele><time>2024-06-15T15:39:32Z</time></trkpt>
<trkpt lat="45.353234" lon="-75.825243"><ele>29.0</ele><time>2024-06-15T15:39:33Z</time></trkpt>
<trkpt lat="45.353228" lon="-75.825225"><ele>29.0</ele><time>2024-06-15T15:39:34Z</time></trkpt>
<trkpt lat="45.353222" lon="-75.825198"><ele>29.0</ele><time>2024-06-15T15:39:35Z</time></trkpt>
<trkpt lat="45.353215" lon="-75.82518"><ele>29.0</ele><time>2024-06-15T15:39:36Z</time></trkpt>
<trkpt lat="45.353209" lon="-75.825162"><ele>29.0</ele><time>2024-06-15T15:39:37Z</time></trkpt>
<trkpt lat="45.3532" lon="-75.825135"><ele>29.0</ele><time>2024-06-15T15:39:38Z</time></trkpt>
<trkpt lat="45.353193" lon="-75.825117"><ele>29.0</ele><time>2024-06-15T15:39:39Z</time></trkpt>
<trkpt lat="45.353187" lon="-75.825099"><ele>29.0</ele><time>2024-06-15T15:39:40Z</time></trkpt>
<trkpt lat="45.353177" lon="-75.825072"><ele>29.0</ele><time>2024-06-15T15:39:41Z</time></trkpt>
<trkpt lat="45.353171" lon="-75.825055"><ele>29.0</ele><time>2024-06-15T15:39:42Z</time></trkpt>
<trkpt lat="45.353165" lon="-75.825028"><ele>29.0</ele><time>2024-06-15T15:39:43Z</time></trkpt>
<trkpt lat="45.353155" lon="-75.82501"><ele>29.0</ele><time>2024-06-15T15:39:44Z</time></trkpt>
<trkpt lat="45.353149" lon="-75.824983"><ele>29.0</ele><time>2024-06-15T15:39:45Z</time></trkpt>
<trkpt lat="45.353143" lon="-75.824965"><ele>29.0</ele><time>2024-06-15T15:39:46Z</time></trkpt>
<trkpt lat="45.353133" lon="-75.824947"><ele>29.0</ele><time>2024-06-15T15:39:47Z</time></trkpt>
<trkpt lat="45.353127" lon="-75.82492"><ele>29.0</ele><time>2024-06-15T15:39:48Z</time></trkpt>
<trkpt lat="45.35312" lon="-75.824902"><ele>29.0</ele><time>2024-06-15T15:39:49Z</time></trkpt>
<trkpt lat="45.353114" lon="-75.824875"><ele>29.0</ele><time>2024-06-15T15:39:50Z</time></trkpt>
<trkpt lat="45.353108" lon="-75.824857"><ele>29.0</ele><time>2024-06-15T15:39:51Z</time></trkpt>
<trkpt lat="45.353101" lon="-75.82483"><ele>29.0</ele><time>2024-06-15T15:39:52Z</time></trkpt>
<trkpt lat="45.353095" lon="-75.824812"><ele>29.0</ele><time>2024-06-15T15:39:53Z</time></trkpt>
<trkpt lat="45.353086" lon="-75.824785"><ele>29.0</ele><time>2024-06-15T15:39:54Z</time></trkpt>
<trkpt lat="45.353079" lon="-75.824767"><ele>29.0</ele><time>2024-06-15T15:39:55Z</time></trkpt>
<trkpt lat="45.353076" lon="-75.82474"><ele>29.0</ele><time>2024-06-15T15:39:56Z</time></trkpt>
<trkpt lat="45.35307" lon="-75.824722"><ele>29.0</ele><time>2024-06-15T15:39:57Z</time></trkpt>
<trkpt lat="45.353067" lon="-75.824695"><ele>29.0</ele><time>2024-06-15T15:39:58Z</time></trkpt>
<trkpt lat="45.35306" lon="-75.824668"><ele>29.0</ele><time>2024-06-15T15:39:59Z</time></trkpt>
<trkpt lat="45.353057" lon="-75.82465"><ele>29.0</ele><time>2024-06-15T15:40:00Z</time></trkpt>
<trkpt lat="45.353051" lon="-75.824623"><ele>29.0</ele><time>2024-06-15T15:40:01Z</time></trkpt>
<trkpt lat="45.353044" lon="-75.824596"><ele>29.0</ele><time>2024-06-15T15:40:02Z</time></trkpt>
<trkpt lat="45.353041" lon="-75.824578"><ele>29.0</ele><time>2024-06-15T15:40:03Z</time></trkpt>
<trkpt lat="45.353035" lon="-75.824551"><ele>29.0</ele><time>2024-06-15T15:40:04Z</time></trkpt>
<trkpt lat="45.353032" lon="-75.824534"><ele>29.0</ele><time>2024-06-15T15:40:05Z</time></trkpt>
<trkpt lat="45.353025" lon="-75.824507"><ele>29.0</ele><time>2024-06-15T15:40:06Z</time></trkpt>
<trkpt lat="45.353022" lon="-75.824489"><ele>29.0</ele><time>2024-06-15T15:40:07Z</time></trkpt>
<trkpt lat="45.353016" lon="-75.824462"><ele>29.0</ele><time>2024-06-15T15:40:08Z</time></trkpt>
<trkpt lat="45.353013" lon="-75.824435"><ele>29.0</ele><time>2024-06-15T15:40:09Z</time></trkpt>
<trkpt lat="45.35301" lon="-75.824417"><ele>29.0</ele><time>2024-06-15T15:40:10Z</time></trkpt>
<trkpt lat="45.353006" lon="-75.82439"><ele>29.0</ele><time>2024-06-15T15:40:11Z</time></trkpt>
<trkpt lat="45.353006" lon="-75.824372"><ele>29.0</ele><time>2024-06-15T15:40:12Z</time></trkpt>
<trkpt lat="45.353006" lon="-75.824345"><ele>29.0</ele><time>2024-06-15T15:40:13Z</time></trkpt>
<trkpt lat="45.353003" lon="-75.824318"><ele>29.0</ele><time>2024-06-15T15:40:14Z</time></trkpt>
<trkpt lat="45.353003" lon="-75.824291"><ele>29.0</ele><time>2024-06-15T15:40:15Z</time></trkpt>
<trkpt lat="45.353" lon="-75.824273"><ele>29.0</ele><time>2024-06-15T15:40:16Z</time></trkpt>
<trkpt lat="45.353" lon="-75.824246"><ele>29.0</ele><time>2024-06-15T15:40:17Z</time></trkpt>
<trkpt lat="45.352997" lon="-75.824219"><ele>29.0</ele><time>2024-06-15T15:40:18Z</time></trkpt>
<trkpt lat="45.352994" lon="-75.824201"><ele>29.0</ele><time>2024-06-15T15:40:19Z</time></trkpt>
<trkpt lat="45.352991" lon="-75.824174"><ele>29.0</ele><time>2024-06-15T15:40:20Z</time></trkpt>
<trkpt lat="45.352987" lon="-75.824156"><ele>29.0</ele><time>2024-06-15T15:40:21Z</time></trkpt>
<trkpt lat="45.352981" lon="-75.824129"><ele>29.0</ele><time>2024-06-15T15:40:22Z</time></trkpt>
<trkpt lat="45.352981" lon="-75.824111"><ele>29.0</ele><time>2024-06-15T15:40:23Z</time></trkpt>
<trkpt lat="45.352978" lon="-75.824084"><ele>29.0</ele><time>2024-06-15T15:40:24Z</time></trkpt>
<trkpt lat="45.352975" lon="-75.824057"><ele>29.0</ele><time>2024-06-15T15:40:25Z</time></trkpt>
<trkpt lat="45.352975" lon="-75.82403"><ele>29.0</ele><time>2024-06-15T15:40:26Z</time></trkpt>
<trkpt lat="45.352962" lon="-75.824013"><ele>29.0</ele><time>2024-06-15T15:40:27Z</time></trkpt>
<trkpt lat="45.352953" lon="-75.823986"><ele>29.0</ele><time>2024-06-15T15:40:28Z</time></trkpt>
<trkpt lat="45.352953" lon="-75.823959"><ele>28.0</ele><time>2024-06-15T15:40:29Z</time></trkpt>
<trkpt lat="45.352953" lon="-75.823941"><ele>28.0</ele><time>2024-06-15T15:40:30Z</time></trkpt>
<trkpt lat="45.352956" lon="-75.823914"><ele>28.0</ele><time>2024-06-15T15:40:31Z</time></trkpt>
<trkpt lat="45.352959" lon="-75.823896"><ele>27.0</ele><time>2024-06-15T15:40:32Z</time></trkpt>
<trkpt lat="45.352965" lon="-75.823869"><ele>27.0</ele><time>2024-06-15T15:40:33Z</time></trkpt>
<trkpt lat="45.352975" lon="-75.823851"><ele>27.0</ele><time>2024-06-15T15:40:34Z</time></trkpt>
<trkpt lat="45.352981" lon="-75.823824"><ele>27.0</ele><time>2024-06-15T15:40:35Z</time></trkpt>
<trkpt lat="45.352987" lon="-75.823806"><ele>27.0</ele><time>2024-06-15T15:40:36Z</time></trkpt>
<trkpt lat="45.352997" lon="-75.823788"><ele>27.0</ele><time>2024-06-15T15:40:37Z</time></trkpt>
<trkpt lat="45.353006" lon="-75.82377"><ele>27.0</ele><time>2024-06-15T15:40:38Z</time></trkpt>
<trkpt lat="45.353016" lon="-75.823752"><ele>27.0</ele><time>2024-06-15T15:40:39Z</time></trkpt>
<trkpt lat="45.353025" lon="-75.823734"><ele>27.0</ele><time>2024-06-15T15:40:40Z</time></trkpt>
<trkpt lat="45.353035" lon="-75.823716"><ele>27.0</ele><time>2024-06-15T15:40:41Z</time></trkpt>
<trkpt lat="45.353048" lon="-75.823698"><ele>27.0</ele><time>2024-06-15T15:40:42Z</time></trkpt>
<trkpt lat="45.353057" lon="-75.82368"><ele>27.0</ele><time>2024-06-15T15:40:43Z</time></trkpt>
<trkpt lat="45.353067" lon="-75.823662"><ele>27.0</ele><time>2024-06-15T15:40:44Z</time></trkpt>
<trkpt lat="45.353076" lon="-75.823644"><ele>27.0</ele><time>2024-06-15T15:40:45Z</time></trkpt>
<trkpt lat="45.353086" lon="-75.823626"><ele>27.0</ele><time>2024-06-15T15:40:46Z</time></trkpt>
<trkpt lat="45.353098" lon="-75.823608"><ele>27.0</ele><time>2024-06-15T15:40:47Z</time></trkpt>
<trkpt lat="45.353108" lon="-75.82359"><ele>28.0</ele><time>2024-06-15T15:40:48Z</time></trkpt>
<trkpt lat="45.35312" lon="-75.823581"><ele>28.0</ele><time>2024-06-15T15:40:49Z</time></trkpt>
<trkpt lat="45.353133" lon="-75.823563"><ele>28.0</ele><time>2024-06-15T15:40:50Z</time></trkpt>
<trkpt lat="45.353146" lon="-75.823545"><ele>28.0</ele><time>2024-06-15T15:40:51Z</time></trkpt>
<trkpt lat="45.353155" lon="-75.823536"><ele>28.0</ele><time>2024-06-15T15:40:52Z</time></trkpt>
<trkpt lat="45.353168" lon="-75.823518"><ele>28.0</ele><time>2024-06-15T15:40:53Z</time></trkpt>
<trkpt lat="45.353181" lon="-75.823509"><ele>28.0</ele><time>2024-06-15T15:40:54Z</time></trkpt>
<trkpt lat="45.353193" lon="-75.823492"><ele>28.0</ele><time>2024-06-15T15:40:55Z</time></trkpt>
<trkpt lat="45.353206" lon="-75.823474"><ele>28.0</ele><time>2024-06-15T15:40:56Z</time></trkpt>
<trkpt lat="45.353219" lon="-75.823465"><ele>28.0</ele><time>2024-06-15T15:40:57Z</time></trkpt>
<trkpt lat="45.353234" lon="-75.823447"><ele>28.0</ele><time>2024-06-15T15:40:58Z</time></trkpt>
<trkpt lat="45.353247" lon="-75.823438"><ele>28.0</ele><time>2024-06-15T15:40:59Z</time></trkpt>
<trkpt lat="45.35326" lon="-75.823429"><ele>28.0</ele><time>2024-06-15T15:41:00Z</time></trkpt>
<trkpt lat="45.353276" lon="-75.82342"><ele>28.0</ele><time>2024-06-15T15:41:01Z</time></trkpt>
<trkpt lat="45.353291" lon="-75.823411"><ele>28.0</ele><time>2024-06-15T15:41:02Z</time></trkpt>
<trkpt lat="45.353307" lon="-75.823411"><ele>28.0</ele><time>2024-06-15T15:41:03Z</time></trkpt>
<trkpt lat="45.353323" lon="-75.823402"><ele>28.0</ele><time>2024-06-15T15:41:04Z</time></trkpt>
<trkpt lat="45.353339" lon="-75.823393"><ele>28.0</ele><time>2024-06-15T15:41:05Z</time></trkpt>
<trkpt lat="45.353355" lon="-75.823393"><ele>28.0</ele><time>2024-06-15T15:41:06Z</time></trkpt>
<trkpt lat="45.353367" lon="-75.823384"><ele>28.0</ele><time>2024-06-15T15:41:07Z</time></trkpt>
<trkpt lat="45.353383" lon="-75.823384"><ele>28.0</ele><time>2024-06-15T15:41:08Z</time></trkpt>
<trkpt lat="45.353399" lon="-75.823375"><ele>28.0</ele><time>2024-06-15T15:41:09Z</time></trkpt>
<trkpt lat="45.353415" lon="-75.823366"><ele>28.0</ele><time>2024-06-15T15:41:10Z</time></trkpt>
<trkpt lat="45.353431" lon="-75.823366"><ele>28.0</ele><time>2024-06-15T15:41:11Z</time></trkpt>
<trkpt lat="45.353443" lon="-75.823357"><ele>28.0</ele><time>2024-06-15T15:41:12Z</time></trkpt>
<trkpt lat="45.353459" lon="-75.823348"><ele>28.0</ele><time>2024-06-15T15:41:13Z</time></trkpt>
<trkpt lat="45.353472" lon="-75.823348"><ele>28.0</ele><time>2024-06-15T15:41:14Z</time></trkpt>
<trkpt lat="45.353488" lon="-75.823339"><ele>28.0</ele><time>2024-06-15T15:41:15Z</time></trkpt>
<trkpt lat="45.353504" lon="-75.82333"><ele>28.0</ele><time>2024-06-15T15:41:16Z</time></trkpt>
<trkpt lat="45.353519" lon="-75.823321"><ele>28.0</ele><time>2024-06-15T15:41:17Z</time></trkpt>
<trkpt lat="45.353535" lon="-75.823321"><ele>28.0</ele><time>2024-06-15T15:41:18Z</time></trkpt>
<trkpt lat="45.353554" lon="-75.823312"><ele>28.0</ele><time>2024-06-15T15:41:19Z</time></trkpt>
<trkpt lat="45.35357" lon="-75.823303"><ele>29.0</ele><time>2024-06-15T15:41:20Z</time></trkpt>
<trkpt lat="45.353589" lon="-75.823303"><ele>29.0</ele><time>2024-06-15T15:41:21Z</time></trkpt>
<trkpt lat="45.353608" lon="-75.823294"><ele>29.0</ele><time>2024-06-15T15:41:22Z</time></trkpt>
<trkpt lat="45.353627" lon="-75.823285"><ele>29.0</ele><time>2024-06-15T15:41:23Z</time></trkpt>
<trkpt lat="45.353646" lon="-75.823285"><ele>29.0</ele><time>2024-06-15T15:41:24Z</time></trkpt>
<trkpt lat="45.353665" lon="-75.823276"><ele>29.0</ele><time>2024-06-15T15:41:25Z</time></trkpt>
<trkpt lat="45.353684" lon="-75.823267"><ele>29.0</ele><time>2024-06-15T15:41:26Z</time></trkpt>
<trkpt lat="45.353706" lon="-75.823267"><ele>29.0</ele><time>2024-06-15T15:41:27Z</time></trkpt>
<trkpt lat="45.353725" lon="-75.823258"><ele>29.0</ele><time>2024-06-15T15:41:28Z</time></trkpt>
<trkpt lat="45.353747" lon="-75.823258"><ele>29.0</ele><time>2024-06-15T15:41:29Z</time></trkpt>
<trkpt lat="45.353766" lon="-75.823249"><ele>29.0</ele><time>2024-06-15T15:41:30Z</time></trkpt>
<trkpt lat="45.353785" lon="-75.82324"><ele>29.0</ele><time>2024-06-15T15:41:31Z</time></trkpt>
<trkpt lat="45.353808" lon="-75.82324"><ele>29.0</ele><time>2024-06-15T15:41:32Z</time></trkpt>
<trkpt lat="45.353827" lon="-75.823231"><ele>29.0</ele><time>2024-06-15T15:41:33Z</time></trkpt>
<trkpt lat="45.353849" lon="-75.823231"><ele>29.0</ele><time>2024-06-15T15:41:34Z</time></trkpt>
<trkpt lat="45.353868" lon="-75.823222"><ele>29.0</ele><time>2024-06-15T15:41:35Z</time></trkpt>
<trkpt lat="45.35389" lon="-75.823222"><ele>29.0</ele><time>2024-06-15T15:41:36Z</time></trkpt>
<trkpt lat="45.353912" lon="-75.823213"><ele>29.0</ele><time>2024-06-15T15:41:37Z</time></trkpt>
<trkpt lat="45.353931" lon="-75.823213"><ele>29.0</ele><time>2024-06-15T15:41:38Z</time></trkpt>
<trkpt lat="45.353953" lon="-75.823204"><ele>29.0</ele><time>2024-06-15T15:41:39Z</time></trkpt>
<trkpt lat="45.353975" lon="-75.823195"><ele>29.0</ele><time>2024-06-15T15:41:40Z</time></trkpt>
<trkpt lat="45.353994" lon="-75.823186"><ele>29.0</ele><time>2024-06-15T15:41:41Z</time></trkpt>
<trkpt lat="45.354017" lon="-75.823177"><ele>29.0</ele><time>2024-06-15T15:41:42Z</time></trkpt>
<trkpt lat="45.354036" lon="-75.823177"><ele>29.0</ele><time>2024-06-15T15:41:43Z</time></trkpt>
<trkpt lat="45.354055" lon="-75.823168"><ele>29.0</ele><time>2024-06-15T15:41:44Z</time></trkpt>
<trkpt lat="45.354077" lon="-75.823159"><ele>29.0</ele><time>2024-06-15T15:41:45Z</time></trkpt>
<trkpt lat="45.354099" lon="-75.82315"><ele>29.0</ele><time>2024-06-15T15:41:46Z</time></trkpt>
<trkpt lat="45.354118" lon="-75.823141"><ele>29.0</ele><time>2024-06-15T15:41:47Z</time></trkpt>
<trkpt lat="45.35414" lon="-75.823132"><ele>29.0</ele><time>2024-06-15T15:41:48Z</time></trkpt>
<trkpt lat="45.354159" lon="-75.823123"><ele>29.0</ele><time>2024-06-15T15:41:49Z</time></trkpt>
<trkpt lat="45.354178" lon="-75.823114"><ele>29.0</ele><time>2024-06-15T15:41:50Z</time></trkpt>
<trkpt lat="45.3542" lon="-75.823096"><ele>29.0</ele><time>2024-06-15T15:41:51Z</time></trkpt>
<trkpt lat="45.354219" lon="-75.823087"><ele>29.0</ele><time>2024-06-15T15:41:52Z</time></trkpt>
<trkpt lat="45.354241" lon="-75.823078"><ele>29.0</ele><time>2024-06-15T15:41:53Z</time></trkpt>
<trkpt lat="45.35426" lon="-75.823069"><ele>29.0</ele><time>2024-06-15T15:41:54Z</time></trkpt>
<trkpt lat="45.354283" lon="-75.82306"><ele>29.0</ele><time>2024-06-15T15:41:55Z</time></trkpt>
<trkpt lat="45.354302" lon="-75.823051"><ele>29.0</ele><time>2024-06-15T15:41:56Z</time></trkpt>
<trkpt lat="45.354321" lon="-75.823033"><ele>29.0</ele><time>2024-06-15T15:41:57Z</time></trkpt>
<trkpt lat="45.35434" lon="-75.823015"><ele>29.0</ele><time>2024-06-15T15:41:58Z</time></trkpt>
<trkpt lat="45.354359" lon="-75.823006"><ele>29.0</ele><time>2024-06-15T15:41:59Z</time></trkpt>
<trkpt lat="45.354378" lon="-75.822988"><ele>29.0</ele><time>2024-06-15T15:42:00Z</time></trkpt>
<trkpt lat="45.354397" lon="-75.822979"><ele>29.0</ele><time>2024-06-15T15:42:01Z</time></trkpt>
<trkpt lat="45.354419" lon="-75.822962"><ele>29.0</ele><time>2024-06-15T15:42:02Z</time></trkpt>
<trkpt lat="45.354438" lon="-75.822953"><ele>29.0</ele><time>2024-06-15T15:42:03Z</time></trkpt>
<trkpt lat="45.354457" lon="-75.822935"><ele>29.0</ele><time>2024-06-15T15:42:04Z</time></trkpt>
<trkpt lat="45.354476" lon="-75.822926"><ele>29.0</ele><time>2024-06-15T15:42:05Z</time></trkpt>
<trkpt lat="45.354498" lon="-75.822908"><ele>29.0</ele><time>2024-06-15T15:42:06Z</time></trkpt>
<trkpt lat="45.354517" lon="-75.822899"><ele>29.0</ele><time>2024-06-15T15:42:07Z</time></trkpt>
<trkpt lat="45.354536" lon="-75.822881"><ele>29.0</ele><time>2024-06-15T15:42:08Z</time></trkpt>
<trkpt lat="45.354555" lon="-75.822872"><ele>29.0</ele><time>2024-06-15T15:42:09Z</time></trkpt>
<trkpt lat="45.354571" lon="-75.822854"><ele>29.0</ele><time>2024-06-15T15:42:10Z</time></trkpt>
<trkpt lat="45.35459" lon="-75.822836"><ele>29.0</ele><time>2024-06-15T15:42:11Z</time></trkpt>
<trkpt lat="45.354609" lon="-75.822827"><ele>29.0</ele><time>2024-06-15T15:42:12Z</time></trkpt>
<trkpt lat="45.354625" lon="-75.822809"><ele>29.0</ele><time>2024-06-15T15:42:13Z</time></trkpt>
<trkpt lat="45.354644" lon="-75.822791"><ele>29.0</ele><time>2024-06-15T15:42:14Z</time></trkpt>
<trkpt lat="45.354663" lon="-75.822782"><ele>29.0</ele><time>2024-06-15T15:42:15Z</time></trkpt>
<trkpt lat="45.354682" lon="-75.822764"><ele>29.0</ele><time>2024-06-15T15:42:16Z</time></trkpt>
<trkpt lat="45.354701" lon="-75.822755"><ele>29.0</ele><time>2024-06-15T15:42:17Z</time></trkpt>
<trkpt lat="45.35472" lon="-75.822737"><ele>29.0</ele><time>2024-06-15T15:42:18Z</time></trkpt>
<trkpt lat="45.354739" lon="-75.822719"><ele>29.0</ele><time>2024-06-15T15:42:19Z</time></trkpt>
<trkpt lat="45.354758" lon="-75.82271"><ele>29.0</ele><time>2024-06-15T15:42:20Z</time></trkpt>
<trkpt lat="45.354777" lon="-75.822692"><ele>29.0</ele><time>2024-06-15T15:42:21Z</time></trkpt>
<trkpt lat="45.354796" lon="-75.822674"><ele>29.0</ele><time>2024-06-15T15:42:22Z</time></trkpt>
<trkpt lat="45.354815" lon="-75.822665"><ele>29.0</ele><time>2024-06-15T15:42:23Z</time></trkpt>
<trkpt lat="45.354834" lon="-75.822647"><ele>29.0</ele><time>2024-06-15T15:42:24Z</time></trkpt>
<trkpt lat="45.354853" lon="-75.822638"><ele>29.0</ele><time>2024-06-15T15:42:25Z</time></trkpt>
<trkpt lat="45.354872" lon="-75.82262"><ele>28.0</ele><time>2024-06-15T15:42:26Z</time></trkpt>
<trkpt lat="45.354887" lon="-75.822611"><ele>28.0</ele><time>2024-06-15T15:42:27Z</time></trkpt>
<trkpt lat="45.354906" lon="-75.822593"><ele>28.0</ele><time>2024-06-15T15:42:28Z</time></trkpt>
<trkpt lat="45.354925" lon="-75.822575"><ele>28.0</ele><time>2024-06-15T15:42:29Z</time></trkpt>
<trkpt lat="45.354941" lon="-75.822566"><ele>28.0</ele><time>2024-06-15T15:42:30Z</time></trkpt>
<trkpt lat="45.35496" lon="-75.822548"><ele>28.0</ele><time>2024-06-15T15:42:31Z</time></trkpt>
<trkpt lat="45.354979" lon="-75.822539"><ele>28.0</ele><time>2024-06-15T15:42:32Z</time></trkpt>
<trkpt lat="45.354998" lon="-75.822521"><ele>28.0</ele><time>2024-06-15T15:42:33Z</time></trkpt>
<trkpt lat="45.355017" lon="-75.822512"><ele>28.0</ele><time>2024-06-15T15:42:34Z</time></trkpt>
<trkpt lat="45.355039" lon="-75.822494"><ele>28.0</ele><time>2024-06-15T15:42:35Z</time></trkpt>
<trkpt lat="45.355058" lon="-75.822485"><ele>28.0</ele><time>2024-06-15T15:42:36Z</time></trkpt>
<trkpt lat="45.355077" lon="-75.822467"><ele>28.0</ele><time>2024-06-15T15:42:37Z</time></trkpt>
<trkpt lat="45.355096" lon="-75.822458"><ele>28.0</ele><time>2024-06-15T15:42:38Z</time></trkpt>
<trkpt lat="45.355119" lon="-75.82245"><ele>28.0</ele><time>2024-06-15T15:42:39Z</time></trkpt>
<trkpt lat="45.355138" lon="-75.822441"><ele>28.0</ele><time>2024-06-15T15:42:40Z</time></trkpt>
<trkpt lat="45.35516" lon="-75.822423"><ele>28.0</ele><time>2024-06-15T15:42:41Z</time></trkpt>
<trkpt lat="45.355182" lon="-75.822423"><ele>28.0</ele><time>2024-06-15T15:42:42Z</time></trkpt>
<trkpt lat="45.355204" lon="-75.822414"><ele>28.0</ele><time>2024-06-15T15:42:43Z</time></trkpt>
<trkpt lat="45.355223" lon="-75.822405"><ele>28.0</ele><time>2024-06-15T15:42:44Z</time></trkpt>
<trkpt lat="45.355245" lon="-75.822396"><ele>28.0</ele><time>2024-06-15T15:42:45Z</time></trkpt>
<trkpt lat="45.355264" lon="-75.822378"><ele>28.0</ele><time>2024-06-15T15:42:46Z</time></trkpt>
<trkpt lat="45.355283" lon="-75.822369"><ele>28.0</ele><time>2024-06-15T15:42:47Z</time></trkpt>
<trkpt lat="45.355302" lon="-75.822351"><ele>28.0</ele><time>2024-06-15T15:42:48Z</time></trkpt>
<trkpt lat="45.355321" lon="-75.822342"><ele>28.0</ele><time>2024-06-15T15:42:49Z</time></trkpt>
<trkpt lat="45.355343" lon="-75.822324"><ele>28.0</ele><time>2024-06-15T15:42:50Z</time></trkpt>
<trkpt lat="45.355362" lon="-75.822315"><ele>28.0</ele><time>2024-06-15T15:42:51Z</time></trkpt>
<trkpt lat="45.355381" lon="-75.822297"><ele>28.0</ele><time>2024-06-15T15:42:52Z</time></trkpt>
<trkpt lat="45.3554" lon="-75.822288"><ele>28.0</ele><time>2024-06-15T15:42:53Z</time></trkpt>
<trkpt lat="45.355419" lon="-75.822279"><ele>28.0</ele><time>2024-06-15T15:42:54Z</time></trkpt>
<trkpt lat="45.355438" lon="-75.82227"><ele>28.0</ele><time>2024-06-15T15:42:55Z</time></trkpt>
<trkpt lat="45.355461" lon="-75.822252"><ele>28.0</ele><time>2024-06-15T15:42:56Z</time></trkpt>
<trkpt lat="45.35548" lon="-75.822243"><ele>28.0</ele><time>2024-06-15T15:42:57Z</time></trkpt>
<trkpt lat="45.355502" lon="-75.822234"><ele>28.0</ele><time>2024-06-15T15:42:58Z</time></trkpt>
<trkpt lat="45.355521" lon="-75.822216"><ele>28.0</ele><time>2024-06-15T15:42:59Z</time></trkpt>
<trkpt lat="45.35554" lon="-75.822207"><ele>28.0</ele><time>2024-06-15T15:43:00Z</time></trkpt>
<trkpt lat="45.355559" lon="-75.822198"><ele>28.0</ele><time>2024-06-15T15:43:01Z</time></trkpt>
<trkpt lat="45.355578" lon="-75.82218"><ele>28.0</ele><time>2024-06-15T15:43:02Z</time></trkpt>
<trkpt lat="45.355597" lon="-75.822171"><ele>28.0</ele><time>2024-06-15T15:43:03Z</time></trkpt>
<trkpt lat="45.355619" lon="-75.822153"><ele>29.0</ele><time>2024-06-15T15:43:04Z</time></trkpt>
<trkpt lat="45.355641" lon="-75.822144"><ele>28.0</ele><time>2024-06-15T15:43:05Z</time></trkpt>
<trkpt lat="45.35566" lon="-75.822135"><ele>28.0</ele><time>2024-06-15T15:43:06Z</time></trkpt>
<trkpt lat="45.355679" lon="-75.822117"><ele>28.0</ele><time>2024-06-15T15:43:07Z</time></trkpt>
<trkpt lat="45.355701" lon="-75.822099"><ele>28.0</ele><time>2024-06-15T15:43:08Z</time></trkpt>
<trkpt lat="45.35572" lon="-75.82209"><ele>28.0</ele><time>2024-06-15T15:43:09Z</time></trkpt>
<trkpt lat="45.355742" lon="-75.822072"><ele>28.0</ele><time>2024-06-15T15:43:10Z</time></trkpt>
<trkpt lat="45.355761" lon="-75.822063"><ele>29.0</ele><time>2024-06-15T15:43:11Z</time></trkpt>
<trkpt lat="45.355784" lon="-75.822054"><ele>28.0</ele><time>2024-06-15T15:43:12Z</time></trkpt>
<trkpt lat="45.355806" lon="-75.822045"><ele>29.0</ele><time>2024-06-15T15:43:13Z</time></trkpt>
<trkpt lat="45.355825" lon="-75.822027"><ele>29.0</ele><time>2024-06-15T15:43:14Z</time></trkpt>
<trkpt lat="45.355847" lon="-75.822018"><ele>29.0</ele><time>2024-06-15T15:43:15Z</time></trkpt>
<trkpt lat="45.355866" lon="-75.822009"><ele>29.0</ele><time>2024-06-15T15:43:16Z</time></trkpt>
<trkpt lat="45.355888" lon="-75.822"><ele>29.0</ele><time>2024-06-15T15:43:17Z</time></trkpt>
<trkpt lat="45.35591" lon="-75.821991"><ele>29.0</ele><time>2024-06-15T15:43:18Z</time></trkpt>
<trkpt lat="45.355929" lon="-75.821991"><ele>29.0</ele><time>2024-06-15T15:43:19Z</time></trkpt>
<trkpt lat="45.355951" lon="-75.821982"><ele>29.0</ele><time>2024-06-15T15:43:20Z</time></trkpt>
<trkpt lat="45.355974" lon="-75.821973"><ele>29.0</ele><time>2024-06-15T15:43:21Z</time></trkpt>
<trkpt lat="45.355996" lon="-75.821973"><ele>29.0</ele><time>2024-06-15T15:43:22Z</time></trkpt>
<trkpt lat="45.356018" lon="-75.821964"><ele>29.0</ele><time>2024-06-15T15:43:23Z</time></trkpt>
<trkpt lat="45.356037" lon="-75.821955"><ele>29.0</ele><time>2024-06-15T15:43:24Z</time></trkpt>
<trkpt lat="45.356059" lon="-75.821946"><ele>29.0</ele><time>2024-06-15T15:43:25Z</time></trkpt>
<trkpt lat="45.356081" lon="-75.821937"><ele>29.0</ele><time>2024-06-15T15:43:26Z</time></trkpt>
<trkpt lat="45.3561" lon="-75.821937"><ele>29.0</ele><time>2024-06-15T15:43:27Z</time></trkpt>
<trkpt lat="45.356122" lon="-75.821929"><ele>29.0</ele><time>2024-06-15T15:43:28Z</time></trkpt>
<trkpt lat="45.356145" lon="-75.82192"><ele>29.0</ele><time>2024-06-15T15:43:29Z</time></trkpt>
<trkpt lat="45.356167" lon="-75.821911"><ele>29.0</ele><time>2024-06-15T15:43:30Z</time></trkpt>
<trkpt lat="45.356186" lon="-75.821902"><ele>29.0</ele><time>2024-06-15T15:43:31Z</time></trkpt>
<trkpt lat="45.356208" lon="-75.821893"><ele>29.0</ele><time>2024-06-15T15:43:32Z</time></trkpt>
<trkpt lat="45.35623" lon="-75.821884"><ele>29.0</ele><time>2024-06-15T15:43:33Z</time></trkpt>
<trkpt lat="45.356249" lon="-75.821884"><ele>29.0</ele><time>2024-06-15T15:43:34Z</time></trkpt>
<trkpt lat="45.356274" lon="-75.821875"><ele>29.0</ele><time>2024-06-15T15:43:35Z</time></trkpt>
<trkpt lat="45.356297" lon="-75.821866"><ele>29.0</ele><time>2024-06-15T15:43:36Z</time></trkpt>
<trkpt lat="45.356319" lon="-75.821857"><ele>29.0</ele><time>2024-06-15T15:43:37Z</time></trkpt>
<trkpt lat="45.356338" lon="-75.821857"><ele>29.0</ele><time>2024-06-15T15:43:38Z</time></trkpt>
<trkpt lat="45.35636" lon="-75.821848"><ele>29.0</ele><time>2024-06-15T15:43:39Z</time></trkpt>
<trkpt lat="45.356382" lon="-75.821839"><ele>29.0</ele><time>2024-06-15T15:43:40Z</time></trkpt>
<trkpt lat="45.356404" lon="-75.82183"><ele>29.0</ele><time>2024-06-15T15:43:41Z</time></trkpt>
<trkpt lat="45.356426" lon="-75.821821"><ele>29.0</ele><time>2024-06-15T15:43:42Z</time></trkpt>
<trkpt lat="45.356449" lon="-75.821821"><ele>29.0</ele><time>2024-06-15T15:43:43Z</time></trkpt>
<trkpt lat="45.356471" lon="-75.821812"><ele>29.0</ele><time>2024-06-15T15:43:44Z</time></trkpt>
<trkpt lat="45.35649" lon="-75.821803"><ele>29.0</ele><time>2024-06-15T15:43:45Z</time></trkpt>
<trkpt lat="45.356515" lon="-75.821794"><ele>29.0</ele><time>2024-06-15T15:43:46Z</time></trkpt>
<trkpt lat="45.356537" lon="-75.821794"><ele>29.0</ele><time>2024-06-15T15:43:47Z</time></trkpt>
<trkpt lat="45.356559" lon="-75.821785"><ele>29.0</ele><time>2024-06-15T15:43:48Z</time></trkpt>
<trkpt lat="45.356582" lon="-75.821776"><ele>29.0</ele><time>2024-06-15T15:43:49Z</time></trkpt>
<trkpt lat="45.356601" lon="-75.821767"><ele>29.0</ele><time>2024-06-15T15:43:50Z</time></trkpt>
<trkpt lat="45.356623" lon="-75.821758"><ele>29.0</ele><time>2024-06-15T15:43:51Z</time></trkpt>
<trkpt lat="45.356645" lon="-75.821749"><ele>29.0</ele><time>2024-06-15T15:43:52Z</time></trkpt>
<trkpt lat="45.356667" lon="-75.821749"><ele>29.0</ele><time>2024-06-15T15:43:53Z</time></trkpt>
<trkpt lat="45.356689" lon="-75.82174"><ele>29.0</ele><time>2024-06-15T15:43:54Z</time></trkpt>
<trkpt lat="45.356708" lon="-75.821731"><ele>29.0</ele><time>2024-06-15T15:43:55Z</time></trkpt>
<trkpt lat="45.35673" lon="-75.821722"><ele>29.0</ele><time>2024-06-15T15:43:56Z</time></trkpt>
<trkpt lat="45.356753" lon="-75.821722"><ele>29.0</ele><time>2024-06-15T15:43:57Z</time></trkpt>
<trkpt lat="45.356772" lon="-75.821713"><ele>29.0</ele><time>2024-06-15T15:43:58Z</time></trkpt>
<trkpt lat="45.356794" lon="-75.821695"><ele>29.0</ele><time>2024-06-15T15:43:59Z</time></trkpt>
<trkpt lat="45.356813" lon="-75.821686"><ele>29.0</ele><time>2024-06-15T15:44:00Z</time></trkpt>
<trkpt lat="45.356835" lon="-75.821668"><ele>29.0</ele><time>2024-06-15T15:44:01Z</time></trkpt>
<trkpt lat="45.356854" lon="-75.821659"><ele>29.0</ele><time>2024-06-15T15:44:02Z</time></trkpt>
<trkpt lat="45.356876" lon="-75.82165"><ele>29.0</ele><time>2024-06-15T15:44:03Z</time></trkpt>
<trkpt lat="45.356895" lon="-75.821641"><ele>29.0</ele><time>2024-06-15T15:44:04Z</time></trkpt>
<trkpt lat="45.356914" lon="-75.821623"><ele>29.0</ele><time>2024-06-15T15:44:05Z</time></trkpt>
<trkpt lat="45.356936" lon="-75.821614"><ele>29.0</ele><time>2024-06-15T15:44:06Z</time></trkpt>
<trkpt lat="45.356958" lon="-75.821596"><ele>29.0</ele><time>2024-06-15T15:44:07Z</time></trkpt>
<trkpt lat="45.356977" lon="-75.821587"><ele>29.0</ele><time>2024-06-15T15:44:08Z</time></trkpt>
<trkpt lat="45.356996" lon="-75.821578"><ele>29.0</ele><time>2024-06-15T15:44:09Z</time></trkpt>
<trkpt lat="45.357015" lon="-75.82156"><ele>29.0</ele><time>2024-06-15T15:44:10Z</time></trkpt>
<trkpt lat="45.357034" lon="-75.821551"><ele>28.0</ele><time>2024-06-15T15:44:11Z</time></trkpt>
<trkpt lat="45.357057" lon="-75.821533"><ele>28.0</ele><time>2024-06-15T15:44:12Z</time></trkpt>
<trkpt lat="45.357079" lon="-75.821524"><ele>28.0</ele><time>2024-06-15T15:44:13Z</time></trkpt>
<trkpt lat="45.357098" lon="-75.821515"><ele>28.0</ele><time>2024-06-15T15:44:14Z</time></trkpt>
<trkpt lat="45.35712" lon="-75.821497"><ele>28.0</ele><time>2024-06-15T15:44:15Z</time></trkpt>
<trkpt lat="45.357139" lon="-75.821488"><ele>28.0</ele><time>2024-06-15T15:44:16Z</time></trkpt>
<trkpt lat="45.357158" lon="-75.82147"><ele>28.0</ele><time>2024-06-15T15:44:17Z</time></trkpt>
<trkpt lat="45.35718" lon="-75.821461"><ele>28.0</ele><time>2024-06-15T15:44:18Z</time></trkpt>
<trkpt lat="45.357199" lon="-75.821452"><ele>28.0</ele><time>2024-06-15T15:44:19Z</time></trkpt>
<trkpt lat="45.357221" lon="-75.821434"><ele>28.0</ele><time>2024-06-15T15:44:20Z</time></trkpt>
<trkpt lat="45.357243" lon="-75.821425"><ele>29.0</ele><time>2024-06-15T15:44:21Z</time></trkpt>
<trkpt lat="45.357262" lon="-75.821416"><ele>29.0</ele><time>2024-06-15T15:44:22Z</time></trkpt>
<trkpt lat="45.357285" lon="-75.821408"><ele>29.0</ele><time>2024-06-15T15:44:23Z</time></trkpt>
<trkpt lat="45.357307" lon="-75.821399"><ele>29.0</ele><time>2024-06-15T15:44:24Z</time></trkpt>
<trkpt lat="45.357329" lon="-75.82139"><ele>29.0</ele><time>2024-06-15T15:44:25Z</time></trkpt>
<trkpt lat="45.357351" lon="-75.82139"><ele>29.0</ele><time>2024-06-15T15:44:26Z</time></trkpt>
<trkpt lat="45.357373" lon="-75.821381"><ele>29.0</ele><time>2024-06-15T15:44:27Z</time></trkpt>
<trkpt lat="45.357392" lon="-75.82139"><ele>29.0</ele><time>2024-06-15T15:44:28Z</time></trkpt>
<trkpt lat="45.357414" lon="-75.82139"><ele>29.0</ele><time>2024-06-15T15:44:29Z</time></trkpt>
<trkpt lat="45.357437" lon="-75.82139"><ele>29.0</ele><time>2024-06-15T15:44:30Z</time></trkpt>
<trkpt lat="45.357459" lon="-75.82139"><ele>29.0</ele><time>2024-06-15T15:44:31Z</time></trkpt>
<trkpt lat="45.357481" lon="-75.82139"><ele>29.0</ele><time>2024-06-15T15:44:32Z</time></trkpt>
<trkpt lat="45.357503" lon="-75.82139"><ele>29.0</ele><time>2024-06-15T15:44:33Z</time></trkpt>
<trkpt lat="45.357522" lon="-75.82139"><ele>29.0</ele><time>2024-06-15T15:44:34Z</time></trkpt>
<trkpt lat="45.357544" lon="-75.82139"><ele>29.0</ele><time>2024-06-15T15:44:35Z</time></trkpt>
<trkpt lat="45.357566" lon="-75.82139"><ele>29.0</ele><time>2024-06-15T15:44:36Z</time></trkpt>
<trkpt lat="45.357589" lon="-75.82139"><ele>28.0</ele><time>2024-06-15T15:44:37Z</time></trkpt>
<trkpt lat="45.357611" lon="-75.82139"><ele>28.0</ele><time>2024-06-15T15:44:38Z</time></trkpt>
<trkpt lat="45.35763" lon="-75.82139"><ele>28.0</ele><time>2024-06-15T15:44:39Z</time></trkpt>
<trkpt lat="45.357652" lon="-75.821381"><ele>28.0</ele><time>2024-06-15T15:44:40Z</time></trkpt>
<trkpt lat="45.357671" lon="-75.821381"><ele>28.0</ele><time>2024-06-15T15:44:41Z</time></trkpt>
<trkpt lat="45.35769" lon="-75.821381"><ele>28.0</ele><time>2024-06-15T15:44:42Z</time></trkpt>
<trkpt lat="45.357709" lon="-75.821372"><ele>28.0</ele><time>2024-06-15T15:44:43Z</time></trkpt>
<trkpt lat="45.357728" lon="-75.821381"><ele>28.0</ele><time>2024-06-15T15:44:44Z</time></trkpt>
<trkpt lat="45.357747" lon="-75.821381"><ele>28.0</ele><time>2024-06-15T15:44:45Z</time></trkpt>
<trkpt lat="45.357766" lon="-75.821381"><ele>28.0</ele><time>2024-06-15T15:44:46Z</time></trkpt>
<trkpt lat="45.357782" lon="-75.82139"><ele>28.0</ele><time>2024-06-15T15:44:47Z</time></trkpt>
<trkpt lat="45.357801" lon="-75.82139"><ele>28.0</ele><time>2024-06-15T15:44:48Z</time></trkpt>
<trkpt lat="45.35782" lon="-75.82139"><ele>28.0</ele><time>2024-06-15T15:44:49Z</time></trkpt>
<trkpt lat="45.357836" lon="-75.821399"><ele>28.0</ele><time>2024-06-15T15:44:50Z</time></trkpt>
<trkpt lat="45.357855" lon="-75.821408"><ele>28.0</ele><time>2024-06-15T15:44:51Z</time></trkpt>
<trkpt lat="45.357874" lon="-75.821408"><ele>28.0</ele><time>2024-06-15T15:44:52Z</time></trkpt>
<trkpt lat="45.357889" lon="-75.821416"><ele>28.0</ele><time>2024-06-15T15:44:53Z</time></trkpt>
<trkpt lat="45.357905" lon="-75.821425"><ele>28.0</ele><time>2024-06-15T15:44:54Z</time></trkpt>
<trkpt lat="45.357921" lon="-75.821434"><ele>28.0</ele><time>2024-06-15T15:44:55Z</time></trkpt>
<trkpt lat="45.357937" lon="-75.821443"><ele>29.0</ele><time>2024-06-15T15:44:56Z</time></trkpt>
<trkpt lat="45.357953" lon="-75.821452"><ele>28.0</ele><time>2024-06-15T15:44:57Z</time></trkpt>
<trkpt lat="45.357972" lon="-75.821461"><ele>29.0</ele><time>2024-06-15T15:44:58Z</time></trkpt>
<trkpt lat="45.357988" lon="-75.821461"><ele>29.0</ele><time>2024-06-15T15:44:59Z</time></trkpt>
<trkpt lat="45.358007" lon="-75.82147"><ele>29.0</ele><time>2024-06-15T15:45:00Z</time></trkpt>
<trkpt lat="45.358022" lon="-75.821479"><ele>29.0</ele><time>2024-06-15T15:45:01Z</time></trkpt>
<trkpt lat="45.358035" lon="-75.821479"><ele>29.0</ele><time>2024-06-15T15:45:02Z</time></trkpt>
<trkpt lat="45.358051" lon="-75.821488"><ele>29.0</ele><time>2024-06-15T15:45:03Z</time></trkpt>
<trkpt lat="45.358067" lon="-75.821488"><ele>29.0</ele><time>2024-06-15T15:45:04Z</time></trkpt>
<trkpt lat="45.358083" lon="-75.821497"><ele>29.0</ele><time>2024-06-15T15:45:05Z</time></trkpt>
<trkpt lat="45.358098" lon="-75.821506"><ele>29.0</ele><time>2024-06-15T15:45:06Z</time></trkpt>
<trkpt lat="45.358111" lon="-75.821515"><ele>29.0</ele><time>2024-06-15T15:45:07Z</time></trkpt>
<trkpt lat="45.358127" lon="-75.821524"><ele>29.0</ele><time>2024-06-15T15:45:08Z</time></trkpt>
<trkpt lat="45.358143" lon="-75.821524"><ele>29.0</ele><time>2024-06-15T15:45:09Z</time></trkpt>
<trkpt lat="45.358155" lon="-75.821533"><ele>29.0</ele><time>2024-06-15T15:45:10Z</time></trkpt>
<trkpt lat="45.358171" lon="-75.821542"><ele>29.0</ele><time>2024-06-15T15:45:11Z</time></trkpt>
<trkpt lat="45.358184" lon="-75.821551"><ele>29.0</ele><time>2024-06-15T15:45:12Z</time></trkpt>
<trkpt lat="45.358197" lon="-75.82156"><ele>29.0</ele><time>2024-06-15T15:45:13Z</time></trkpt>
<trkpt lat="45.358212" lon="-75.821569"><ele>29.0</ele><time>2024-06-15T15:45:14Z</time></trkpt>
<trkpt lat="45.358225" lon="-75.821578"><ele>29.0</ele><time>2024-06-15T15:45:15Z</time></trkpt>
<trkpt lat="45.358241" lon="-75.821587"><ele>29.0</ele><time>2024-06-15T15:45:16Z</time></trkpt>
<trkpt lat="45.358254" lon="-75.821596"><ele>29.0</ele><time>2024-06-15T15:45:17Z</time></trkpt>
<trkpt lat="45.358266" lon="-75.821605"><ele>29.0</ele><time>2024-06-15T15:45:18Z</time></trkpt>
<trkpt lat="45.358279" lon="-75.821614"><ele>29.0</ele><time>2024-06-15T15:45:19Z</time></trkpt>
<trkpt lat="45.358292" lon="-75.821623"><ele>29.0</ele><time>2024-06-15T15:45:20Z</time></trkpt>
<trkpt lat="45.358304" lon="-75.821641"><ele>29.0</ele><time>2024-06-15T15:45:21Z</time></trkpt>
<trkpt lat="45.358317" lon="-75.82165"><ele>29.0</ele><time>2024-06-15T15:45:22Z</time></trkpt>
<trkpt lat="45.35833" lon="-75.821668"><ele>29.0</ele><time>2024-06-15T15:45:23Z</time></trkpt>
<trkpt lat="45.358342" lon="-75.821677"><ele>29.0</ele><time>2024-06-15T15:45:24Z</time></trkpt>
<trkpt lat="45.358355" lon="-75.821686"><ele>30.0</ele><time>2024-06-15T15:45:25Z</time></trkpt>
<trkpt lat="45.358368" lon="-75.821704"><ele>29.0</ele><time>2024-06-15T15:45:26Z</time></trkpt>
<trkpt lat="45.35838" lon="-75.821713"><ele>30.0</ele><time>2024-06-15T15:45:27Z</time></trkpt>
<trkpt lat="45.358393" lon="-75.821722"><ele>29.0</ele><time>2024-06-15T15:45:28Z</time></trkpt>
<trkpt lat="45.358406" lon="-75.82174"><ele>29.0</ele><time>2024-06-15T15:45:29Z</time></trkpt>
<trkpt lat="45.358418" lon="-75.821749"><ele>30.0</ele><time>2024-06-15T15:45:30Z</time></trkpt>
<trkpt lat="45.358431" lon="-75.821758"><ele>29.0</ele><time>2024-06-15T15:45:31Z</time></trkpt>
<trkpt lat="45.35844" lon="-75.821776"><ele>30.0</ele><time>2024-06-15T15:45:32Z</time></trkpt>
<trkpt lat="45.358456" lon="-75.821785"><ele>29.0</ele><time>2024-06-15T15:45:33Z</time></trkpt>
<trkpt lat="45.358469" lon="-75.821794"><ele>30.0</ele><time>2024-06-15T15:45:34Z</time></trkpt>
<trkpt lat="45.358482" lon="-75.821812"><ele>29.0</ele><time>2024-06-15T15:45:35Z</time></trkpt>
<trkpt lat="45.358497" lon="-75.821821"><ele>30.0</ele><time>2024-06-15T15:45:36Z</time></trkpt>
<trkpt lat="45.35851" lon="-75.82183"><ele>30.0</ele><time>2024-06-15T15:45:37Z</time></trkpt>
<trkpt lat="45.358523" lon="-75.821839"><ele>30.0</ele><time>2024-06-15T15:45:38Z</time></trkpt>
<trkpt lat="45.358535" lon="-75.821857"><ele>30.0</ele><time>2024-06-15T15:45:39Z</time></trkpt>
<trkpt lat="45.358548" lon="-75.821866"><ele>30.0</ele><time>2024-06-15T15:45:40Z</time></trkpt>
<trkpt lat="45.358561" lon="-75.821875"><ele>30.0</ele><time>2024-06-15T15:45:41Z</time></trkpt>
<trkpt lat="45.358573" lon="-75.821875"><ele>30.0</ele><time>2024-06-15T15:45:42Z</time></trkpt>
<trkpt lat="45.358589" lon="-75.821884"><ele>30.0</ele><time>2024-06-15T15:45:43Z</time></trkpt>
<trkpt lat="45.358602" lon="-75.821893"><ele>30.0</ele><time>2024-06-15T15:45:44Z</time></trkpt>
<trkpt lat="45.358618" lon="-75.821902"><ele>30.0</ele><time>2024-06-15T15:45:45Z</time></trkpt>
<trkpt lat="45.35863" lon="-75.821911"><ele>30.0</ele><time>2024-06-15T15:45:46Z</time></trkpt>
<trkpt lat="45.358643" lon="-75.821929"><ele>30.0</ele><time>2024-06-15T15:45:47Z</time></trkpt>
<trkpt lat="45.358653" lon="-75.821937"><ele>30.0</ele><time>2024-06-15T15:45:48Z</time></trkpt>
<trkpt lat="45.358665" lon="-75.821946"><ele>30.0</ele><time>2024-06-15T15:45:49Z</time></trkpt>
<trkpt lat="45.358675" lon="-75.821955"><ele>30.0</ele><time>2024-06-15T15:45:50Z</time></trkpt>
<trkpt lat="45.358687" lon="-75.821973"><ele>30.0</ele><time>2024-06-15T15:45:51Z</time></trkpt>
<trkpt lat="45.3587" lon="-75.821982"><ele>30.0</ele><time>2024-06-15T15:45:52Z</time></trkpt>
<trkpt lat="45.358713" lon="-75.821991"><ele>30.0</ele><time>2024-06-15T15:45:53Z</time></trkpt>
<trkpt lat="45.358725" lon="-75.822009"><ele>30.0</ele><time>2024-06-15T15:45:54Z</time></trkpt>
<trkpt lat="45.358738" lon="-75.822018"><ele>30.0</ele><time>2024-06-15T15:45:55Z</time></trkpt>
<trkpt lat="45.358751" lon="-75.822027"><ele>30.0</ele><time>2024-06-15T15:45:56Z</time></trkpt>
<trkpt lat="45.358763" lon="-75.822036"><ele>30.0</ele><time>2024-06-15T15:45:57Z</time></trkpt>
<trkpt lat="45.35877" lon="-75.822054"><ele>30.0</ele><time>2024-06-15T15:45:58Z</time></trkpt>
<trkpt lat="45.358782" lon="-75.822063"><ele>30.0</ele><time>2024-06-15T15:45:59Z</time></trkpt>
<trkpt lat="45.358795" lon="-75.822072"><ele>31.0</ele><time>2024-06-15T15:46:00Z</time></trkpt>
<trkpt lat="45.358811" lon="-75.822081"><ele>31.0</ele><time>2024-06-15T15:46:01Z</time></trkpt>
<trkpt lat="45.358824" lon="-75.822099"><ele>31.0</ele><time>2024-06-15T15:46:02Z</time></trkpt>
<trkpt lat="45.358839" lon="-75.822108"><ele>31.0</ele><time>2024-06-15T15:46:03Z</time></trkpt>
<trkpt lat="45.358852" lon="-75.822126"><ele>31.0</ele><time>2024-06-15T15:46:04Z</time></trkpt>
<trkpt lat="45.358862" lon="-75.822135"><ele>31.0</ele><time>2024-06-15T15:46:05Z</time></trkpt>
<trkpt lat="45.358874" lon="-75.822144"><ele>31.0</ele><time>2024-06-15T15:46:06Z</time></trkpt>
<trkpt lat="45.358887" lon="-75.822153"><ele>31.0</ele><time>2024-06-15T15:46:07Z</time></trkpt>
<trkpt lat="45.358903" lon="-75.822153"><ele>31.0</ele><time>2024-06-15T15:46:08Z</time></trkpt>
<trkpt lat="45.358919" lon="-75.822171"><ele>31.0</ele><time>2024-06-15T15:46:09Z</time></trkpt>
<trkpt lat="45.358931" lon="-75.82218"><ele>31.0</ele><time>2024-06-15T15:46:10Z</time></trkpt>
<trkpt lat="45.358944" lon="-75.822189"><ele>31.0</ele><time>2024-06-15T15:46:11Z</time></trkpt>
<trkpt lat="45.358957" lon="-75.822207"><ele>31.0</ele><time>2024-06-15T15:46:12Z</time></trkpt>
<trkpt lat="45.358972" lon="-75.822225"><ele>31.0</ele><time>2024-06-15T15:46:13Z</time></trkpt>
<trkpt lat="45.358985" lon="-75.822234"><ele>30.0</ele><time>2024-06-15T15:46:14Z</time></trkpt>
<trkpt lat="45.358998" lon="-75.822252"><ele>30.0</ele><time>2024-06-15T15:46:15Z</time></trkpt>
<trkpt lat="45.359007" lon="-75.82227"><ele>30.0</ele><time>2024-06-15T15:46:16Z</time></trkpt>
<trkpt lat="45.359017" lon="-75.822288"><ele>30.0</ele><time>2024-06-15T15:46:17Z</time></trkpt>
<trkpt lat="45.359026" lon="-75.822306"><ele>29.0</ele><time>2024-06-15T15:46:18Z</time></trkpt>
<trkpt lat="45.359036" lon="-75.822324"><ele>29.0</ele><time>2024-06-15T15:46:19Z</time></trkpt>
<trkpt lat="45.359045" lon="-75.822342"><ele>30.0</ele><time>2024-06-15T15:46:20Z</time></trkpt>
<trkpt lat="45.359052" lon="-75.82236"><ele>30.0</ele><time>2024-06-15T15:46:21Z</time></trkpt>
<trkpt lat="45.359061" lon="-75.822378"><ele>30.0</ele><time>2024-06-15T15:46:22Z</time></trkpt>
<trkpt lat="45.359071" lon="-75.822396"><ele>30.0</ele><time>2024-06-15T15:46:23Z</time></trkpt>
<trkpt lat="45.35908" lon="-75.822414"><ele>30.0</ele><time>2024-06-15T15:46:24Z</time></trkpt>
<trkpt lat="45.359086" lon="-75.822432"><ele>30.0</ele><time>2024-06-15T15:46:25Z</time></trkpt>
<trkpt lat="45.359093" lon="-75.82245"><ele>30.0</ele><time>2024-06-15T15:46:26Z</time></trkpt>
<trkpt lat="45.359102" lon="-75.822467"><ele>30.0</ele><time>2024-06-15T15:46:27Z</time></trkpt>
<trkpt lat="45.359109" lon="-75.822485"><ele>30.0</ele><time>2024-06-15T15:46:28Z</time></trkpt>
<trkpt lat="45.359115" lon="-75.822503"><ele>30.0</ele><time>2024-06-15T15:46:29Z</time></trkpt>
<trkpt lat="45.359121" lon="-75.822521"><ele>30.0</ele><time>2024-06-15T15:46:30Z</time></trkpt>
<trkpt lat="45.359131" lon="-75.822539"><ele>30.0</ele><time>2024-06-15T15:46:31Z</time></trkpt>
<trkpt lat="45.359137" lon="-75.822557"><ele>30.0</ele><time>2024-06-15T15:46:32Z</time></trkpt>
<trkpt lat="45.359147" lon="-75.822575"><ele>30.0</ele><time>2024-06-15T15:46:33Z</time></trkpt>
<trkpt lat="45.359156" lon="-75.822584"><ele>30.0</ele><time>2024-06-15T15:46:34Z</time></trkpt>
<trkpt lat="45.359162" lon="-75.822602"><ele>30.0</ele><time>2024-06-15T15:46:35Z</time></trkpt>
<trkpt lat="45.359172" lon="-75.82262"><ele>30.0</ele><time>2024-06-15T15:46:36Z</time></trkpt>
<trkpt lat="45.359181" lon="-75.822638"><ele>30.0</ele><time>2024-06-15T15:46:37Z</time></trkpt>
<trkpt lat="45.359188" lon="-75.822656"><ele>29.0</ele><time>2024-06-15T15:46:38Z</time></trkpt>
<trkpt lat="45.359197" lon="-75.822674"><ele>30.0</ele><time>2024-06-15T15:46:39Z</time></trkpt>
<trkpt lat="45.359204" lon="-75.822692"><ele>30.0</ele><time>2024-06-15T15:46:40Z</time></trkpt>
<trkpt lat="45.35921" lon="-75.82271"><ele>30.0</ele><time>2024-06-15T15:46:41Z</time></trkpt>
<trkpt lat="45.359219" lon="-75.822728"><ele>30.0</ele><time>2024-06-15T15:46:42Z</time></trkpt>
<trkpt lat="45.359226" lon="-75.822746"><ele>30.0</ele><time>2024-06-15T15:46:43Z</time></trkpt>
<trkpt lat="45.359232" lon="-75.822764"><ele>30.0</ele><time>2024-06-15T15:46:44Z</time></trkpt>
<trkpt lat="45.359238" lon="-75.822782"><ele>30.0</ele><time>2024-06-15T15:46:45Z</time></trkpt>
<trkpt lat="45.359245" lon="-75.8228"><ele>30.0</ele><time>2024-06-15T15:46:46Z</time></trkpt>
<trkpt lat="45.359251" lon="-75.822818"><ele>30.0</ele><time>2024-06-15T15:46:47Z</time></trkpt>
<trkpt lat="45.359257" lon="-75.822836"><ele>30.0</ele><time>2024-06-15T15:46:48Z</time></trkpt>
<trkpt lat="45.359267" lon="-75.822854"><ele>30.0</ele><time>2024-06-15T15:46:49Z</time></trkpt>
<trkpt lat="45.359273" lon="-75.822872"><ele>30.0</ele><time>2024-06-15T15:46:50Z</time></trkpt>
<trkpt lat="45.35928" lon="-75.82289"><ele>30.0</ele><time>2024-06-15T15:46:51Z</time></trkpt>
<trkpt lat="45.359286" lon="-75.822908"><ele>30.0</ele><time>2024-06-15T15:46:52Z</time></trkpt>
<trkpt lat="45.359292" lon="-75.822926"><ele>30.0</ele><time>2024-06-15T15:46:53Z</time></trkpt>
<trkpt lat="45.359302" lon="-75.822944"><ele>30.0</ele><time>2024-06-15T15:46:54Z</time></trkpt>
<trkpt lat="45.359311" lon="-75.822953"><ele>30.0</ele><time>2024-06-15T15:46:55Z</time></trkpt>
<trkpt lat="45.359321" lon="-75.822971"><ele>29.0</ele><time>2024-06-15T15:46:56Z</time></trkpt>
<trkpt lat="45.359333" lon="-75.822979"><ele>29.0</ele><time>2024-06-15T15:46:57Z</time></trkpt>
<trkpt lat="45.359343" lon="-75.822997"><ele>29.0</ele><time>2024-06-15T15:46:58Z</time></trkpt>
<trkpt lat="45.359359" lon="-75.823006"><ele>29.0</ele><time>2024-06-15T15:46:59Z</time></trkpt>
<trkpt lat="45.359371" lon="-75.823006"><ele>29.0</ele><time>2024-06-15T15:47:00Z</time></trkpt>
<trkpt lat="45.359384" lon="-75.823015"><ele>29.0</ele><time>2024-06-15T15:47:01Z</time></trkpt>
<trkpt lat="45.359397" lon="-75.823015"><ele>29.0</ele><time>2024-06-15T15:47:02Z</time></trkpt>
<trkpt lat="45.359413" lon="-75.823015"><ele>29.0</ele><time>2024-06-15T15:47:03Z</time></trkpt>
<trkpt lat="45.359425" lon="-75.823024"><ele>29.0</ele><time>2024-06-15T15:47:04Z</time></trkpt>
<trkpt lat="45.359438" lon="-75.823024"><ele>29.0</ele><time>2024-06-15T15:47:05Z</time></trkpt>
<trkpt lat="45.359451" lon="-75.823015"><ele>29.0</ele><time>2024-06-15T15:47:06Z</time></trkpt>
<trkpt lat="45.35946" lon="-75.823015"><ele>29.0</ele><time>2024-06-15T15:47:07Z</time></trkpt>
<trkpt lat="45.359473" lon="-75.823015"><ele>29.0</ele><time>2024-06-15T15:47:08Z</time></trkpt>
<trkpt lat="45.359485" lon="-75.823015"><ele>29.0</ele><time>2024-06-15T15:47:09Z</time></trkpt>
<trkpt lat="45.359498" lon="-75.823015"><ele>29.0</ele><time>2024-06-15T15:47:10Z</time></trkpt>
<trkpt lat="45.359508" lon="-75.823006"><ele>29.0</ele><time>2024-06-15T15:47:11Z</time></trkpt>
<trkpt lat="45.35952" lon="-75.823006"><ele>29.0</ele><time>2024-06-15T15:47:12Z</time></trkpt>
<trkpt lat="45.359533" lon="-75.823006"><ele>29.0</ele><time>2024-06-15T15:47:13Z</time></trkpt>
<trkpt lat="45.359542" lon="-75.822997"><ele>28.0</ele><time>2024-06-15T15:47:14Z</time></trkpt>
<trkpt lat="45.359555" lon="-75.822997"><ele>28.0</ele><time>2024-06-15T15:47:15Z</time></trkpt>
<trkpt lat="45.359565" lon="-75.822988"><ele>28.0</ele><time>2024-06-15T15:47:16Z</time></trkpt>
<trkpt lat="45.359577" lon="-75.822979"><ele>28.0</ele><time>2024-06-15T15:47:17Z</time></trkpt>
<trkpt lat="45.359587" lon="-75.822979"><ele>28.0</ele><time>2024-06-15T15:47:18Z</time></trkpt>
<trkpt lat="45.359599" lon="-75.822971"><ele>28.0</ele><time>2024-06-15T15:47:19Z</time></trkpt>
<trkpt lat="45.359609" lon="-75.822971"><ele>28.0</ele><time>2024-06-15T15:47:20Z</time></trkpt>
<trkpt lat="45.359618" lon="-75.822962"><ele>28.0</ele><time>2024-06-15T15:47:21Z</time></trkpt>
<trkpt lat="45.359628" lon="-75.822953"><ele>28.0</ele><time>2024-06-15T15:47:22Z</time></trkpt>
<trkpt lat="45.359637" lon="-75.822953"><ele>28.0</ele><time>2024-06-15T15:47:23Z</time></trkpt>
<trkpt lat="45.359647" lon="-75.822944"><ele>28.0</ele><time>2024-06-15T15:47:24Z</time></trkpt>
<trkpt lat="45.359656" lon="-75.822935"><ele>28.0</ele><time>2024-06-15T15:47:25Z</time></trkpt>
<trkpt lat="45.359666" lon="-75.822935"><ele>28.0</ele><time>2024-06-15T15:47:26Z</time></trkpt>
<trkpt lat="45.359675" lon="-75.822926"><ele>28.0</ele><time>2024-06-15T15:47:27Z</time></trkpt>
<trkpt lat="45.359685" lon="-75.822917"><ele>28.0</ele><time>2024-06-15T15:47:28Z</time></trkpt>
<trkpt lat="45.359694" lon="-75.822917"><ele>28.0</ele><time>2024-06-15T15:47:29Z</time></trkpt>
<trkpt lat="45.359704" lon="-75.822908"><ele>28.0</ele><time>2024-06-15T15:47:30Z</time></trkpt>
<trkpt lat="45.35971" lon="-75.822899"><ele>28.0</ele><time>2024-06-15T15:47:31Z</time></trkpt>
<trkpt lat="45.35972" lon="-75.82289"><ele>28.0</ele><time>2024-06-15T15:47:32Z</time></trkpt>
<trkpt lat="45.359729" lon="-75.82289"><ele>28.0</ele><time>2024-06-15T15:47:33Z</time></trkpt>
<trkpt lat="45.359735" lon="-75.822881"><ele>28.0</ele><time>2024-06-15T15:47:34Z</time></trkpt>
<trkpt lat="45.359745" lon="-75.822872"><ele>28.0</ele><time>2024-06-15T15:47:35Z</time></trkpt>
<trkpt lat="45.359751" lon="-75.822863"><ele>28.0</ele><time>2024-06-15T15:47:36Z</time></trkpt>
<trkpt lat="45.359761" lon="-75.822854"><ele>28.0</ele><time>2024-06-15T15:47:37Z</time></trkpt>
<trkpt lat="45.359767" lon="-75.822854"><ele>28.0</ele><time>2024-06-15T15:47:38Z</time></trkpt>
<trkpt lat="45.359773" lon="-75.822845"><ele>28.0</ele><time>2024-06-15T15:47:39Z</time></trkpt>
<trkpt lat="45.359783" lon="-75.822836"><ele>28.0</ele><time>2024-06-15T15:47:40Z</time></trkpt>
<trkpt lat="45.359789" lon="-75.822827"><ele>28.0</ele><time>2024-06-15T15:47:41Z</time></trkpt>
<trkpt lat="45.359796" lon="-75.822818"><ele>28.0</ele><time>2024-06-15T15:47:42Z</time></trkpt>
<trkpt lat="45.359802" lon="-75.822809"><ele>28.0</ele><time>2024-06-15T15:47:43Z</time></trkpt>
<trkpt lat="45.359808" lon="-75.822809"><ele>28.0</ele><time>2024-06-15T15:47:44Z</time></trkpt>
<trkpt lat="45.359818" lon="-75.8228"><ele>28.0</ele><time>2024-06-15T15:47:45Z</time></trkpt>
<trkpt lat="45.359824" lon="-75.822791"><ele>28.0</ele><time>2024-06-15T15:47:46Z</time></trkpt>
<trkpt lat="45.359834" lon="-75.822782"><ele>28.0</ele><time>2024-06-15T15:47:47Z</time></trkpt>
<trkpt lat="45.35984" lon="-75.822773"><ele>28.0</ele><time>2024-06-15T15:47:48Z</time></trkpt>
<trkpt lat="45.359846" lon="-75.822764"><ele>28.0</ele><time>2024-06-15T15:47:49Z</time></trkpt>
<trkpt lat="45.359853" lon="-75.822755"><ele>28.0</ele><time>2024-06-15T15:47:50Z</time></trkpt>
<trkpt lat="45.359859" lon="-75.822746"><ele>28.0</ele><time>2024-06-15T15:47:51Z</time></trkpt>
<trkpt lat="45.359865" lon="-75.822737"><ele>28.0</ele><time>2024-06-15T15:47:52Z</time></trkpt>
<trkpt lat="45.359875" lon="-75.822728"><ele>28.0</ele><time>2024-06-15T15:47:53Z</time></trkpt>
<trkpt lat="45.359884" lon="-75.822728"><ele>28.0</ele><time>2024-06-15T15:47:54Z</time></trkpt>
<trkpt lat="45.359891" lon="-75.822719"><ele>28.0</ele><time>2024-06-15T15:47:55Z</time></trkpt>
<trkpt lat="45.359897" lon="-75.82271"><ele>28.0</ele><time>2024-06-15T15:47:56Z</time></trkpt>
<trkpt lat="45.359903" lon="-75.822701"><ele>28.0</ele><time>2024-06-15T15:47:57Z</time></trkpt>
<trkpt lat="45.35991" lon="-75.822692"><ele>28.0</ele><time>2024-06-15T15:47:58Z</time></trkpt>
<trkpt lat="45.359916" lon="-75.822683"><ele>28.0</ele><time>2024-06-15T15:47:59Z</time></trkpt>
<trkpt lat="45.359922" lon="-75.822674"><ele>28.0</ele><time>2024-06-15T15:48:00Z</time></trkpt>
<trkpt lat="45.359929" lon="-75.822674"><ele>27.0</ele><time>2024-06-15T15:48:01Z</time></trkpt>
<trkpt lat="45.359938" lon="-75.822665"><ele>27.0</ele><time>2024-06-15T15:48:02Z</time></trkpt>
<trkpt lat="45.359944" lon="-75.822656"><ele>27.0</ele><time>2024-06-15T15:48:03Z</time></trkpt>
<trkpt lat="45.359948" lon="-75.822647"><ele>27.0</ele><time>2024-06-15T15:48:04Z</time></trkpt>
<trkpt lat="45.359954" lon="-75.822638"><ele>27.0</ele><time>2024-06-15T15:48:05Z</time></trkpt>
<trkpt lat="45.35996" lon="-75.822629"><ele>27.0</ele><time>2024-06-15T15:48:06Z</time></trkpt>
<trkpt lat="45.359967" lon="-75.822629"><ele>27.0</ele><time>2024-06-15T15:48:07Z</time></trkpt>
<trkpt lat="45.359973" lon="-75.82262"><ele>27.0</ele><time>2024-06-15T15:48:08Z</time></trkpt>
<trkpt lat="45.359982" lon="-75.822611"><ele>28.0</ele><time>2024-06-15T15:48:09Z</time></trkpt>
<trkpt lat="45.359989" lon="-75.822611"><ele>27.0</ele><time>2024-06-15T15:48:10Z</time></trkpt>
<trkpt lat="45.359995" lon="-75.822602"><ele>27.0</ele><time>2024-06-15T15:48:11Z</time></trkpt>
<trkpt lat="45.360001" lon="-75.822602"><ele>27.0</ele><time>2024-06-15T15:48:12Z</time></trkpt>
<trkpt lat="45.360011" lon="-75.822593"><ele>27.0</ele><time>2024-06-15T15:48:13Z</time></trkpt>
<trkpt lat="45.360017" lon="-75.822584"><ele>27.0</ele><time>2024-06-15T15:48:14Z</time></trkpt>
<trkpt lat="45.360024" lon="-75.822575"><ele>27.0</ele><time>2024-06-15T15:48:15Z</time></trkpt>
<trkpt lat="45.36003" lon="-75.822575"><ele>27.0</ele><time>2024-06-15T15:48:16Z</time></trkpt>
<trkpt lat="45.360036" lon="-75.822566"><ele>27.0</ele><time>2024-06-15T15:48:17Z</time></trkpt>
<trkpt lat="45.360043" lon="-75.822557"><ele>28.0</ele><time>2024-06-15T15:48:18Z</time></trkpt>
<trkpt lat="45.360049" lon="-75.822548"><ele>28.0</ele><time>2024-06-15T15:48:19Z</time></trkpt>
<trkpt lat="45.360055" lon="-75.822539"><ele>28.0</ele><time>2024-06-15T15:48:20Z</time></trkpt>
<trkpt lat="45.360062" lon="-75.82253"><ele>28.0</ele><time>2024-06-15T15:48:21Z</time></trkpt>
<trkpt lat="45.360068" lon="-75.822521"><ele>28.0</ele><time>2024-06-15T15:48:22Z</time></trkpt>
<trkpt lat="45.360074" lon="-75.822512"><ele>28.0</ele><time>2024-06-15T15:48:23Z</time></trkpt>
<trkpt lat="45.360081" lon="-75.822503"><ele>28.0</ele><time>2024-06-15T15:48:24Z</time></trkpt>
<trkpt lat="45.360084" lon="-75.822494"><ele>27.0</ele><time>2024-06-15T15:48:25Z</time></trkpt>
<trkpt lat="45.36009" lon="-75.822485"><ele>27.0</ele><time>2024-06-15T15:48:26Z</time></trkpt>
<trkpt lat="45.360093" lon="-75.822476"><ele>27.0</ele><time>2024-06-15T15:48:27Z</time></trkpt>
<trkpt lat="45.3601" lon="-75.822476"><ele>28.0</ele><time>2024-06-15T15:48:28Z</time></trkpt>
<trkpt lat="45.360106" lon="-75.822458"><ele>28.0</ele><time>2024-06-15T15:48:29Z</time></trkpt>
<trkpt lat="45.360112" lon="-75.822458"><ele>28.0</ele><time>2024-06-15T15:48:30Z</time></trkpt>
<trkpt lat="45.360119" lon="-75.82245"><ele>28.0</ele><time>2024-06-15T15:48:31Z</time></trkpt>
<trkpt lat="45.360125" lon="-75.822441"><ele>28.0</ele><time>2024-06-15T15:48:32Z</time></trkpt>
<trkpt lat="45.360128" lon="-75.822432"><ele>28.0</ele><time>2024-06-15T15:48:33Z</time></trkpt>
<trkpt lat="45.360134" lon="-75.822423"><ele>28.0</ele><time>2024-06-15T15:48:34Z</time></trkpt>
<trkpt lat="45.360141" lon="-75.822405"><ele>28.0</ele><time>2024-06-15T15:48:35Z</time></trkpt>
<trkpt lat="45.360144" lon="-75.822396"><ele>28.0</ele><time>2024-06-15T15:48:36Z</time></trkpt>
<trkpt lat="45.36015" lon="-75.822387"><ele>28.0</ele><time>2024-06-15T15:48:37Z</time></trkpt>
<trkpt lat="45.360157" lon="-75.822378"><ele>28.0</ele><time>2024-06-15T15:48:38Z</time></trkpt>
<trkpt lat="45.360163" lon="-75.822369"><ele>27.0</ele><time>2024-06-15T15:48:39Z</time></trkpt>
<trkpt lat="45.360169" lon="-75.82236"><ele>27.0</ele><time>2024-06-15T15:48:40Z</time></trkpt>
<trkpt lat="45.360172" lon="-75.822342"><ele>28.0</ele><time>2024-06-15T15:48:41Z</time></trkpt>
<trkpt lat="45.360179" lon="-75.822333"><ele>28.0</ele><time>2024-06-15T15:48:42Z</time></trkpt>
<trkpt lat="45.360185" lon="-75.822324"><ele>28.0</ele><time>2024-06-15T15:48:43Z</time></trkpt>
<trkpt lat="45.360191" lon="-75.822306"><ele>28.0</ele><time>2024-06-15T15:48:44Z</time></trkpt>
<trkpt lat="45.360198" lon="-75.822297"><ele>28.0</ele><time>2024-06-15T15:48:45Z</time></trkpt>
<trkpt lat="45.360207" lon="-75.822279"><ele>28.0</ele><time>2024-06-15T15:48:46Z</time></trkpt>
<trkpt lat="45.360214" lon="-75.82227"><ele>28.0</ele><time>2024-06-15T15:48:47Z</time></trkpt>
<trkpt lat="45.36022" lon="-75.822252"><ele>28.0</ele><time>2024-06-15T15:48:48Z</time></trkpt>
<trkpt lat="45.360226" lon="-75.822234"><ele>28.0</ele><time>2024-06-15T15:48:49Z</time></trkpt>
<trkpt lat="45.360233" lon="-75.822225"><ele>28.0</ele><time>2024-06-15T15:48:50Z</time></trkpt>
<trkpt lat="45.360239" lon="-75.822207"><ele>28.0</ele><time>2024-06-15T15:48:51Z</time></trkpt>
<trkpt lat="45.360242" lon="-75.822198"><ele>28.0</ele><time>2024-06-15T15:48:52Z</time></trkpt>
<trkpt lat="45.360248" lon="-75.82218"><ele>28.0</ele><time>2024-06-15T15:48:53Z</time></trkpt>
<trkpt lat="45.360255" lon="-75.822162"><ele>28.0</ele><time>2024-06-15T15:48:54Z</time></trkpt>
<trkpt lat="45.360261" lon="-75.822153"><ele>27.0</ele><time>2024-06-15T15:48:55Z</time></trkpt>
<trkpt lat="45.360267" lon="-75.822135"><ele>28.0</ele><time>2024-06-15T15:48:56Z</time></trkpt>
<trkpt lat="45.360274" lon="-75.822117"><ele>28.0</ele><time>2024-06-15T15:48:57Z</time></trkpt>
<trkpt lat="45.36028" lon="-75.822108"><ele>28.0</ele><time>2024-06-15T15:48:58Z</time></trkpt>
<trkpt lat="45.360286" lon="-75.82209"><ele>28.0</ele><time>2024-06-15T15:48:59Z</time></trkpt>
<trkpt lat="45.360296" lon="-75.822072"><ele>28.0</ele><time>2024-06-15T15:49:00Z</time></trkpt>
<trkpt lat="45.360302" lon="-75.822054"><ele>27.0</ele><time>2024-06-15T15:49:01Z</time></trkpt>
<trkpt lat="45.360309" lon="-75.822045"><ele>28.0</ele><time>2024-06-15T15:49:02Z</time></trkpt>
<trkpt lat="45.360315" lon="-75.822027"><ele>27.0</ele><time>2024-06-15T15:49:03Z</time></trkpt>
<trkpt lat="45.360324" lon="-75.822009"><ele>27.0</ele><time>2024-06-15T15:49:04Z</time></trkpt>
<trkpt lat="45.360331" lon="-75.821991"><ele>27.0</ele><time>2024-06-15T15:49:05Z</time></trkpt>
<trkpt lat="45.360337" lon="-75.821973"><ele>27.0</ele><time>2024-06-15T15:49:06Z</time></trkpt>
<trkpt lat="45.360343" lon="-75.821955"><ele>27.0</ele><time>2024-06-15T15:49:07Z</time></trkpt>
<trkpt lat="45.360353" lon="-75.821946"><ele>27.0</ele><time>2024-06-15T15:49:08Z</time></trkpt>
<trkpt lat="45.360359" lon="-75.821929"><ele>27.0</ele><time>2024-06-15T15:49:09Z</time></trkpt>
<trkpt lat="45.360366" lon="-75.821911"><ele>27.0</ele><time>2024-06-15T15:49:10Z</time></trkpt>
<trkpt lat="45.360372" lon="-75.821893"><ele>27.0</ele><time>2024-06-15T15:49:11Z</time></trkpt>
<trkpt lat="45.360378" lon="-75.821875"><ele>27.0</ele><time>2024-06-15T15:49:12Z</time></trkpt>
<trkpt lat="45.360388" lon="-75.821857"><ele>27.0</ele><time>2024-06-15T15:49:13Z</time></trkpt>
<trkpt lat="45.360394" lon="-75.821848"><ele>27.0</ele><time>2024-06-15T15:49:14Z</time></trkpt>
<trkpt lat="45.3604" lon="-75.82183"><ele>27.0</ele><time>2024-06-15T15:49:15Z</time></trkpt>
<trkpt lat="45.360407" lon="-75.821812"><ele>27.0</ele><time>2024-06-15T15:49:16Z</time></trkpt>
<trkpt lat="45.360413" lon="-75.821794"><ele>27.0</ele><time>2024-06-15T15:49:17Z</time></trkpt>
<trkpt lat="45.360423" lon="-75.821776"><ele>27.0</ele><time>2024-06-15T15:49:18Z</time></trkpt>
<trkpt lat="45.360429" lon="-75.821758"><ele>27.0</ele><time>2024-06-15T15:49:19Z</time></trkpt>
<trkpt lat="45.360438" lon="-75.821749"><ele>27.0</ele><time>2024-06-15T15:49:20Z</time></trkpt>
<trkpt lat="45.360448" lon="-75.821731"><ele>27.0</ele><time>2024-06-15T15:49:21Z</time></trkpt>
<trkpt lat="45.360457" lon="-75.821722"><ele>27.0</ele><time>2024-06-15T15:49:22Z</time></trkpt>
<trkpt lat="45.360467" lon="-75.821704"><ele>27.0</ele><time>2024-06-15T15:49:23Z</time></trkpt>
<trkpt lat="45.360476" lon="-75.821686"><ele>27.0</ele><time>2024-06-15T15:49:24Z</time></trkpt>
<trkpt lat="45.360489" lon="-75.821677"><ele>27.0</ele><time>2024-06-15T15:49:25Z</time></trkpt>
<trkpt lat="45.360499" lon="-75.821659"><ele>27.0</ele><time>2024-06-15T15:49:26Z</time></trkpt>
<trkpt lat="45.360511" lon="-75.821641"><ele>27.0</ele><time>2024-06-15T15:49:27Z</time></trkpt>
<trkpt lat="45.360524" lon="-75.821623"><ele>27.0</ele><time>2024-06-15T15:49:28Z</time></trkpt>
<trkpt lat="45.360537" lon="-75.821614"><ele>28.0</ele><time>2024-06-15T15:49:29Z</time></trkpt>
<trkpt lat="45.360549" lon="-75.821596"><ele>27.0</ele><time>2024-06-15T15:49:30Z</time></trkpt>
<trkpt lat="45.360562" lon="-75.821578"><ele>28.0</ele><time>2024-06-15T15:49:31Z</time></trkpt>
<trkpt lat="45.360578" lon="-75.82156"><ele>28.0</ele><time>2024-06-15T15:49:32Z</time></trkpt>
<trkpt lat="45.36059" lon="-75.821542"><ele>28.0</ele><time>2024-06-15T15:49:33Z</time></trkpt>
<trkpt lat="45.360606" lon="-75.821524"><ele>28.0</ele><time>2024-06-15T15:49:34Z</time></trkpt>
<trkpt lat="45.360625" lon="-75.821506"><ele>28.0</ele><time>2024-06-15T15:49:35Z</time></trkpt>
<trkpt lat="45.360641" lon="-75.821497"><ele>28.0</ele><time>2024-06-15T15:49:36Z</time></trkpt>
<trkpt lat="45.360657" lon="-75.821479"><ele>28.0</ele><time>2024-06-15T15:49:37Z</time></trkpt>
<trkpt lat="45.360676" lon="-75.821461"><ele>28.0</ele><time>2024-06-15T15:49:38Z</time></trkpt>
<trkpt lat="45.360695" lon="-75.821443"><ele>28.0</ele><time>2024-06-15T15:49:39Z</time></trkpt>
<trkpt lat="45.360714" lon="-75.821425"><ele>27.0</ele><time>2024-06-15T15:49:40Z</time></trkpt>
<trkpt lat="45.360733" lon="-75.821408"><ele>27.0</ele><time>2024-06-15T15:49:41Z</time></trkpt>
<trkpt lat="45.360752" lon="-75.82139"><ele>27.0</ele><time>2024-06-15T15:49:42Z</time></trkpt>
<trkpt lat="45.360774" lon="-75.821372"><ele>28.0</ele><time>2024-06-15T15:49:43Z</time></trkpt>
<trkpt lat="45.360793" lon="-75.821354"><ele>27.0</ele><time>2024-06-15T15:49:44Z</time></trkpt>
<trkpt lat="45.360812" lon="-75.821336"><ele>28.0</ele><time>2024-06-15T15:49:45Z</time></trkpt>
<trkpt lat="45.360834" lon="-75.821327"><ele>28.0</ele><time>2024-06-15T15:49:46Z</time></trkpt>
<trkpt lat="45.360853" lon="-75.8213"><ele>28.0</ele><time>2024-06-15T15:49:47Z</time></trkpt>
<trkpt lat="45.360872" lon="-75.821282"><ele>28.0</ele><time>2024-06-15T15:49:48Z</time></trkpt>
<trkpt lat="45.360894" lon="-75.821255"><ele>28.0</ele><time>2024-06-15T15:49:49Z</time></trkpt>
<trkpt lat="45.36092" lon="-75.821237"><ele>28.0</ele><time>2024-06-15T15:49:50Z</time></trkpt>
<trkpt lat="45.360945" lon="-75.821219"><ele>28.0</ele><time>2024-06-15T15:49:51Z</time></trkpt>
<trkpt lat="45.360964" lon="-75.821201"><ele>28.0</ele><time>2024-06-15T15:49:52Z</time></trkpt>
<trkpt lat="45.360964" lon="-75.821201"><ele>28.0</ele><time>2024-06-15T15:49:53Z</time></trkpt>
<trkpt lat="45.360977" lon="-75.821192"><ele>29.0</ele><time>2024-06-15T15:49:53Z</time></trkpt>
<trkpt lat="45.360996" lon="-75.821174"><ele>29.0</ele><time>2024-06-15T15:49:54Z</time></trkpt>
<trkpt lat="45.361012" lon="-75.821156"><ele>28.0</ele><time>2024-06-15T15:49:55Z</time></trkpt>
<trkpt lat="45.361034" lon="-75.821147"><ele>28.0</ele><time>2024-06-15T15:49:56Z</time></trkpt>
<trkpt lat="45.361056" lon="-75.821129"><ele>28.0</ele><time>2024-06-15T15:49:57Z</time></trkpt>
<trkpt lat="45.361075" lon="-75.82112"><ele>28.0</ele><time>2024-06-15T15:49:58Z</time></trkpt>
<trkpt lat="45.361094" lon="-75.821111"><ele>28.0</ele><time>2024-06-15T15:49:59Z</time></trkpt>
<trkpt lat="45.361116" lon="-75.821093"><ele>29.0</ele><time>2024-06-15T15:50:00Z</time></trkpt>
<trkpt lat="45.361135" lon="-75.821084"><ele>29.0</ele><time>2024-06-15T15:50:01Z</time></trkpt>
<trkpt lat="45.361157" lon="-75.821075"><ele>29.0</ele><time>2024-06-15T15:50:02Z</time></trkpt>
<trkpt lat="45.361179" lon="-75.821057"><ele>29.0</ele><time>2024-06-15T15:50:03Z</time></trkpt>
<trkpt lat="45.361202" lon="-75.821048"><ele>29.0</ele><time>2024-06-15T15:50:04Z</time></trkpt>
<trkpt lat="45.361221" lon="-75.82103"><ele>30.0</ele><time>2024-06-15T15:50:05Z</time></trkpt>
<trkpt lat="45.361243" lon="-75.821021"><ele>29.0</ele><time>2024-06-15T15:50:06Z</time></trkpt>
<trkpt lat="45.361262" lon="-75.821003"><ele>29.0</ele><time>2024-06-15T15:50:07Z</time></trkpt>
<trkpt lat="45.361287" lon="-75.820985"><ele>29.0</ele><time>2024-06-15T15:50:08Z</time></trkpt>
<trkpt lat="45.361306" lon="-75.820967"><ele>29.0</ele><time>2024-06-15T15:50:09Z</time></trkpt>
<trkpt lat="45.361328" lon="-75.820958"><ele>29.0</ele><time>2024-06-15T15:50:10Z</time></trkpt>
<trkpt lat="45.36135" lon="-75.82094"><ele>29.0</ele><time>2024-06-15T15:50:11Z</time></trkpt>
<trkpt lat="45.361373" lon="-75.820922"><ele>29.0</ele><time>2024-06-15T15:50:12Z</time></trkpt>
<trkpt lat="45.361398" lon="-75.820904"><ele>29.0</ele><time>2024-06-15T15:50:13Z</time></trkpt>
<trkpt lat="45.36142" lon="-75.820887"><ele>29.0</ele><time>2024-06-15T15:50:14Z</time></trkpt>
<trkpt lat="45.361442" lon="-75.820869"><ele>29.0</ele><time>2024-06-15T15:50:15Z</time></trkpt>
<trkpt lat="45.361464" lon="-75.82086"><ele>29.0</ele><time>2024-06-15T15:50:16Z</time></trkpt>
<trkpt lat="45.361487" lon="-75.820842"><ele>29.0</ele><time>2024-06-15T15:50:17Z</time></trkpt>
<trkpt lat="45.361509" lon="-75.820815"><ele>29.0</ele><time>2024-06-15T15:50:18Z</time></trkpt>
<trkpt lat="45.361528" lon="-75.820797"><ele>29.0</ele><time>2024-06-15T15:50:19Z</time></trkpt>
<trkpt lat="45.36155" lon="-75.820779"><ele>29.0</ele><time>2024-06-15T15:50:20Z</time></trkpt>
<trkpt lat="45.361569" lon="-75.820761"><ele>29.0</ele><time>2024-06-15T15:50:21Z</time></trkpt>
<trkpt lat="45.361591" lon="-75.820743"><ele>29.0</ele><time>2024-06-15T15:50:22Z</time></trkpt>
<trkpt lat="45.361613" lon="-75.820725"><ele>29.0</ele><time>2024-06-15T15:50:23Z</time></trkpt>
<trkpt lat="45.361632" lon="-75.820707"><ele>29.0</ele><time>2024-06-15T15:50:24Z</time></trkpt>
<trkpt lat="45.361651" lon="-75.820689"><ele>29.0</ele><time>2024-06-15T15:50:25Z</time></trkpt>
<trkpt lat="45.361673" lon="-75.820671"><ele>30.0</ele><time>2024-06-15T15:50:26Z</time></trkpt>
<trkpt lat="45.361695" lon="-75.820653"><ele>30.0</ele><time>2024-06-15T15:50:27Z</time></trkpt>
<trkpt lat="45.361708" lon="-75.820635"><ele>29.0</ele><time>2024-06-15T15:50:28Z</time></trkpt>
<trkpt lat="45.361727" lon="-75.820608"><ele>29.0</ele><time>2024-06-15T15:50:29Z</time></trkpt>
<trkpt lat="45.361746" lon="-75.82059"><ele>29.0</ele><time>2024-06-15T15:50:30Z</time></trkpt>
<trkpt lat="45.361765" lon="-75.820572"><ele>29.0</ele><time>2024-06-15T15:50:31Z</time></trkpt>
<trkpt lat="45.361784" lon="-75.820554"><ele>29.0</ele><time>2024-06-15T15:50:32Z</time></trkpt>
<trkpt lat="45.361803" lon="-75.820527"><ele>29.0</ele><time>2024-06-15T15:50:33Z</time></trkpt>
<trkpt lat="45.361822" lon="-75.820509"><ele>29.0</ele><time>2024-06-15T15:50:34Z</time></trkpt>
<trkpt lat="45.361841" lon="-75.820491"><ele>29.0</ele><time>2024-06-15T15:50:35Z</time></trkpt>
<trkpt lat="45.361857" lon="-75.820473"><ele>29.0</ele><time>2024-06-15T15:50:36Z</time></trkpt>
<trkpt lat="45.361876" lon="-75.820446"><ele>29.0</ele><time>2024-06-15T15:50:37Z</time></trkpt>
<trkpt lat="45.361892" lon="-75.820428"><ele>29.0</ele><time>2024-06-15T15:50:38Z</time></trkpt>
<trkpt lat="45.361914" lon="-75.820419"><ele>29.0</ele><time>2024-06-15T15:50:39Z</time></trkpt>
<trkpt lat="45.361936" lon="-75.820401"><ele>29.0</ele><time>2024-06-15T15:50:40Z</time></trkpt>
<trkpt lat="45.361955" lon="-75.820392"><ele>28.0</ele><time>2024-06-15T15:50:41Z</time></trkpt>
<trkpt lat="45.361977" lon="-75.820383"><ele>28.0</ele><time>2024-06-15T15:50:42Z</time></trkpt>
<trkpt lat="45.361999" lon="-75.820374"><ele>28.0</ele><time>2024-06-15T15:50:43Z</time></trkpt>
<trkpt lat="45.362022" lon="-75.820365"><ele>28.0</ele><time>2024-06-15T15:50:44Z</time></trkpt>
<trkpt lat="45.362041" lon="-75.820357"><ele>28.0</ele><time>2024-06-15T15:50:45Z</time></trkpt>
<trkpt lat="45.362063" lon="-75.820348"><ele>28.0</ele><time>2024-06-15T15:50:46Z</time></trkpt>
<trkpt lat="45.362085" lon="-75.820339"><ele>28.0</ele><time>2024-06-15T15:50:47Z</time></trkpt>
<trkpt lat="45.362104" lon="-75.82033"><ele>28.0</ele><time>2024-06-15T15:50:48Z</time></trkpt>
<trkpt lat="45.362126" lon="-75.820321"><ele>28.0</ele><time>2024-06-15T15:50:49Z</time></trkpt>
<trkpt lat="45.362148" lon="-75.820312"><ele>27.0</ele><time>2024-06-15T15:50:50Z</time></trkpt>
<trkpt lat="45.36217" lon="-75.820303"><ele>27.0</ele><time>2024-06-15T15:50:51Z</time></trkpt>
<trkpt lat="45.362193" lon="-75.820285"><ele>27.0</ele><time>2024-06-15T15:50:52Z</time></trkpt>
<trkpt lat="45.362212" lon="-75.820276"><ele>27.0</ele><time>2024-06-15T15:50:53Z</time></trkpt>
<trkpt lat="45.362234" lon="-75.820267"><ele>27.0</ele><time>2024-06-15T15:50:54Z</time></trkpt>
<trkpt lat="45.362253" lon="-75.820258"><ele>27.0</ele><time>2024-06-15T15:50:55Z</time></trkpt>
<trkpt lat="45.362275" lon="-75.820249"><ele>27.0</ele><time>2024-06-15T15:50:56Z</time></trkpt>
<trkpt lat="45.3623" lon="-75.820249"><ele>27.0</ele><time>2024-06-15T15:50:57Z</time></trkpt>
<trkpt lat="45.362322" lon="-75.82024"><ele>27.0</ele><time>2024-06-15T15:50:58Z</time></trkpt>
<trkpt lat="45.362345" lon="-75.820231"><ele>27.0</ele><time>2024-06-15T15:50:59Z</time></trkpt>
<trkpt lat="45.362367" lon="-75.820231"><ele>27.0</ele><time>2024-06-15T15:51:00Z</time></trkpt>
<trkpt lat="45.362392" lon="-75.820222"><ele>27.0</ele><time>2024-06-15T15:51:01Z</time></trkpt>
<trkpt lat="45.362417" lon="-75.820222"><ele>27.0</ele><time>2024-06-15T15:51:02Z</time></trkpt>
<trkpt lat="45.36244" lon="-75.820213"><ele>27.0</ele><time>2024-06-15T15:51:03Z</time></trkpt>
<trkpt lat="45.362462" lon="-75.820204"><ele>27.0</ele><time>2024-06-15T15:51:04Z</time></trkpt>
<trkpt lat="45.362487" lon="-75.820204"><ele>27.0</ele><time>2024-06-15T15:51:05Z</time></trkpt>
<trkpt lat="45.362512" lon="-75.820195"><ele>27.0</ele><time>2024-06-15T15:51:06Z</time></trkpt>
<trkpt lat="45.362538" lon="-75.820195"><ele>27.0</ele><time>2024-06-15T15:51:07Z</time></trkpt>
<trkpt lat="45.362563" lon="-75.820195"><ele>27.0</ele><time>2024-06-15T15:51:08Z</time></trkpt>
<trkpt lat="45.362588" lon="-75.820186"><ele>27.0</ele><time>2024-06-15T15:51:09Z</time></trkpt>
<trkpt lat="45.362614" lon="-75.820186"><ele>27.0</ele><time>2024-06-15T15:51:10Z</time></trkpt>
<trkpt lat="45.362639" lon="-75.820177"><ele>27.0</ele><time>2024-06-15T15:51:11Z</time></trkpt>
<trkpt lat="45.362668" lon="-75.820177"><ele>27.0</ele><time>2024-06-15T15:51:12Z</time></trkpt>
<trkpt lat="45.36269" lon="-75.820168"><ele>27.0</ele><time>2024-06-15T15:51:13Z</time></trkpt>
<trkpt lat="45.362715" lon="-75.820159"><ele>27.0</ele><time>2024-06-15T15:51:14Z</time></trkpt>
<trkpt lat="45.362737" lon="-75.820159"><ele>27.0</ele><time>2024-06-15T15:51:15Z</time></trkpt>
<trkpt lat="45.362763" lon="-75.820159"><ele>27.0</ele><time>2024-06-15T15:51:16Z</time></trkpt>
<trkpt lat="45.362785" lon="-75.82015"><ele>27.0</ele><time>2024-06-15T15:51:17Z</time></trkpt>
<trkpt lat="45.36281" lon="-75.82015"><ele>27.0</ele><time>2024-06-15T15:51:18Z</time></trkpt>
<trkpt lat="45.362835" lon="-75.82015"><ele>27.0</ele><time>2024-06-15T15:51:19Z</time></trkpt>
<trkpt lat="45.362858" lon="-75.82015"><ele>27.0</ele><time>2024-06-15T15:51:20Z</time></trkpt>
<trkpt lat="45.362883" lon="-75.820141"><ele>27.0</ele><time>2024-06-15T15:51:21Z</time></trkpt>
<trkpt lat="45.362908" lon="-75.820141"><ele>27.0</ele><time>2024-06-15T15:51:22Z</time></trkpt>
<trkpt lat="45.362934" lon="-75.820141"><ele>27.0</ele><time>2024-06-15T15:51:23Z</time></trkpt>
<trkpt lat="45.362956" lon="-75.820141"><ele>27.0</ele><time>2024-06-15T15:51:24Z</time></trkpt>
<trkpt lat="45.362981" lon="-75.820141"><ele>27.0</ele><time>2024-06-15T15:51:25Z</time></trkpt>
<trkpt lat="45.363006" lon="-75.820132"><ele>27.0</ele><time>2024-06-15T15:51:26Z</time></trkpt>
<trkpt lat="45.363032" lon="-75.820132"><ele>27.0</ele><time>2024-06-15T15:51:27Z</time></trkpt>
<trkpt lat="45.363054" lon="-75.820132"><ele>27.0</ele><time>2024-06-15T15:51:28Z</time></trkpt>
<trkpt lat="45.363079" lon="-75.820132"><ele>27.0</ele><time>2024-06-15T15:51:29Z</time></trkpt>
<trkpt lat="45.363104" lon="-75.820132"><ele>26.0</ele><time>2024-06-15T15:51:30Z</time></trkpt>
<trkpt lat="45.36313" lon="-75.820132"><ele>26.0</ele><time>2024-06-15T15:51:31Z</time></trkpt>
<trkpt lat="45.363155" lon="-75.820132"><ele>26.0</ele><time>2024-06-15T15:51:32Z</time></trkpt>
<trkpt lat="45.36318" lon="-75.820123"><ele>26.0</ele><time>2024-06-15T15:51:33Z</time></trkpt>
<trkpt lat="45.363203" lon="-75.820123"><ele>26.0</ele><time>2024-06-15T15:51:34Z</time></trkpt>
<trkpt lat="45.363228" lon="-75.820123"><ele>26.0</ele><time>2024-06-15T15:51:35Z</time></trkpt>
<trkpt lat="45.36325" lon="-75.820123"><ele>26.0</ele><time>2024-06-15T15:51:36Z</time></trkpt>
<trkpt lat="45.363275" lon="-75.820123"><ele>26.0</ele><time>2024-06-15T15:51:37Z</time></trkpt>
</trkseg></trk></gpx>
