<?xml version="1.0" encoding="UTF-8"?> <gpx xmlns:xsi="http://www.w3.org/2001/XMLSchema-instance" version="1.1" xmlns="http://www.topografix.com/GPX/1/1" creator="Galileo Offline Maps" xsi:schemaLocation="http://www.topografix.com/GPX/1/1 http://www.topografix.com/GPX/1/1/gpx.xsd"><trk><name>Untitled Track</name><desc></desc><type>TrackStyle_ff7f00c8</type><trkseg>
<trkpt lat="45.440713" lon="-75.950293"><ele>27.0</ele><time>2025-06-30T17:38:13Z</time></trkpt>
<trkpt lat="45.440713" lon="-75.950302"><ele>27.0</ele><time>2025-06-30T17:38:14Z</time></trkpt>
<trkpt lat="45.440713" lon="-75.950302"><ele>27.0</ele><time>2025-06-30T17:38:15Z</time></trkpt>
<trkpt lat="45.440713" lon="-75.950302"><ele>27.0</ele><time>2025-06-30T17:38:16Z</time></trkpt>
<trkpt lat="45.440713" lon="-75.950302"><ele>27.0</ele><time>2025-06-30T17:38:17Z</time></trkpt>
<trkpt lat="45.440713" lon="-75.950311"><ele>27.0</ele><time>2025-06-30T17:38:18Z</time></trkpt>
<trkpt lat="45.440716" lon="-75.950311"><ele>27.0</ele><time>2025-06-30T17:38:19Z</time></trkpt>
<trkpt lat="45.440716" lon="-75.950311"><ele>26.0</ele><time>2025-06-30T17:38:20Z</time></trkpt>
<trkpt lat="45.440716" lon="-75.950311"><ele>26.0</ele><time>2025-06-30T17:38:21Z</time></trkpt>
<trkpt lat="45.440716" lon="-75.950311"><ele>26.0</ele><time>2025-06-30T17:38:22Z</time></trkpt>
<trkpt lat="45.440716" lon="-75.950311"><ele>26.0</ele><time>2025-06-30T17:38:22Z</time></trkpt>
<trkpt lat="45.440716" lon="-75.950311"><ele>26.0</ele><time>2025-06-30T17:38:23Z</time></trkpt>
<trkpt lat="45.44071" lon="-75.95032"><ele>26.0</ele><time>2025-06-30T17:38:24Z</time></trkpt>
<trkpt lat="45.440703" lon="-75.95032"><ele>26.0</ele><time>2025-06-30T17:38:25Z</time></trkpt>
<trkpt lat="45.4407" lon="-75.950329"><ele>26.0</ele><time>2025-06-30T17:38:26Z</time></trkpt>
<trkpt lat="45.4407" lon="-75.950329"><ele>26.0</ele><time>2025-06-30T17:38:27Z</time></trkpt>
<trkpt lat="45.4407" lon="-75.950329"><ele>26.0</ele><time>2025-06-30T17:38:27Z</time></trkpt>
<trkpt lat="45.4407" lon="-75.950329"><ele>26.0</ele><time>2025-06-30T17:38:28Z</time></trkpt>
<trkpt lat="45.4407" lon="-75.950338"><ele>26.0</ele><time>2025-06-30T17:38:29Z</time></trkpt>
<trkpt lat="45.4407" lon="-75.950338"><ele>26.0</ele><time>2025-06-30T17:38:30Z</time></trkpt>
<trkpt lat="45.440697" lon="-75.950338"><ele>26.0</ele><time>2025-06-30T17:38:31Z</time></trkpt>
<trkpt lat="45.440697" lon="-75.950338"><ele>26.0</ele><time>2025-06-30T17:38:32Z</time></trkpt>
<trkpt lat="45.440697" lon="-75.950338"><ele>26.0</ele><time>2025-06-30T17:38:32Z</time></trkpt>
<trkpt lat="45.440697" lon="-75.950347"><ele>27.0</ele><time>2025-06-30T17:38:33Z</time></trkpt>
<trkpt lat="45.440697" lon="-75.950347"><ele>26.0</ele><time>2025-06-30T17:38:34Z</time></trkpt>
<trkpt lat="45.440697" lon="-75.950347"><ele>26.0</ele><time>2025-06-30T17:38:35Z</time></trkpt>
<trkpt lat="45.440694" lon="-75.950347"><ele>26.0</ele><time>2025-06-30T17:38:36Z</time></trkpt>
<trkpt lat="45.440694" lon="-75.950356"><ele>27.0</ele><time>2025-06-30T17:38:37Z</time></trkpt>
<trkpt lat="45.440694" lon="-75.950356"><ele>27.0</ele><time>2025-06-30T17:38:38Z</time></trkpt>
<trkpt lat="45.440694" lon="-75.950356"><ele>26.0</ele><time>2025-06-30T17:38:39Z</time></trkpt>
<trkpt lat="45.440691" lon="-75.950356"><ele>26.0</ele><time>2025-06-30T17:38:40Z</time></trkpt>
<trkpt lat="45.440691" lon="-75.950356"><ele>27.0</ele><time>2025-06-30T17:38:41Z</time></trkpt>
<trkpt lat="45.440688" lon="-75.950356"><ele>27.0</ele><time>2025-06-30T17:38:42Z</time></trkpt>
<trkpt lat="45.440688" lon="-75.950365"><ele>27.0</ele><time>2025-06-30T17:38:43Z</time></trkpt>
<trkpt lat="45.440688" lon="-75.950365"><ele>27.0</ele><time>2025-06-30T17:38:44Z</time></trkpt>
<trkpt lat="45.440691" lon="-75.950365"><ele>27.0</ele><time>2025-06-30T17:38:45Z</time></trkpt>
<trkpt lat="45.440694" lon="-75.950365"><ele>27.0</ele><time>2025-06-30T17:38:46Z</time></trkpt>
<trkpt lat="45.440694" lon="-75.950365"><ele>27.0</ele><time>2025-06-30T17:38:47Z</time></trkpt>
<trkpt lat="45.440694" lon="-75.950365"><ele>27.0</ele><time>2025-06-30T17:38:48Z</time></trkpt>
<trkpt lat="45.440691" lon="-75.950365"><ele>26.0</ele><time>2025-06-30T17:38:49Z</time></trkpt>
<trkpt lat="45.440691" lon="-75.950374"><ele>26.0</ele><time>2025-06-30T17:38:50Z</time></trkpt>
<trkpt lat="45.440691" lon="-75.950374"><ele>26.0</ele><time>2025-06-30T17:38:51Z</time></trkpt>
<trkpt lat="45.440691" lon="-75.950374"><ele>26.0</ele><time>2025-06-30T17:38:51Z</time></trkpt>
<trkpt lat="45.440691" lon="-75.950374"><ele>26.0</ele><time>2025-06-30T17:38:52Z</time></trkpt>
<trkpt lat="45.440691" lon="-75.950374"><ele>27.0</ele><time>2025-06-30T17:38:53Z</time></trkpt>
<trkpt lat="45.440691" lon="-75.950374"><ele>27.0</ele><time>2025-06-30T17:38:54Z</time></trkpt>
<trkpt lat="45.440691" lon="-75.950383"><ele>27.0</ele><time>2025-06-30T17:38:55Z</time></trkpt>
<trkpt lat="45.440691" lon="-75.950383"><ele>27.0</ele><time>2025-06-30T17:38:56Z</time></trkpt>
<trkpt lat="45.440691" lon="-75.950383"><ele>27.0</ele><time>2025-06-30T17:38:57Z</time></trkpt>
<trkpt lat="45.4407" lon="-75.950374"><ele>27.0</ele><time>2025-06-30T17:38:58Z</time></trkpt>
<trkpt lat="45.440707" lon="-75.950374"><ele>27.0</ele><time>2025-06-30T17:38:59Z</time></trkpt>
<trkpt lat="45.44071" lon="-75.950374"><ele>27.0</ele><time>2025-06-30T17:39:00Z</time></trkpt>
<trkpt lat="45.440713" lon="-75.950374"><ele>27.0</ele><time>2025-06-30T17:39:01Z</time></trkpt>
<trkpt lat="45.44071" lon="-75.950374"><ele>27.0</ele><time>2025-06-30T17:39:02Z</time></trkpt>
<trkpt lat="45.44071" lon="-75.950374"><ele>27.0</ele><time>2025-06-30T17:39:03Z</time></trkpt>
<trkpt lat="45.440707" lon="-75.950365"><ele>27.0</ele><time>2025-06-30T17:39:04Z</time></trkpt>
<trkpt lat="45.440703" lon="-75.950365"><ele>27.0</ele><time>2025-06-30T17:39:05Z</time></trkpt>
<trkpt lat="45.440703" lon="-75.950365"><ele>27.0</ele><time>2025-06-30T17:39:06Z</time></trkpt>
<trkpt lat="45.440703" lon="-75.950365"><ele>27.0</ele><time>2025-06-30T17:39:07Z</time></trkpt>
<trkpt lat="45.440703" lon="-75.950365"><ele>27.0</ele><time>2025-06-30T17:39:08Z</time></trkpt>
<trkpt lat="45.440703" lon="-75.950356"><ele>27.0</ele><time>2025-06-30T17:39:09Z</time></trkpt>
<trkpt lat="45.440703" lon="-75.950356"><ele>27.0</ele><time>2025-06-30T17:39:10Z</time></trkpt>
<trkpt lat="45.440703" lon="-75.950356"><ele>27.0</ele><time>2025-06-30T17:39:11Z</time></trkpt>
<trkpt lat="45.440707" lon="-75.950356"><ele>27.0</ele><time>2025-06-30T17:39:12Z</time></trkpt>
<trkpt lat="45.440707" lon="-75.950347"><ele>27.0</ele><time>2025-06-30T17:39:13Z</time></trkpt>
<trkpt lat="45.440707" lon="-75.950347"><ele>27.0</ele><time>2025-06-30T17:39:14Z</time></trkpt>
<trkpt lat="45.44071" lon="-75.950347"><ele>27.0</ele><time>2025-06-30T17:39:15Z</time></trkpt>
<trkpt lat="45.44071" lon="-75.950338"><ele>27.0</ele><time>2025-06-30T17:39:16Z</time></trkpt>
<trkpt lat="45.440713" lon="-75.950338"><ele>27.0</ele><time>2025-06-30T17:39:17Z</time></trkpt>
<trkpt lat="45.440713" lon="-75.950338"><ele>27.0</ele><time>2025-06-30T17:39:17Z</time></trkpt>
<trkpt lat="45.440713" lon="-75.950338"><ele>27.0</ele><time>2025-06-30T17:39:18Z</time></trkpt>
<trkpt lat="45.440713" lon="-75.950338"><ele>27.0</ele><time>2025-06-30T17:39:18Z</time></trkpt>
<trkpt lat="45.440713" lon="-75.950338"><ele>27.0</ele><time>2025-06-30T17:39:19Z</time></trkpt>
<trkpt lat="45.440713" lon="-75.950329"><ele>26.0</ele><time>2025-06-30T17:39:20Z</time></trkpt>
<trkpt lat="45.440713" lon="-75.950329"><ele>27.0</ele><time>2025-06-30T17:39:21Z</time></trkpt>
<trkpt lat="45.440713" lon="-75.950329"><ele>26.0</ele><time>2025-06-30T17:39:22Z</time></trkpt>
<trkpt lat="45.440716" lon="-75.950329"><ele>26.0</ele><time>2025-06-30T17:39:23Z</time></trkpt>
<trkpt lat="45.440716" lon="-75.95032"><ele>26.0</ele><time>2025-06-30T17:39:24Z</time></trkpt>
<trkpt lat="45.440716" lon="-75.95032"><ele>26.0</ele><time>2025-06-30T17:39:25Z</time></trkpt>
<trkpt lat="45.440713" lon="-75.95032"><ele>26.0</ele><time>2025-06-30T17:39:26Z</time></trkpt>
<trkpt lat="45.440713" lon="-75.95032"><ele>26.0</ele><time>2025-06-30T17:39:27Z</time></trkpt>
<trkpt lat="45.440713" lon="-75.950311"><ele>26.0</ele><time>2025-06-30T17:39:28Z</time></trkpt>
<trkpt lat="45.440713" lon="-75.950311"><ele>26.0</ele><time>2025-06-30T17:39:29Z</time></trkpt>
<trkpt lat="45.440713" lon="-75.950311"><ele>26.0</ele><time>2025-06-30T17:39:30Z</time></trkpt>
<trkpt lat="45.440713" lon="-75.950311"><ele>27.0</ele><time>2025-06-30T17:39:31Z</time></trkpt>
<trkpt lat="45.440716" lon="-75.950311"><ele>27.0</ele><time>2025-06-30T17:39:32Z</time></trkpt>
<trkpt lat="45.440716" lon="-75.950311"><ele>27.0</ele><time>2025-06-30T17:39:32Z</time></trkpt>
<trkpt lat="45.440716" lon="-75.950302"><ele>27.0</ele><time>2025-06-30T17:39:33Z</time></trkpt>
<trkpt lat="45.440716" lon="-75.950302"><ele>27.0</ele><time>2025-06-30T17:39:34Z</time></trkpt>
<trkpt lat="45.440719" lon="-75.950302"><ele>27.0</ele><time>2025-06-30T17:39:35Z</time></trkpt>
<trkpt lat="45.440719" lon="-75.950293"><ele>27.0</ele><time>2025-06-30T17:39:36Z</time></trkpt>
<trkpt lat="45.440722" lon="-75.950293"><ele>27.0</ele><time>2025-06-30T17:39:37Z</time></trkpt>
<trkpt lat="45.440722" lon="-75.950293"><ele>27.0</ele><time>2025-06-30T17:39:38Z</time></trkpt>
<trkpt lat="45.440722" lon="-75.950293"><ele>27.0</ele><time>2025-06-30T17:39:38Z</time></trkpt>
<trkpt lat="45.440726" lon="-75.950284"><ele>27.0</ele><time>2025-06-30T17:39:39Z</time></trkpt>
<trkpt lat="45.440726" lon="-75.950284"><ele>27.0</ele><time>2025-06-30T17:39:40Z</time></trkpt>
<trkpt lat="45.440726" lon="-75.950284"><ele>27.0</ele><time>2025-06-30T17:39:41Z</time></trkpt>
<trkpt lat="45.440726" lon="-75.950284"><ele>27.0</ele><time>2025-06-30T17:39:42Z</time></trkpt>
<trkpt lat="45.440726" lon="-75.950284"><ele>27.0</ele><time>2025-06-30T17:39:43Z</time></trkpt>
<trkpt lat="45.440726" lon="-75.950284"><ele>27.0</ele><time>2025-06-30T17:39:44Z</time></trkpt>
<trkpt lat="45.440729" lon="-75.950284"><ele>27.0</ele><time>2025-06-30T17:39:45Z</time></trkpt>
<trkpt lat="45.440729" lon="-75.950284"><ele>27.0</ele><time>2025-06-30T17:39:47Z</time></trkpt>
<trkpt lat="45.440729" lon="-75.950275"><ele>27.0</ele><time>2025-06-30T17:39:47Z</time></trkpt>
<trkpt lat="45.440729" lon="-75.950275"><ele>27.0</ele><time>2025-06-30T17:39:48Z</time></trkpt>
<trkpt lat="45.440729" lon="-75.950275"><ele>27.0</ele><time>2025-06-30T17:39:48Z</time></trkpt>
<trkpt lat="45.440732" lon="-75.950275"><ele>26.0</ele><time>2025-06-30T17:39:49Z</time></trkpt>
<trkpt lat="45.440732" lon="-75.950275"><ele>27.0</ele><time>2025-06-30T17:39:50Z</time></trkpt>
<trkpt lat="45.440732" lon="-75.950275"><ele>27.0</ele><time>2025-06-30T17:39:51Z</time></trkpt>
<trkpt lat="45.440732" lon="-75.950266"><ele>27.0</ele><time>2025-06-30T17:39:52Z</time></trkpt>
<trkpt lat="45.440732" lon="-75.950266"><ele>27.0</ele><time>2025-06-30T17:39:53Z</time></trkpt>
<trkpt lat="45.440735" lon="-75.950266"><ele>27.0</ele><time>2025-06-30T17:39:54Z</time></trkpt>
<trkpt lat="45.440735" lon="-75.950266"><ele>27.0</ele><time>2025-06-30T17:39:55Z</time></trkpt>
<trkpt lat="45.440738" lon="-75.950266"><ele>27.0</ele><time>2025-06-30T17:39:56Z</time></trkpt>
<trkpt lat="45.440738" lon="-75.950266"><ele>27.0</ele><time>2025-06-30T17:39:57Z</time></trkpt>
<trkpt lat="45.440738" lon="-75.950266"><ele>26.0</ele><time>2025-06-30T17:39:58Z</time></trkpt>
<trkpt lat="45.440738" lon="-75.950266"><ele>26.0</ele><time>2025-06-30T17:39:59Z</time></trkpt>
<trkpt lat="45.440738" lon="-75.950257"><ele>27.0</ele><time>2025-06-30T17:40:00Z</time></trkpt>
<trkpt lat="45.440738" lon="-75.950257"><ele>27.0</ele><time>2025-06-30T17:40:01Z</time></trkpt>
<trkpt lat="45.440735" lon="-75.950257"><ele>27.0</ele><time>2025-06-30T17:40:02Z</time></trkpt>
<trkpt lat="45.440735" lon="-75.950257"><ele>27.0</ele><time>2025-06-30T17:40:03Z</time></trkpt>
<trkpt lat="45.440735" lon="-75.950257"><ele>27.0</ele><time>2025-06-30T17:40:03Z</time></trkpt>
<trkpt lat="45.440735" lon="-75.950257"><ele>27.0</ele><time>2025-06-30T17:40:04Z</time></trkpt>
<trkpt lat="45.440735" lon="-75.950257"><ele>27.0</ele><time>2025-06-30T17:40:05Z</time></trkpt>
<trkpt lat="45.440732" lon="-75.950257"><ele>27.0</ele><time>2025-06-30T17:40:06Z</time></trkpt>
<trkpt lat="45.440732" lon="-75.950257"><ele>27.0</ele><time>2025-06-30T17:40:07Z</time></trkpt>
<trkpt lat="45.440729" lon="-75.950266"><ele>27.0</ele><time>2025-06-30T17:40:08Z</time></trkpt>
<trkpt lat="45.440729" lon="-75.950266"><ele>27.0</ele><time>2025-06-30T17:40:09Z</time></trkpt>
<trkpt lat="45.440726" lon="-75.950266"><ele>27.0</ele><time>2025-06-30T17:40:10Z</time></trkpt>
<trkpt lat="45.440726" lon="-75.950266"><ele>27.0</ele><time>2025-06-30T17:40:11Z</time></trkpt>
<trkpt lat="45.440722" lon="-75.950266"><ele>27.0</ele><time>2025-06-30T17:40:12Z</time></trkpt>
<trkpt lat="45.440719" lon="-75.950275"><ele>27.0</ele><time>2025-06-30T17:40:13Z</time></trkpt>
<trkpt lat="45.440719" lon="-75.950275"><ele>27.0</ele><time>2025-06-30T17:40:14Z</time></trkpt>
<trkpt lat="45.440716" lon="-75.950275"><ele>27.0</ele><time>2025-06-30T17:40:15Z</time></trkpt>
<trkpt lat="45.440716" lon="-75.950275"><ele>27.0</ele><time>2025-06-30T17:40:16Z</time></trkpt>
<trkpt lat="45.440716" lon="-75.950284"><ele>27.0</ele><time>2025-06-30T17:40:17Z</time></trkpt>
<trkpt lat="45.440713" lon="-75.950284"><ele>27.0</ele><time>2025-06-30T17:40:18Z</time></trkpt>
<trkpt lat="45.440713" lon="-75.950284"><ele>27.0</ele><time>2025-06-30T17:40:19Z</time></trkpt>
<trkpt lat="45.440713" lon="-75.950284"><ele>27.0</ele><time>2025-06-30T17:40:20Z</time></trkpt>
<trkpt lat="45.44071" lon="-75.950284"><ele>27.0</ele><time>2025-06-30T17:40:21Z</time></trkpt>
<trkpt lat="45.44071" lon="-75.950284"><ele>27.0</ele><time>2025-06-30T17:40:22Z</time></trkpt>
<trkpt lat="45.44071" lon="-75.950284"><ele>27.0</ele><time>2025-06-30T17:40:23Z</time></trkpt>
<trkpt lat="45.44071" lon="-75.950284"><ele>27.0</ele><time>2025-06-30T17:40:23Z</time></trkpt>
<trkpt lat="45.44071" lon="-75.950284"><ele>27.0</ele><time>2025-06-30T17:40:24Z</time></trkpt>
<trkpt lat="45.44071" lon="-75.950284"><ele>27.0</ele><time>2025-06-30T17:40:25Z</time></trkpt>
<trkpt lat="45.44071" lon="-75.950293"><ele>27.0</ele><time>2025-06-30T17:40:26Z</time></trkpt>
<trkpt lat="45.44071" lon="-75.950293"><ele>27.0</ele><time>2025-06-30T17:40:27Z</time></trkpt>
<trkpt lat="45.44071" lon="-75.950293"><ele>27.0</ele><time>2025-06-30T17:40:28Z</time></trkpt>
<trkpt lat="45.440707" lon="-75.950302"><ele>27.0</ele><time>2025-06-30T17:40:29Z</time></trkpt>
<trkpt lat="45.440707" lon="-75.950311"><ele>27.0</ele><time>2025-06-30T17:40:30Z</time></trkpt>
<trkpt lat="45.440707" lon="-75.950311"><ele>27.0</ele><time>2025-06-30T17:40:31Z</time></trkpt>
<trkpt lat="45.440707" lon="-75.950311"><ele>27.0</ele><time>2025-06-30T17:40:32Z</time></trkpt>
<trkpt lat="45.440707" lon="-75.95032"><ele>27.0</ele><time>2025-06-30T17:40:33Z</time></trkpt>
<trkpt lat="45.440707" lon="-75.950311"><ele>27.0</ele><time>2025-06-30T17:40:34Z</time></trkpt>
<trkpt lat="45.440703" lon="-75.950311"><ele>27.0</ele><time>2025-06-30T17:40:35Z</time></trkpt>
<trkpt lat="45.440703" lon="-75.950311"><ele>27.0</ele><time>2025-06-30T17:40:36Z</time></trkpt>
<trkpt lat="45.440703" lon="-75.95032"><ele>27.0</ele><time>2025-06-30T17:40:37Z</time></trkpt>
<trkpt lat="45.440703" lon="-75.95032"><ele>27.0</ele><time>2025-06-30T17:40:38Z</time></trkpt>
<trkpt lat="45.440707" lon="-75.95032"><ele>27.0</ele><time>2025-06-30T17:40:38Z</time></trkpt>
<trkpt lat="45.440707" lon="-75.950329"><ele>28.0</ele><time>2025-06-30T17:40:39Z</time></trkpt>
<trkpt lat="45.440707" lon="-75.950329"><ele>28.0</ele><time>2025-06-30T17:40:40Z</time></trkpt>
<trkpt lat="45.44071" lon="-75.950338"><ele>28.0</ele><time>2025-06-30T17:40:41Z</time></trkpt>
<trkpt lat="45.440713" lon="-75.950338"><ele>28.0</ele><time>2025-06-30T17:40:42Z</time></trkpt>
<trkpt lat="45.440713" lon="-75.950347"><ele>28.0</ele><time>2025-06-30T17:40:43Z</time></trkpt>
<trkpt lat="45.44071" lon="-75.950347"><ele>29.0</ele><time>2025-06-30T17:40:44Z</time></trkpt>
<trkpt lat="45.44071" lon="-75.950347"><ele>29.0</ele><time>2025-06-30T17:40:45Z</time></trkpt>
<trkpt lat="45.44071" lon="-75.950347"><ele>28.0</ele><time>2025-06-30T17:40:46Z</time></trkpt>
<trkpt lat="45.440707" lon="-75.950356"><ele>27.0</ele><time>2025-06-30T17:40:47Z</time></trkpt>
<trkpt lat="45.440707" lon="-75.950356"><ele>27.0</ele><time>2025-06-30T17:40:48Z</time></trkpt>
<trkpt lat="45.440707" lon="-75.950356"><ele>27.0</ele><time>2025-06-30T17:40:49Z</time></trkpt>
<trkpt lat="45.440707" lon="-75.950356"><ele>27.0</ele><time>2025-06-30T17:40:50Z</time></trkpt>
<trkpt lat="45.440707" lon="-75.950356"><ele>27.0</ele><time>2025-06-30T17:40:51Z</time></trkpt>
<trkpt lat="45.440707" lon="-75.950365"><ele>27.0</ele><time>2025-06-30T17:40:52Z</time></trkpt>
<trkpt lat="45.440707" lon="-75.950365"><ele>27.0</ele><time>2025-06-30T17:40:53Z</time></trkpt>
<trkpt lat="45.440703" lon="-75.950365"><ele>27.0</ele><time>2025-06-30T17:40:54Z</time></trkpt>
<trkpt lat="45.440703" lon="-75.950365"><ele>27.0</ele><time>2025-06-30T17:40:55Z</time></trkpt>
<trkpt lat="45.4407" lon="-75.950365"><ele>27.0</ele><time>2025-06-30T17:40:56Z</time></trkpt>
<trkpt lat="45.4407" lon="-75.950374"><ele>27.0</ele><time>2025-06-30T17:40:57Z</time></trkpt>
<trkpt lat="45.440697" lon="-75.950374"><ele>27.0</ele><time>2025-06-30T17:40:58Z</time></trkpt>
<trkpt lat="45.440694" lon="-75.950374"><ele>27.0</ele><time>2025-06-30T17:40:59Z</time></trkpt>
<trkpt lat="45.440694" lon="-75.950383"><ele>27.0</ele><time>2025-06-30T17:41:00Z</time></trkpt>
<trkpt lat="45.440694" lon="-75.950383"><ele>27.0</ele><time>2025-06-30T17:41:01Z</time></trkpt>
<trkpt lat="45.440694" lon="-75.950383"><ele>27.0</ele><time>2025-06-30T17:41:02Z</time></trkpt>
<trkpt lat="45.440694" lon="-75.950383"><ele>27.0</ele><time>2025-06-30T17:41:03Z</time></trkpt>
<trkpt lat="45.440691" lon="-75.950391"><ele>27.0</ele><time>2025-06-30T17:41:04Z</time></trkpt>
<trkpt lat="45.440691" lon="-75.950391"><ele>27.0</ele><time>2025-06-30T17:41:05Z</time></trkpt>
<trkpt lat="45.440691" lon="-75.950391"><ele>27.0</ele><time>2025-06-30T17:41:06Z</time></trkpt>
<trkpt lat="45.440691" lon="-75.9504"><ele>27.0</ele><time>2025-06-30T17:41:07Z</time></trkpt>
<trkpt lat="45.440691" lon="-75.9504"><ele>27.0</ele><time>2025-06-30T17:41:08Z</time></trkpt>
<trkpt lat="45.440691" lon="-75.9504"><ele>27.0</ele><time>2025-06-30T17:41:09Z</time></trkpt>
<trkpt lat="45.440691" lon="-75.9504"><ele>27.0</ele><time>2025-06-30T17:41:10Z</time></trkpt>
<trkpt lat="45.440691" lon="-75.9504"><ele>27.0</ele><time>2025-06-30T17:41:11Z</time></trkpt>
<trkpt lat="45.440691" lon="-75.9504"><ele>27.0</ele><time>2025-06-30T17:41:12Z</time></trkpt>
<trkpt lat="45.440691" lon="-75.950409"><ele>27.0</ele><time>2025-06-30T17:41:13Z</time></trkpt>
<trkpt lat="45.440691" lon="-75.950409"><ele>27.0</ele><time>2025-06-30T17:41:13Z</time></trkpt>
<trkpt lat="45.440691" lon="-75.950409"><ele>27.0</ele><time>2025-06-30T17:41:14Z</time></trkpt>
<trkpt lat="45.440688" lon="-75.950409"><ele>27.0</ele><time>2025-06-30T17:41:15Z</time></trkpt>
<trkpt lat="45.440688" lon="-75.950409"><ele>27.0</ele><time>2025-06-30T17:41:16Z</time></trkpt>
<trkpt lat="45.440688" lon="-75.950409"><ele>27.0</ele><time>2025-06-30T17:41:17Z</time></trkpt>
<trkpt lat="45.440688" lon="-75.950409"><ele>27.0</ele><time>2025-06-30T17:41:18Z</time></trkpt>
<trkpt lat="45.440688" lon="-75.950409"><ele>27.0</ele><time>2025-06-30T17:41:18Z</time></trkpt>
<trkpt lat="45.440688" lon="-75.950409"><ele>27.0</ele><time>2025-06-30T17:41:19Z</time></trkpt>
<trkpt lat="45.440688" lon="-75.950409"><ele>27.0</ele><time>2025-06-30T17:41:20Z</time></trkpt>
<trkpt lat="45.440685" lon="-75.950409"><ele>27.0</ele><time>2025-06-30T17:41:21Z</time></trkpt>
<trkpt lat="45.440685" lon="-75.950409"><ele>27.0</ele><time>2025-06-30T17:41:22Z</time></trkpt>
<trkpt lat="45.440685" lon="-75.950409"><ele>27.0</ele><time>2025-06-30T17:41:23Z</time></trkpt>
<trkpt lat="45.440685" lon="-75.950409"><ele>27.0</ele><time>2025-06-30T17:41:23Z</time></trkpt>
<trkpt lat="45.440685" lon="-75.950409"><ele>27.0</ele><time>2025-06-30T17:41:24Z</time></trkpt>
<trkpt lat="45.440685" lon="-75.950409"><ele>27.0</ele><time>2025-06-30T17:41:25Z</time></trkpt>
<trkpt lat="45.440685" lon="-75.950409"><ele>27.0</ele><time>2025-06-30T17:41:26Z</time></trkpt>
<trkpt lat="45.440685" lon="-75.950409"><ele>27.0</ele><time>2025-06-30T17:41:27Z</time></trkpt>
<trkpt lat="45.440685" lon="-75.950409"><ele>27.0</ele><time>2025-06-30T17:41:28Z</time></trkpt>
<trkpt lat="45.440685" lon="-75.950409"><ele>27.0</ele><time>2025-06-30T17:41:28Z</time></trkpt>
<trkpt lat="45.440685" lon="-75.950409"><ele>27.0</ele><time>2025-06-30T17:41:29Z</time></trkpt>
<trkpt lat="45.440685" lon="-75.950409"><ele>27.0</ele><time>2025-06-30T17:41:30Z</time></trkpt>
<trkpt lat="45.440685" lon="-75.950409"><ele>27.0</ele><time>2025-06-30T17:41:31Z</time></trkpt>
<trkpt lat="45.440685" lon="-75.950409"><ele>27.0</ele><time>2025-06-30T17:41:32Z</time></trkpt>
<trkpt lat="45.440685" lon="-75.950409"><ele>27.0</ele><time>2025-06-30T17:41:33Z</time></trkpt>
<trkpt lat="45.440685" lon="-75.950409"><ele>27.0</ele><time>2025-06-30T17:41:34Z</time></trkpt>
<trkpt lat="45.440685" lon="-75.950409"><ele>27.0</ele><time>2025-06-30T17:41:35Z</time></trkpt>
<trkpt lat="45.440685" lon="-75.950409"><ele>27.0</ele><time>2025-06-30T17:41:36Z</time></trkpt>
<trkpt lat="45.440685" lon="-75.950409"><ele>27.0</ele><time>2025-06-30T17:41:37Z</time></trkpt>
<trkpt lat="45.440685" lon="-75.950409"><ele>27.0</ele><time>2025-06-30T17:41:38Z</time></trkpt>
<trkpt lat="45.440685" lon="-75.950409"><ele>27.0</ele><time>2025-06-30T17:41:38Z</time></trkpt>
<trkpt lat="45.440685" lon="-75.950409"><ele>27.0</ele><time>2025-06-30T17:41:39Z</time></trkpt>
<trkpt lat="45.440688" lon="-75.950409"><ele>27.0</ele><time>2025-06-30T17:41:40Z</time></trkpt>
<trkpt lat="45.440688" lon="-75.950409"><ele>27.0</ele><time>2025-06-30T17:41:41Z</time></trkpt>
<trkpt lat="45.440688" lon="-75.950409"><ele>27.0</ele><time>2025-06-30T17:41:42Z</time></trkpt>
<trkpt lat="45.440688" lon="-75.950409"><ele>27.0</ele><time>2025-06-30T17:41:43Z</time></trkpt>
<trkpt lat="45.440688" lon="-75.950409"><ele>27.0</ele><time>2025-06-30T17:41:43Z</time></trkpt>
<trkpt lat="45.440688" lon="-75.950409"><ele>27.0</ele><time>2025-06-30T17:41:44Z</time></trkpt>
<trkpt lat="45.440688" lon="-75.950409"><ele>27.0</ele><time>2025-06-30T17:41:45Z</time></trkpt>
<trkpt lat="45.440688" lon="-75.9504"><ele>27.0</ele><time>2025-06-30T17:41:47Z</time></trkpt>
<trkpt lat="45.440688" lon="-75.9504"><ele>27.0</ele><time>2025-06-30T17:41:47Z</time></trkpt>
<trkpt lat="45.440688" lon="-75.9504"><ele>27.0</ele><time>2025-06-30T17:41:48Z</time></trkpt>
<trkpt lat="45.440691" lon="-75.9504"><ele>27.0</ele><time>2025-06-30T17:41:48Z</time></trkpt>
<trkpt lat="45.440691" lon="-75.9504"><ele>27.0</ele><time>2025-06-30T17:41:49Z</time></trkpt>
<trkpt lat="45.440691" lon="-75.9504"><ele>27.0</ele><time>2025-06-30T17:41:50Z</time></trkpt>
<trkpt lat="45.440691" lon="-75.9504"><ele>27.0</ele><time>2025-06-30T17:41:51Z</time></trkpt>
<trkpt lat="45.440691" lon="-75.9504"><ele>27.0</ele><time>2025-06-30T17:41:52Z</time></trkpt>
<trkpt lat="45.440691" lon="-75.9504"><ele>27.0</ele><time>2025-06-30T17:41:53Z</time></trkpt>
<trkpt lat="45.440691" lon="-75.9504"><ele>27.0</ele><time>2025-06-30T17:41:54Z</time></trkpt>
<trkpt lat="45.440691" lon="-75.9504"><ele>27.0</ele><time>2025-06-30T17:41:55Z</time></trkpt>
<trkpt lat="45.440691" lon="-75.9504"><ele>27.0</ele><time>2025-06-30T17:41:56Z</time></trkpt>
<trkpt lat="45.440691" lon="-75.9504"><ele>27.0</ele><time>2025-06-30T17:41:57Z</time></trkpt>
<trkpt lat="45.440691" lon="-75.9504"><ele>27.0</ele><time>2025-06-30T17:41:58Z</time></trkpt>
<trkpt lat="45.440691" lon="-75.9504"><ele>27.0</ele><time>2025-06-30T17:41:58Z</time></trkpt>
<trkpt lat="45.440691" lon="-75.9504"><ele>27.0</ele><time>2025-06-30T17:41:59Z</time></trkpt>
<trkpt lat="45.440691" lon="-75.9504"><ele>27.0</ele><time>2025-06-30T17:42:00Z</time></trkpt>
<trkpt lat="45.440691" lon="-75.9504"><ele>27.0</ele><time>2025-06-30T17:42:01Z</time></trkpt>
<trkpt lat="45.440691" lon="-75.9504"><ele>27.0</ele><time>2025-06-30T17:42:02Z</time></trkpt>
<trkpt lat="45.440691" lon="-75.950391"><ele>27.0</ele><time>2025-06-30T17:42:03Z</time></trkpt>
<trkpt lat="45.440691" lon="-75.950391"><ele>27.0</ele><time>2025-06-30T17:42:03Z</time></trkpt>
<trkpt lat="45.440691" lon="-75.950391"><ele>27.0</ele><time>2025-06-30T17:42:04Z</time></trkpt>
<trkpt lat="45.440691" lon="-75.950391"><ele>27.0</ele><time>2025-06-30T17:42:05Z</time></trkpt>
<trkpt lat="45.440694" lon="-75.950391"><ele>27.0</ele><time>2025-06-30T17:42:06Z</time></trkpt>
<trkpt lat="45.440694" lon="-75.950391"><ele>27.0</ele><time>2025-06-30T17:42:07Z</time></trkpt>
<trkpt lat="45.440694" lon="-75.950391"><ele>27.0</ele><time>2025-06-30T17:42:08Z</time></trkpt>
<trkpt lat="45.440694" lon="-75.950391"><ele>27.0</ele><time>2025-06-30T17:42:08Z</time></trkpt>
<trkpt lat="45.440694" lon="-75.950391"><ele>27.0</ele><time>2025-06-30T17:42:09Z</time></trkpt>
<trkpt lat="45.440694" lon="-75.950391"><ele>27.0</ele><time>2025-06-30T17:42:10Z</time></trkpt>
<trkpt lat="45.440694" lon="-75.950391"><ele>27.0</ele><time>2025-06-30T17:42:11Z</time></trkpt>
<trkpt lat="45.440694" lon="-75.950383"><ele>27.0</ele><time>2025-06-30T17:42:12Z</time></trkpt>
<trkpt lat="45.440694" lon="-75.950383"><ele>27.0</ele><time>2025-06-30T17:42:13Z</time></trkpt>
<trkpt lat="45.440694" lon="-75.950383"><ele>27.0</ele><time>2025-06-30T17:42:13Z</time></trkpt>
<trkpt lat="45.440694" lon="-75.950383"><ele>27.0</ele><time>2025-06-30T17:42:14Z</time></trkpt>
<trkpt lat="45.440697" lon="-75.950383"><ele>27.0</ele><time>2025-06-30T17:42:15Z</time></trkpt>
<trkpt lat="45.440697" lon="-75.950383"><ele>27.0</ele><time>2025-06-30T17:42:16Z</time></trkpt>
<trkpt lat="45.4407" lon="-75.950374"><ele>27.0</ele><time>2025-06-30T17:42:17Z</time></trkpt>
<trkpt lat="45.4407" lon="-75.950374"><ele>27.0</ele><time>2025-06-30T17:42:18Z</time></trkpt>
<trkpt lat="45.440703" lon="-75.950374"><ele>27.0</ele><time>2025-06-30T17:42:18Z</time></trkpt>
<trkpt lat="45.440703" lon="-75.950374"><ele>27.0</ele><time>2025-06-30T17:42:19Z</time></trkpt>
<trkpt lat="45.440707" lon="-75.950374"><ele>27.0</ele><time>2025-06-30T17:42:20Z</time></trkpt>
<trkpt lat="45.440707" lon="-75.950374"><ele>27.0</ele><time>2025-06-30T17:42:21Z</time></trkpt>
<trkpt lat="45.440707" lon="-75.950374"><ele>27.0</ele><time>2025-06-30T17:42:22Z</time></trkpt>
<trkpt lat="45.440707" lon="-75.950374"><ele>27.0</ele><time>2025-06-30T17:42:23Z</time></trkpt>
<trkpt lat="45.440707" lon="-75.950374"><ele>27.0</ele><time>2025-06-30T17:42:23Z</time></trkpt>
<trkpt lat="45.440707" lon="-75.950374"><ele>27.0</ele><time>2025-06-30T17:42:24Z</time></trkpt>
<trkpt lat="45.440707" lon="-75.950365"><ele>27.0</ele><time>2025-06-30T17:42:25Z</time></trkpt>
<trkpt lat="45.44071" lon="-75.950365"><ele>27.0</ele><time>2025-06-30T17:42:26Z</time></trkpt>
<trkpt lat="45.44071" lon="-75.950365"><ele>27.0</ele><time>2025-06-30T17:42:27Z</time></trkpt>
<trkpt lat="45.44071" lon="-75.950365"><ele>27.0</ele><time>2025-06-30T17:42:28Z</time></trkpt>
<trkpt lat="45.44071" lon="-75.950365"><ele>27.0</ele><time>2025-06-30T17:42:29Z</time></trkpt>
<trkpt lat="45.44071" lon="-75.950365"><ele>27.0</ele><time>2025-06-30T17:42:30Z</time></trkpt>
<trkpt lat="45.440707" lon="-75.950365"><ele>27.0</ele><time>2025-06-30T17:42:31Z</time></trkpt>
<trkpt lat="45.440707" lon="-75.950365"><ele>27.0</ele><time>2025-06-30T17:42:32Z</time></trkpt>
<trkpt lat="45.440707" lon="-75.950365"><ele>27.0</ele><time>2025-06-30T17:42:33Z</time></trkpt>
<trkpt lat="45.440707" lon="-75.950365"><ele>27.0</ele><time>2025-06-30T17:42:34Z</time></trkpt>
<trkpt lat="45.440707" lon="-75.950365"><ele>27.0</ele><time>2025-06-30T17:42:35Z</time></trkpt>
<trkpt lat="45.440707" lon="-75.950365"><ele>27.0</ele><time>2025-06-30T17:42:36Z</time></trkpt>
<trkpt lat="45.440707" lon="-75.950356"><ele>27.0</ele><time>2025-06-30T17:42:37Z</time></trkpt>
<trkpt lat="45.44071" lon="-75.950356"><ele>27.0</ele><time>2025-06-30T17:42:38Z</time></trkpt>
<trkpt lat="45.44071" lon="-75.950356"><ele>27.0</ele><time>2025-06-30T17:42:39Z</time></trkpt>
<trkpt lat="45.44071" lon="-75.950347"><ele>27.0</ele><time>2025-06-30T17:42:40Z</time></trkpt>
<trkpt lat="45.44071" lon="-75.950347"><ele>27.0</ele><time>2025-06-30T17:42:41Z</time></trkpt>
<trkpt lat="45.44071" lon="-75.950338"><ele>27.0</ele><time>2025-06-30T17:42:42Z</time></trkpt>
<trkpt lat="45.44071" lon="-75.950338"><ele>27.0</ele><time>2025-06-30T17:42:43Z</time></trkpt>
<trkpt lat="45.44071" lon="-75.950338"><ele>27.0</ele><time>2025-06-30T17:42:43Z</time></trkpt>
<trkpt lat="45.44071" lon="-75.950338"><ele>27.0</ele><time>2025-06-30T17:42:44Z</time></trkpt>
<trkpt lat="45.44071" lon="-75.950329"><ele>27.0</ele><time>2025-06-30T17:42:45Z</time></trkpt>
<trkpt lat="45.44071" lon="-75.950329"><ele>27.0</ele><time>2025-06-30T17:42:46Z</time></trkpt>
<trkpt lat="45.44071" lon="-75.950329"><ele>27.0</ele><time>2025-06-30T17:42:47Z</time></trkpt>
<trkpt lat="45.44071" lon="-75.95032"><ele>27.0</ele><time>2025-06-30T17:42:48Z</time></trkpt>
<trkpt lat="45.44071" lon="-75.95032"><ele>27.0</ele><time>2025-06-30T17:42:49Z</time></trkpt>
<trkpt lat="45.44071" lon="-75.95032"><ele>27.0</ele><time>2025-06-30T17:42:50Z</time></trkpt>
<trkpt lat="45.44071" lon="-75.950311"><ele>27.0</ele><time>2025-06-30T17:42:51Z</time></trkpt>
<trkpt lat="45.44071" lon="-75.950311"><ele>27.0</ele><time>2025-06-30T17:42:52Z</time></trkpt>
<trkpt lat="45.44071" lon="-75.950311"><ele>27.0</ele><time>2025-06-30T17:42:53Z</time></trkpt>
<trkpt lat="45.440713" lon="-75.950311"><ele>27.0</ele><time>2025-06-30T17:42:54Z</time></trkpt>
<trkpt lat="45.440713" lon="-75.950302"><ele>27.0</ele><time>2025-06-30T17:42:55Z</time></trkpt>
<trkpt lat="45.440719" lon="-75.950293"><ele>27.0</ele><time>2025-06-30T17:42:56Z</time></trkpt>
<trkpt lat="45.440719" lon="-75.950293"><ele>27.0</ele><time>2025-06-30T17:42:57Z</time></trkpt>
<trkpt lat="45.440716" lon="-75.950293"><ele>27.0</ele><time>2025-06-30T17:42:58Z</time></trkpt>
<trkpt lat="45.440719" lon="-75.950293"><ele>27.0</ele><time>2025-06-30T17:42:59Z</time></trkpt>
<trkpt lat="45.440719" lon="-75.950293"><ele>27.0</ele><time>2025-06-30T17:43:00Z</time></trkpt>
<trkpt lat="45.440719" lon="-75.950284"><ele>27.0</ele><time>2025-06-30T17:43:01Z</time></trkpt>
<trkpt lat="45.440722" lon="-75.950275"><ele>27.0</ele><time>2025-06-30T17:43:02Z</time></trkpt>
<trkpt lat="45.440719" lon="-75.950266"><ele>27.0</ele><time>2025-06-30T17:43:03Z</time></trkpt>
<trkpt lat="45.440716" lon="-75.950257"><ele>27.0</ele><time>2025-06-30T17:43:04Z</time></trkpt>
<trkpt lat="45.44071" lon="-75.950266"><ele>27.0</ele><time>2025-06-30T17:43:05Z</time></trkpt>
<trkpt lat="45.440713" lon="-75.950266"><ele>27.0</ele><time>2025-06-30T17:43:06Z</time></trkpt>
<trkpt lat="45.440713" lon="-75.950266"><ele>27.0</ele><time>2025-06-30T17:43:07Z</time></trkpt>
<trkpt lat="45.440713" lon="-75.950266"><ele>27.0</ele><time>2025-06-30T17:43:08Z</time></trkpt>
<trkpt lat="45.440716" lon="-75.950266"><ele>27.0</ele><time>2025-06-30T17:43:08Z</time></trkpt>
<trkpt lat="45.440719" lon="-75.950266"><ele>27.0</ele><time>2025-06-30T17:43:09Z</time></trkpt>
<trkpt lat="45.440719" lon="-75.950266"><ele>28.0</ele><time>2025-06-30T17:43:10Z</time></trkpt>
<trkpt lat="45.440722" lon="-75.950257"><ele>28.0</ele><time>2025-06-30T17:43:11Z</time></trkpt>
<trkpt lat="45.440726" lon="-75.950257"><ele>28.0</ele><time>2025-06-30T17:43:12Z</time></trkpt>
<trkpt lat="45.440726" lon="-75.950257"><ele>28.0</ele><time>2025-06-30T17:43:13Z</time></trkpt>
<trkpt lat="45.440729" lon="-75.950257"><ele>27.0</ele><time>2025-06-30T17:43:13Z</time></trkpt>
<trkpt lat="45.440729" lon="-75.950257"><ele>27.0</ele><time>2025-06-30T17:43:14Z</time></trkpt>
<trkpt lat="45.440732" lon="-75.950248"><ele>27.0</ele><time>2025-06-30T17:43:15Z</time></trkpt>
<trkpt lat="45.440735" lon="-75.950248"><ele>27.0</ele><time>2025-06-30T17:43:16Z</time></trkpt>
<trkpt lat="45.440735" lon="-75.950248"><ele>27.0</ele><time>2025-06-30T17:43:17Z</time></trkpt>
<trkpt lat="45.440738" lon="-75.950248"><ele>27.0</ele><time>2025-06-30T17:43:18Z</time></trkpt>
<trkpt lat="45.440738" lon="-75.950248"><ele>27.0</ele><time>2025-06-30T17:43:18Z</time></trkpt>
<trkpt lat="45.440738" lon="-75.950248"><ele>27.0</ele><time>2025-06-30T17:43:19Z</time></trkpt>
<trkpt lat="45.440741" lon="-75.950239"><ele>27.0</ele><time>2025-06-30T17:43:20Z</time></trkpt>
<trkpt lat="45.440741" lon="-75.950239"><ele>27.0</ele><time>2025-06-30T17:43:21Z</time></trkpt>
<trkpt lat="45.440741" lon="-75.950239"><ele>27.0</ele><time>2025-06-30T17:43:22Z</time></trkpt>
<trkpt lat="45.440741" lon="-75.950239"><ele>27.0</ele><time>2025-06-30T17:43:23Z</time></trkpt>
<trkpt lat="45.440741" lon="-75.95023"><ele>27.0</ele><time>2025-06-30T17:43:24Z</time></trkpt>
<trkpt lat="45.440745" lon="-75.95023"><ele>27.0</ele><time>2025-06-30T17:43:25Z</time></trkpt>
<trkpt lat="45.440745" lon="-75.95023"><ele>27.0</ele><time>2025-06-30T17:43:26Z</time></trkpt>
<trkpt lat="45.440745" lon="-75.95023"><ele>27.0</ele><time>2025-06-30T17:43:27Z</time></trkpt>
<trkpt lat="45.440741" lon="-75.95023"><ele>27.0</ele><time>2025-06-30T17:43:28Z</time></trkpt>
<trkpt lat="45.440741" lon="-75.95023"><ele>27.0</ele><time>2025-06-30T17:43:29Z</time></trkpt>
<trkpt lat="45.440741" lon="-75.95023"><ele>27.0</ele><time>2025-06-30T17:43:30Z</time></trkpt>
<trkpt lat="45.440741" lon="-75.95023"><ele>27.0</ele><time>2025-06-30T17:43:31Z</time></trkpt>
<trkpt lat="45.440745" lon="-75.95023"><ele>27.0</ele><time>2025-06-30T17:43:32Z</time></trkpt>
<trkpt lat="45.440748" lon="-75.95023"><ele>27.0</ele><time>2025-06-30T17:43:33Z</time></trkpt>
<trkpt lat="45.440748" lon="-75.95023"><ele>27.0</ele><time>2025-06-30T17:43:33Z</time></trkpt>
<trkpt lat="45.440748" lon="-75.95023"><ele>27.0</ele><time>2025-06-30T17:43:34Z</time></trkpt>
<trkpt lat="45.440748" lon="-75.950221"><ele>27.0</ele><time>2025-06-30T17:43:35Z</time></trkpt>
<trkpt lat="45.440751" lon="-75.950221"><ele>27.0</ele><time>2025-06-30T17:43:36Z</time></trkpt>
<trkpt lat="45.440751" lon="-75.950221"><ele>27.0</ele><time>2025-06-30T17:43:37Z</time></trkpt>
<trkpt lat="45.440751" lon="-75.950221"><ele>27.0</ele><time>2025-06-30T17:43:38Z</time></trkpt>
<trkpt lat="45.440751" lon="-75.950221"><ele>27.0</ele><time>2025-06-30T17:43:39Z</time></trkpt>
<trkpt lat="45.440751" lon="-75.950212"><ele>27.0</ele><time>2025-06-30T17:43:40Z</time></trkpt>
<trkpt lat="45.440754" lon="-75.950212"><ele>27.0</ele><time>2025-06-30T17:43:41Z</time></trkpt>
<trkpt lat="45.440754" lon="-75.950212"><ele>27.0</ele><time>2025-06-30T17:43:42Z</time></trkpt>
<trkpt lat="45.440754" lon="-75.950212"><ele>27.0</ele><time>2025-06-30T17:43:43Z</time></trkpt>
<trkpt lat="45.440754" lon="-75.950212"><ele>27.0</ele><time>2025-06-30T17:43:44Z</time></trkpt>
<trkpt lat="45.440754" lon="-75.950212"><ele>27.0</ele><time>2025-06-30T17:43:45Z</time></trkpt>
<trkpt lat="45.440754" lon="-75.950212"><ele>27.0</ele><time>2025-06-30T17:43:46Z</time></trkpt>
<trkpt lat="45.440754" lon="-75.950212"><ele>27.0</ele><time>2025-06-30T17:43:47Z</time></trkpt>
<trkpt lat="45.440754" lon="-75.950212"><ele>27.0</ele><time>2025-06-30T17:43:48Z</time></trkpt>
<trkpt lat="45.440754" lon="-75.950212"><ele>27.0</ele><time>2025-06-30T17:43:49Z</time></trkpt>
<trkpt lat="45.440754" lon="-75.950212"><ele>27.0</ele><time>2025-06-30T17:43:50Z</time></trkpt>
<trkpt lat="45.440754" lon="-75.950212"><ele>27.0</ele><time>2025-06-30T17:43:51Z</time></trkpt>
<trkpt lat="45.440754" lon="-75.950212"><ele>27.0</ele><time>2025-06-30T17:43:52Z</time></trkpt>
<trkpt lat="45.440754" lon="-75.950212"><ele>27.0</ele><time>2025-06-30T17:43:53Z</time></trkpt>
<trkpt lat="45.440754" lon="-75.950212"><ele>27.0</ele><time>2025-06-30T17:43:54Z</time></trkpt>
<trkpt lat="45.440751" lon="-75.950212"><ele>27.0</ele><time>2025-06-30T17:43:55Z</time></trkpt>
<trkpt lat="45.440751" lon="-75.950212"><ele>27.0</ele><time>2025-06-30T17:43:56Z</time></trkpt>
<trkpt lat="45.440748" lon="-75.950212"><ele>27.0</ele><time>2025-06-30T17:43:57Z</time></trkpt>
<trkpt lat="45.440748" lon="-75.950221"><ele>27.0</ele><time>2025-06-30T17:43:58Z</time></trkpt>
<trkpt lat="45.440748" lon="-75.950221"><ele>27.0</ele><time>2025-06-30T17:43:59Z</time></trkpt>
<trkpt lat="45.440748" lon="-75.950221"><ele>27.0</ele><time>2025-06-30T17:44:00Z</time></trkpt>
<trkpt lat="45.440748" lon="-75.950221"><ele>27.0</ele><time>2025-06-30T17:44:01Z</time></trkpt>
<trkpt lat="45.440745" lon="-75.95023"><ele>27.0</ele><time>2025-06-30T17:44:02Z</time></trkpt>
<trkpt lat="45.440745" lon="-75.95023"><ele>27.0</ele><time>2025-06-30T17:44:03Z</time></trkpt>
<trkpt lat="45.440745" lon="-75.95023"><ele>27.0</ele><time>2025-06-30T17:44:04Z</time></trkpt>
<trkpt lat="45.440745" lon="-75.950239"><ele>27.0</ele><time>2025-06-30T17:44:05Z</time></trkpt>
<trkpt lat="45.440745" lon="-75.950239"><ele>27.0</ele><time>2025-06-30T17:44:06Z</time></trkpt>
<trkpt lat="45.440741" lon="-75.950239"><ele>27.0</ele><time>2025-06-30T17:44:07Z</time></trkpt>
<trkpt lat="45.440741" lon="-75.950239"><ele>27.0</ele><time>2025-06-30T17:44:08Z</time></trkpt>
<trkpt lat="45.440741" lon="-75.950239"><ele>27.0</ele><time>2025-06-30T17:44:09Z</time></trkpt>
<trkpt lat="45.440741" lon="-75.950248"><ele>27.0</ele><time>2025-06-30T17:44:10Z</time></trkpt>
<trkpt lat="45.440738" lon="-75.950248"><ele>27.0</ele><time>2025-06-30T17:44:11Z</time></trkpt>
<trkpt lat="45.440738" lon="-75.950248"><ele>27.0</ele><time>2025-06-30T17:44:12Z</time></trkpt>
<trkpt lat="45.440738" lon="-75.950257"><ele>27.0</ele><time>2025-06-30T17:44:13Z</time></trkpt>
<trkpt lat="45.440738" lon="-75.950257"><ele>27.0</ele><time>2025-06-30T17:44:14Z</time></trkpt>
<trkpt lat="45.440735" lon="-75.950257"><ele>27.0</ele><time>2025-06-30T17:44:15Z</time></trkpt>
<trkpt lat="45.440735" lon="-75.950257"><ele>27.0</ele><time>2025-06-30T17:44:16Z</time></trkpt>
<trkpt lat="45.440735" lon="-75.950266"><ele>27.0</ele><time>2025-06-30T17:44:17Z</time></trkpt>
<trkpt lat="45.440735" lon="-75.950266"><ele>27.0</ele><time>2025-06-30T17:44:18Z</time></trkpt>
<trkpt lat="45.440735" lon="-75.950266"><ele>27.0</ele><time>2025-06-30T17:44:19Z</time></trkpt>
<trkpt lat="45.440732" lon="-75.950266"><ele>27.0</ele><time>2025-06-30T17:44:19Z</time></trkpt>
<trkpt lat="45.440732" lon="-75.950266"><ele>27.0</ele><time>2025-06-30T17:44:20Z</time></trkpt>
<trkpt lat="45.440732" lon="-75.950266"><ele>27.0</ele><time>2025-06-30T17:44:21Z</time></trkpt>
<trkpt lat="45.440732" lon="-75.950275"><ele>27.0</ele><time>2025-06-30T17:44:22Z</time></trkpt>
<trkpt lat="45.440732" lon="-75.950275"><ele>27.0</ele><time>2025-06-30T17:44:23Z</time></trkpt>
<trkpt lat="45.440732" lon="-75.950275"><ele>27.0</ele><time>2025-06-30T17:44:24Z</time></trkpt>
<trkpt lat="45.440729" lon="-75.950275"><ele>27.0</ele><time>2025-06-30T17:44:25Z</time></trkpt>
<trkpt lat="45.440729" lon="-75.950284"><ele>27.0</ele><time>2025-06-30T17:44:26Z</time></trkpt>
<trkpt lat="45.440729" lon="-75.950284"><ele>27.0</ele><time>2025-06-30T17:44:27Z</time></trkpt>
<trkpt lat="45.440732" lon="-75.950284"><ele>27.0</ele><time>2025-06-30T17:44:28Z</time></trkpt>
<trkpt lat="45.440732" lon="-75.950284"><ele>27.0</ele><time>2025-06-30T17:44:29Z</time></trkpt>
<trkpt lat="45.440732" lon="-75.950293"><ele>27.0</ele><time>2025-06-30T17:44:30Z</time></trkpt>
<trkpt lat="45.440732" lon="-75.950293"><ele>27.0</ele><time>2025-06-30T17:44:31Z</time></trkpt>
<trkpt lat="45.440732" lon="-75.950293"><ele>27.0</ele><time>2025-06-30T17:44:32Z</time></trkpt>
<trkpt lat="45.440735" lon="-75.950293"><ele>27.0</ele><time>2025-06-30T17:44:33Z</time></trkpt>
<trkpt lat="45.440735" lon="-75.950293"><ele>27.0</ele><time>2025-06-30T17:44:34Z</time></trkpt>
<trkpt lat="45.440735" lon="-75.950293"><ele>27.0</ele><time>2025-06-30T17:44:34Z</time></trkpt>
<trkpt lat="45.440735" lon="-75.950302"><ele>27.0</ele><time>2025-06-30T17:44:35Z</time></trkpt>
<trkpt lat="45.440735" lon="-75.950302"><ele>27.0</ele><time>2025-06-30T17:44:36Z</time></trkpt>
<trkpt lat="45.440735" lon="-75.950302"><ele>28.0</ele><time>2025-06-30T17:44:37Z</time></trkpt>
<trkpt lat="45.440735" lon="-75.950302"><ele>28.0</ele><time>2025-06-30T17:44:38Z</time></trkpt>
<trkpt lat="45.440735" lon="-75.950302"><ele>28.0</ele><time>2025-06-30T17:44:39Z</time></trkpt>
<trkpt lat="45.440732" lon="-75.950302"><ele>28.0</ele><time>2025-06-30T17:44:39Z</time></trkpt>
<trkpt lat="45.440732" lon="-75.950302"><ele>28.0</ele><time>2025-06-30T17:44:40Z</time></trkpt>
<trkpt lat="45.440732" lon="-75.950302"><ele>28.0</ele><time>2025-06-30T17:44:41Z</time></trkpt>
<trkpt lat="45.440732" lon="-75.950302"><ele>28.0</ele><time>2025-06-30T17:44:42Z</time></trkpt>
<trkpt lat="45.440732" lon="-75.950302"><ele>28.0</ele><time>2025-06-30T17:44:43Z</time></trkpt>
<trkpt lat="45.440732" lon="-75.950302"><ele>28.0</ele><time>2025-06-30T17:44:44Z</time></trkpt>
<trkpt lat="45.440732" lon="-75.950302"><ele>28.0</ele><time>2025-06-30T17:44:44Z</time></trkpt>
<trkpt lat="45.440732" lon="-75.950302"><ele>27.0</ele><time>2025-06-30T17:44:45Z</time></trkpt>
<trkpt lat="45.440732" lon="-75.950302"><ele>27.0</ele><time>2025-06-30T17:44:46Z</time></trkpt>
<trkpt lat="45.440732" lon="-75.950302"><ele>27.0</ele><time>2025-06-30T17:44:48Z</time></trkpt>
<trkpt lat="45.440732" lon="-75.950293"><ele>27.0</ele><time>2025-06-30T17:44:48Z</time></trkpt>
<trkpt lat="45.440732" lon="-75.950293"><ele>27.0</ele><time>2025-06-30T17:44:49Z</time></trkpt>
<trkpt lat="45.440729" lon="-75.950293"><ele>27.0</ele><time>2025-06-30T17:44:50Z</time></trkpt>
<trkpt lat="45.440729" lon="-75.950293"><ele>27.0</ele><time>2025-06-30T17:44:51Z</time></trkpt>
<trkpt lat="45.440729" lon="-75.950284"><ele>27.0</ele><time>2025-06-30T17:44:52Z</time></trkpt>
<trkpt lat="45.440729" lon="-75.950284"><ele>27.0</ele><time>2025-06-30T17:44:53Z</time></trkpt>
<trkpt lat="45.440729" lon="-75.950284"><ele>27.0</ele><time>2025-06-30T17:44:54Z</time></trkpt>
<trkpt lat="45.440729" lon="-75.950284"><ele>27.0</ele><time>2025-06-30T17:44:54Z</time></trkpt>
<trkpt lat="45.440729" lon="-75.950275"><ele>27.0</ele><time>2025-06-30T17:44:55Z</time></trkpt>
<trkpt lat="45.440729" lon="-75.950275"><ele>27.0</ele><time>2025-06-30T17:44:56Z</time></trkpt>
<trkpt lat="45.440729" lon="-75.950275"><ele>27.0</ele><time>2025-06-30T17:44:57Z</time></trkpt>
<trkpt lat="45.440729" lon="-75.950266"><ele>28.0</ele><time>2025-06-30T17:44:58Z</time></trkpt>
<trkpt lat="45.440729" lon="-75.950266"><ele>28.0</ele><time>2025-06-30T17:44:59Z</time></trkpt>
<trkpt lat="45.440729" lon="-75.950266"><ele>27.0</ele><time>2025-06-30T17:44:59Z</time></trkpt>
<trkpt lat="45.440729" lon="-75.950266"><ele>27.0</ele><time>2025-06-30T17:45:00Z</time></trkpt>
<trkpt lat="45.440732" lon="-75.950257"><ele>28.0</ele><time>2025-06-30T17:45:01Z</time></trkpt>
<trkpt lat="45.440732" lon="-75.950257"><ele>28.0</ele><time>2025-06-30T17:45:02Z</time></trkpt>
<trkpt lat="45.440732" lon="-75.950248"><ele>28.0</ele><time>2025-06-30T17:45:03Z</time></trkpt>
<trkpt lat="45.440732" lon="-75.950248"><ele>28.0</ele><time>2025-06-30T17:45:04Z</time></trkpt>
<trkpt lat="45.440735" lon="-75.950248"><ele>28.0</ele><time>2025-06-30T17:45:04Z</time></trkpt>
<trkpt lat="45.440735" lon="-75.950248"><ele>28.0</ele><time>2025-06-30T17:45:05Z</time></trkpt>
<trkpt lat="45.440738" lon="-75.950248"><ele>27.0</ele><time>2025-06-30T17:45:06Z</time></trkpt>
<trkpt lat="45.440738" lon="-75.950239"><ele>28.0</ele><time>2025-06-30T17:45:07Z</time></trkpt>
<trkpt lat="45.440738" lon="-75.950239"><ele>28.0</ele><time>2025-06-30T17:45:08Z</time></trkpt>
<trkpt lat="45.440738" lon="-75.950239"><ele>28.0</ele><time>2025-06-30T17:45:09Z</time></trkpt>
<trkpt lat="45.440741" lon="-75.950239"><ele>28.0</ele><time>2025-06-30T17:45:09Z</time></trkpt>
<trkpt lat="45.440741" lon="-75.950239"><ele>28.0</ele><time>2025-06-30T17:45:10Z</time></trkpt>
<trkpt lat="45.440741" lon="-75.95023"><ele>28.0</ele><time>2025-06-30T17:45:11Z</time></trkpt>
<trkpt lat="45.440741" lon="-75.95023"><ele>27.0</ele><time>2025-06-30T17:45:12Z</time></trkpt>
<trkpt lat="45.440745" lon="-75.95023"><ele>27.0</ele><time>2025-06-30T17:45:13Z</time></trkpt>
<trkpt lat="45.440745" lon="-75.950221"><ele>27.0</ele><time>2025-06-30T17:45:14Z</time></trkpt>
<trkpt lat="45.440745" lon="-75.950221"><ele>27.0</ele><time>2025-06-30T17:45:14Z</time></trkpt>
<trkpt lat="45.440745" lon="-75.950221"><ele>28.0</ele><time>2025-06-30T17:45:15Z</time></trkpt>
<trkpt lat="45.440745" lon="-75.950221"><ele>27.0</ele><time>2025-06-30T17:45:16Z</time></trkpt>
<trkpt lat="45.440745" lon="-75.950221"><ele>27.0</ele><time>2025-06-30T17:45:17Z</time></trkpt>
<trkpt lat="45.440745" lon="-75.950212"><ele>27.0</ele><time>2025-06-30T17:45:18Z</time></trkpt>
<trkpt lat="45.440745" lon="-75.950212"><ele>27.0</ele><time>2025-06-30T17:45:19Z</time></trkpt>
<trkpt lat="45.440745" lon="-75.950212"><ele>27.0</ele><time>2025-06-30T17:45:19Z</time></trkpt>
<trkpt lat="45.440745" lon="-75.950212"><ele>27.0</ele><time>2025-06-30T17:45:20Z</time></trkpt>
<trkpt lat="45.440745" lon="-75.950212"><ele>27.0</ele><time>2025-06-30T17:45:21Z</time></trkpt>
<trkpt lat="45.440745" lon="-75.950212"><ele>27.0</ele><time>2025-06-30T17:45:22Z</time></trkpt>
<trkpt lat="45.440745" lon="-75.950212"><ele>27.0</ele><time>2025-06-30T17:45:23Z</time></trkpt>
<trkpt lat="45.440745" lon="-75.950212"><ele>27.0</ele><time>2025-06-30T17:45:24Z</time></trkpt>
<trkpt lat="45.440745" lon="-75.950203"><ele>27.0</ele><time>2025-06-30T17:45:25Z</time></trkpt>
<trkpt lat="45.440748" lon="-75.950203"><ele>27.0</ele><time>2025-06-30T17:45:26Z</time></trkpt>
<trkpt lat="45.440748" lon="-75.950203"><ele>27.0</ele><time>2025-06-30T17:45:27Z</time></trkpt>
<trkpt lat="45.440748" lon="-75.950203"><ele>27.0</ele><time>2025-06-30T17:45:28Z</time></trkpt>
<trkpt lat="45.440748" lon="-75.950203"><ele>28.0</ele><time>2025-06-30T17:45:29Z</time></trkpt>
<trkpt lat="45.440748" lon="-75.950203"><ele>27.0</ele><time>2025-06-30T17:45:30Z</time></trkpt>
<trkpt lat="45.440751" lon="-75.950203"><ele>27.0</ele><time>2025-06-30T17:45:31Z</time></trkpt>
<trkpt lat="45.440751" lon="-75.950194"><ele>27.0</ele><time>2025-06-30T17:45:32Z</time></trkpt>
<trkpt lat="45.440751" lon="-75.950194"><ele>28.0</ele><time>2025-06-30T17:45:33Z</time></trkpt>
<trkpt lat="45.440754" lon="-75.950194"><ele>28.0</ele><time>2025-06-30T17:45:34Z</time></trkpt>
<trkpt lat="45.440754" lon="-75.950194"><ele>28.0</ele><time>2025-06-30T17:45:34Z</time></trkpt>
<trkpt lat="45.440754" lon="-75.950194"><ele>28.0</ele><time>2025-06-30T17:45:35Z</time></trkpt>
<trkpt lat="45.440757" lon="-75.950185"><ele>28.0</ele><time>2025-06-30T17:45:36Z</time></trkpt>
<trkpt lat="45.440757" lon="-75.950185"><ele>28.0</ele><time>2025-06-30T17:45:37Z</time></trkpt>
<trkpt lat="45.440757" lon="-75.950185"><ele>27.0</ele><time>2025-06-30T17:45:38Z</time></trkpt>
<trkpt lat="45.440757" lon="-75.950185"><ele>28.0</ele><time>2025-06-30T17:45:39Z</time></trkpt>
<trkpt lat="45.440757" lon="-75.950185"><ele>28.0</ele><time>2025-06-30T17:45:40Z</time></trkpt>
<trkpt lat="45.440757" lon="-75.950185"><ele>27.0</ele><time>2025-06-30T17:45:41Z</time></trkpt>
<trkpt lat="45.440754" lon="-75.950185"><ele>27.0</ele><time>2025-06-30T17:45:42Z</time></trkpt>
<trkpt lat="45.440754" lon="-75.950194"><ele>27.0</ele><time>2025-06-30T17:45:43Z</time></trkpt>
<trkpt lat="45.440754" lon="-75.950194"><ele>27.0</ele><time>2025-06-30T17:45:44Z</time></trkpt>
<trkpt lat="45.440751" lon="-75.950194"><ele>27.0</ele><time>2025-06-30T17:45:44Z</time></trkpt>
<trkpt lat="45.440751" lon="-75.950194"><ele>27.0</ele><time>2025-06-30T17:45:45Z</time></trkpt>
<trkpt lat="45.440751" lon="-75.950194"><ele>27.0</ele><time>2025-06-30T17:45:46Z</time></trkpt>
<trkpt lat="45.440748" lon="-75.950194"><ele>28.0</ele><time>2025-06-30T17:45:48Z</time></trkpt>
<trkpt lat="45.440748" lon="-75.950194"><ele>27.0</ele><time>2025-06-30T17:45:48Z</time></trkpt>
<trkpt lat="45.440748" lon="-75.950203"><ele>27.0</ele><time>2025-06-30T17:45:49Z</time></trkpt>
<trkpt lat="45.440745" lon="-75.950203"><ele>27.0</ele><time>2025-06-30T17:45:49Z</time></trkpt>
<trkpt lat="45.440745" lon="-75.950203"><ele>27.0</ele><time>2025-06-30T17:45:50Z</time></trkpt>
<trkpt lat="45.440745" lon="-75.950203"><ele>28.0</ele><time>2025-06-30T17:45:51Z</time></trkpt>
<trkpt lat="45.440741" lon="-75.950212"><ele>27.0</ele><time>2025-06-30T17:45:52Z</time></trkpt>
<trkpt lat="45.440741" lon="-75.950212"><ele>28.0</ele><time>2025-06-30T17:45:53Z</time></trkpt>
<trkpt lat="45.440741" lon="-75.950212"><ele>28.0</ele><time>2025-06-30T17:45:54Z</time></trkpt>
<trkpt lat="45.440741" lon="-75.950212"><ele>28.0</ele><time>2025-06-30T17:45:54Z</time></trkpt>
<trkpt lat="45.440738" lon="-75.950221"><ele>28.0</ele><time>2025-06-30T17:45:55Z</time></trkpt>
<trkpt lat="45.440738" lon="-75.950221"><ele>28.0</ele><time>2025-06-30T17:45:56Z</time></trkpt>
<trkpt lat="45.440738" lon="-75.950221"><ele>28.0</ele><time>2025-06-30T17:45:57Z</time></trkpt>
<trkpt lat="45.440735" lon="-75.95023"><ele>28.0</ele><time>2025-06-30T17:45:58Z</time></trkpt>
<trkpt lat="45.440735" lon="-75.95023"><ele>28.0</ele><time>2025-06-30T17:45:59Z</time></trkpt>
<trkpt lat="45.440735" lon="-75.95023"><ele>28.0</ele><time>2025-06-30T17:45:59Z</time></trkpt>
<trkpt lat="45.440735" lon="-75.95023"><ele>28.0</ele><time>2025-06-30T17:46:00Z</time></trkpt>
<trkpt lat="45.440735" lon="-75.95023"><ele>28.0</ele><time>2025-06-30T17:46:01Z</time></trkpt>
<trkpt lat="45.440735" lon="-75.950239"><ele>27.0</ele><time>2025-06-30T17:46:02Z</time></trkpt>
<trkpt lat="45.440735" lon="-75.950239"><ele>27.0</ele><time>2025-06-30T17:46:03Z</time></trkpt>
<trkpt lat="45.440732" lon="-75.950239"><ele>27.0</ele><time>2025-06-30T17:46:04Z</time></trkpt>
<trkpt lat="45.440735" lon="-75.950239"><ele>27.0</ele><time>2025-06-30T17:46:04Z</time></trkpt>
<trkpt lat="45.440732" lon="-75.950248"><ele>27.0</ele><time>2025-06-30T17:46:05Z</time></trkpt>
<trkpt lat="45.440732" lon="-75.950248"><ele>27.0</ele><time>2025-06-30T17:46:06Z</time></trkpt>
<trkpt lat="45.440732" lon="-75.950248"><ele>28.0</ele><time>2025-06-30T17:46:07Z</time></trkpt>
<trkpt lat="45.440732" lon="-75.950248"><ele>28.0</ele><time>2025-06-30T17:46:08Z</time></trkpt>
<trkpt lat="45.440732" lon="-75.950257"><ele>28.0</ele><time>2025-06-30T17:46:09Z</time></trkpt>
<trkpt lat="45.440732" lon="-75.950257"><ele>27.0</ele><time>2025-06-30T17:46:10Z</time></trkpt>
<trkpt lat="45.440732" lon="-75.950257"><ele>27.0</ele><time>2025-06-30T17:46:11Z</time></trkpt>
<trkpt lat="45.440732" lon="-75.950266"><ele>27.0</ele><time>2025-06-30T17:46:12Z</time></trkpt>
<trkpt lat="45.440732" lon="-75.950266"><ele>27.0</ele><time>2025-06-30T17:46:13Z</time></trkpt>
<trkpt lat="45.440732" lon="-75.950266"><ele>27.0</ele><time>2025-06-30T17:46:14Z</time></trkpt>
<trkpt lat="45.440732" lon="-75.950266"><ele>27.0</ele><time>2025-06-30T17:46:14Z</time></trkpt>
<trkpt lat="45.440729" lon="-75.950266"><ele>27.0</ele><time>2025-06-30T17:46:15Z</time></trkpt>
<trkpt lat="45.440729" lon="-75.950275"><ele>27.0</ele><time>2025-06-30T17:46:16Z</time></trkpt>
<trkpt lat="45.440729" lon="-75.950275"><ele>27.0</ele><time>2025-06-30T17:46:17Z</time></trkpt>
<trkpt lat="45.440729" lon="-75.950275"><ele>27.0</ele><time>2025-06-30T17:46:18Z</time></trkpt>
<trkpt lat="45.440726" lon="-75.950284"><ele>27.0</ele><time>2025-06-30T17:46:19Z</time></trkpt>
<trkpt lat="45.440726" lon="-75.950284"><ele>28.0</ele><time>2025-06-30T17:46:20Z</time></trkpt>
<trkpt lat="45.440726" lon="-75.950293"><ele>28.0</ele><time>2025-06-30T17:46:21Z</time></trkpt>
<trkpt lat="45.440722" lon="-75.950293"><ele>28.0</ele><time>2025-06-30T17:46:22Z</time></trkpt>
<trkpt lat="45.440722" lon="-75.950293"><ele>28.0</ele><time>2025-06-30T17:46:23Z</time></trkpt>
<trkpt lat="45.440722" lon="-75.950293"><ele>28.0</ele><time>2025-06-30T17:46:24Z</time></trkpt>
<trkpt lat="45.440722" lon="-75.950293"><ele>27.0</ele><time>2025-06-30T17:46:24Z</time></trkpt>
<trkpt lat="45.440719" lon="-75.950293"><ele>27.0</ele><time>2025-06-30T17:46:25Z</time></trkpt>
<trkpt lat="45.440716" lon="-75.950293"><ele>27.0</ele><time>2025-06-30T17:46:26Z</time></trkpt>
<trkpt lat="45.440716" lon="-75.950293"><ele>27.0</ele><time>2025-06-30T17:46:27Z</time></trkpt>
<trkpt lat="45.440716" lon="-75.950302"><ele>27.0</ele><time>2025-06-30T17:46:28Z</time></trkpt>
<trkpt lat="45.440716" lon="-75.950302"><ele>27.0</ele><time>2025-06-30T17:46:29Z</time></trkpt>
<trkpt lat="45.440716" lon="-75.950311"><ele>28.0</ele><time>2025-06-30T17:46:30Z</time></trkpt>
<trkpt lat="45.440713" lon="-75.950311"><ele>27.0</ele><time>2025-06-30T17:46:31Z</time></trkpt>
<trkpt lat="45.440713" lon="-75.950311"><ele>27.0</ele><time>2025-06-30T17:46:32Z</time></trkpt>
<trkpt lat="45.440713" lon="-75.95032"><ele>27.0</ele><time>2025-06-30T17:46:33Z</time></trkpt>
<trkpt lat="45.440713" lon="-75.95032"><ele>27.0</ele><time>2025-06-30T17:46:34Z</time></trkpt>
<trkpt lat="45.440713" lon="-75.95032"><ele>27.0</ele><time>2025-06-30T17:46:35Z</time></trkpt>
<trkpt lat="45.440716" lon="-75.950329"><ele>27.0</ele><time>2025-06-30T17:46:36Z</time></trkpt>
<trkpt lat="45.440716" lon="-75.950329"><ele>27.0</ele><time>2025-06-30T17:46:37Z</time></trkpt>
<trkpt lat="45.440716" lon="-75.950329"><ele>27.0</ele><time>2025-06-30T17:46:38Z</time></trkpt>
<trkpt lat="45.440716" lon="-75.950338"><ele>27.0</ele><time>2025-06-30T17:46:39Z</time></trkpt>
<trkpt lat="45.440716" lon="-75.950338"><ele>27.0</ele><time>2025-06-30T17:46:40Z</time></trkpt>
<trkpt lat="45.440716" lon="-75.950338"><ele>27.0</ele><time>2025-06-30T17:46:41Z</time></trkpt>
<trkpt lat="45.440719" lon="-75.950338"><ele>27.0</ele><time>2025-06-30T17:46:42Z</time></trkpt>
<trkpt lat="45.440719" lon="-75.950338"><ele>27.0</ele><time>2025-06-30T17:46:43Z</time></trkpt>
<trkpt lat="45.440719" lon="-75.950338"><ele>27.0</ele><time>2025-06-30T17:46:44Z</time></trkpt>
<trkpt lat="45.440719" lon="-75.950338"><ele>27.0</ele><time>2025-06-30T17:46:44Z</time></trkpt>
<trkpt lat="45.440719" lon="-75.950338"><ele>27.0</ele><time>2025-06-30T17:46:45Z</time></trkpt>
<trkpt lat="45.440719" lon="-75.950347"><ele>27.0</ele><time>2025-06-30T17:46:46Z</time></trkpt>
<trkpt lat="45.440719" lon="-75.950347"><ele>27.0</ele><time>2025-06-30T17:46:47Z</time></trkpt>
<trkpt lat="45.440716" lon="-75.950338"><ele>27.0</ele><time>2025-06-30T17:46:48Z</time></trkpt>
<trkpt lat="45.440716" lon="-75.950338"><ele>27.0</ele><time>2025-06-30T17:46:49Z</time></trkpt>
<trkpt lat="45.44071" lon="-75.950329"><ele>28.0</ele><time>2025-06-30T17:46:50Z</time></trkpt>
<trkpt lat="45.440707" lon="-75.95032"><ele>28.0</ele><time>2025-06-30T17:46:51Z</time></trkpt>
<trkpt lat="45.440703" lon="-75.95032"><ele>28.0</ele><time>2025-06-30T17:46:52Z</time></trkpt>
<trkpt lat="45.440697" lon="-75.95032"><ele>28.0</ele><time>2025-06-30T17:46:53Z</time></trkpt>
<trkpt lat="45.440694" lon="-75.95032"><ele>28.0</ele><time>2025-06-30T17:46:54Z</time></trkpt>
<trkpt lat="45.440694" lon="-75.950311"><ele>28.0</ele><time>2025-06-30T17:46:55Z</time></trkpt>
<trkpt lat="45.440694" lon="-75.950311"><ele>28.0</ele><time>2025-06-30T17:46:56Z</time></trkpt>
<trkpt lat="45.440694" lon="-75.950311"><ele>27.0</ele><time>2025-06-30T17:46:56Z</time></trkpt>
<trkpt lat="45.440694" lon="-75.950311"><ele>27.0</ele><time>2025-06-30T17:46:57Z</time></trkpt>
<trkpt lat="45.440694" lon="-75.950311"><ele>27.0</ele><time>2025-06-30T17:46:58Z</time></trkpt>
<trkpt lat="45.440697" lon="-75.950311"><ele>28.0</ele><time>2025-06-30T17:46:58Z</time></trkpt>
<trkpt lat="45.440697" lon="-75.950302"><ele>28.0</ele><time>2025-06-30T17:46:59Z</time></trkpt>
<trkpt lat="45.440697" lon="-75.950302"><ele>28.0</ele><time>2025-06-30T17:46:59Z</time></trkpt>
<trkpt lat="45.4407" lon="-75.950293"><ele>28.0</ele><time>2025-06-30T17:47:00Z</time></trkpt>
<trkpt lat="45.440703" lon="-75.950293"><ele>28.0</ele><time>2025-06-30T17:47:01Z</time></trkpt>
<trkpt lat="45.440703" lon="-75.950293"><ele>28.0</ele><time>2025-06-30T17:47:02Z</time></trkpt>
<trkpt lat="45.440707" lon="-75.950293"><ele>28.0</ele><time>2025-06-30T17:47:03Z</time></trkpt>
<trkpt lat="45.44071" lon="-75.950293"><ele>28.0</ele><time>2025-06-30T17:47:04Z</time></trkpt>
<trkpt lat="45.44071" lon="-75.950293"><ele>28.0</ele><time>2025-06-30T17:47:04Z</time></trkpt>
</trkseg></trk></gpx>
