<?xml version="1.0" encoding="UTF-8"?> <gpx xmlns:xsi="http://www.w3.org/2001/XMLSchema-instance" version="1.1" xmlns="http://www.topografix.com/GPX/1/1" creator="Galileo Offline Maps" xsi:schemaLocation="http://www.topografix.com/GPX/1/1 http://www.topografix.com/GPX/1/1/gpx.xsd"><trk><name>Untitled Track</name><desc></desc><type>TrackStyle_ff7f00c8</type><trkseg>
<trkpt lat="45.356692" lon="-75.838448"><ele>26.0</ele><time>2025-08-03T00:10:02Z</time></trkpt>
<trkpt lat="45.356689" lon="-75.838448"><ele>27.0</ele><time>2025-08-03T00:10:03Z</time></trkpt>
<trkpt lat="45.356689" lon="-75.838448"><ele>27.0</ele><time>2025-08-03T00:10:03Z</time></trkpt>
<trkpt lat="45.356689" lon="-75.838439"><ele>26.0</ele><time>2025-08-03T00:10:05Z</time></trkpt>
<trkpt lat="45.356689" lon="-75.838439"><ele>27.0</ele><time>2025-08-03T00:10:06Z</time></trkpt>
<trkpt lat="45.356689" lon="-75.838439"><ele>27.0</ele><time>2025-08-03T00:10:07Z</time></trkpt>
<trkpt lat="45.356689" lon="-75.838439"><ele>27.0</ele><time>2025-08-03T00:10:08Z</time></trkpt>
<trkpt lat="45.356689" lon="-75.83843"><ele>26.0</ele><time>2025-08-03T00:10:09Z</time></trkpt>
<trkpt lat="45.356689" lon="-75.83843"><ele>27.0</ele><time>2025-08-03T00:10:10Z</time></trkpt>
<trkpt lat="45.356686" lon="-75.838421"><ele>27.0</ele><time>2025-08-03T00:10:10Z</time></trkpt>
<trkpt lat="45.356689" lon="-75.838421"><ele>27.0</ele><time>2025-08-03T00:10:12Z</time></trkpt>
<trkpt lat="45.356686" lon="-75.838394"><ele>27.0</ele><time>2025-08-03T00:10:12Z</time></trkpt>
<trkpt lat="45.356683" lon="-75.838376"><ele>27.0</ele><time>2025-08-03T00:10:13Z</time></trkpt>
<trkpt lat="45.356683" lon="-75.838376"><ele>27.0</ele><time>2025-08-03T00:10:15Z</time></trkpt>
<trkpt lat="45.356686" lon="-75.838385"><ele>27.0</ele><time>2025-08-03T00:10:15Z</time></trkpt>
<trkpt lat="45.356689" lon="-75.838394"><ele>27.0</ele><time>2025-08-03T00:10:17Z</time></trkpt>
<trkpt lat="45.356692" lon="-75.838403"><ele>27.0</ele><time>2025-08-03T00:10:18Z</time></trkpt>
<trkpt lat="45.356696" lon="-75.838421"><ele>27.0</ele><time>2025-08-03T00:10:19Z</time></trkpt>
<trkpt lat="45.356692" lon="-75.838421"><ele>27.0</ele><time>2025-08-03T00:10:20Z</time></trkpt>
<trkpt lat="45.356692" lon="-75.838421"><ele>27.0</ele><time>2025-08-03T00:10:21Z</time></trkpt>
<trkpt lat="45.356689" lon="-75.838421"><ele>26.0</ele><time>2025-08-03T00:10:22Z</time></trkpt>
<trkpt lat="45.356689" lon="-75.838412"><ele>26.0</ele><time>2025-08-03T00:10:23Z</time></trkpt>
<trkpt lat="45.356689" lon="-75.838412"><ele>26.0</ele><time>2025-08-03T00:10:24Z</time></trkpt>
<trkpt lat="45.356689" lon="-75.838412"><ele>27.0</ele><time>2025-08-03T00:10:25Z</time></trkpt>
<trkpt lat="45.356692" lon="-75.838412"><ele>27.0</ele><time>2025-08-03T00:10:26Z</time></trkpt>
<trkpt lat="45.356692" lon="-75.838412"><ele>27.0</ele><time>2025-08-03T00:10:27Z</time></trkpt>
<trkpt lat="45.356692" lon="-75.838412"><ele>27.0</ele><time>2025-08-03T00:10:28Z</time></trkpt>
<trkpt lat="45.356692" lon="-75.838412"><ele>27.0</ele><time>2025-08-03T00:10:29Z</time></trkpt>
<trkpt lat="45.356692" lon="-75.838412"><ele>27.0</ele><time>2025-08-03T00:10:30Z</time></trkpt>
<trkpt lat="45.356692" lon="-75.838412"><ele>27.0</ele><time>2025-08-03T00:10:31Z</time></trkpt>
<trkpt lat="45.356692" lon="-75.838412"><ele>26.0</ele><time>2025-08-03T00:10:32Z</time></trkpt>
<trkpt lat="45.356692" lon="-75.838412"><ele>26.0</ele><time>2025-08-03T00:10:33Z</time></trkpt>
<trkpt lat="45.356692" lon="-75.838412"><ele>27.0</ele><time>2025-08-03T00:10:34Z</time></trkpt>
<trkpt lat="45.356692" lon="-75.838412"><ele>27.0</ele><time>2025-08-03T00:10:35Z</time></trkpt>
<trkpt lat="45.356692" lon="-75.838412"><ele>27.0</ele><time>2025-08-03T00:10:36Z</time></trkpt>
<trkpt lat="45.356692" lon="-75.838412"><ele>26.0</ele><time>2025-08-03T00:10:37Z</time></trkpt>
<trkpt lat="45.356692" lon="-75.838412"><ele>26.0</ele><time>2025-08-03T00:10:38Z</time></trkpt>
<trkpt lat="45.356692" lon="-75.838412"><ele>27.0</ele><time>2025-08-03T00:10:39Z</time></trkpt>
<trkpt lat="45.356692" lon="-75.838412"><ele>27.0</ele><time>2025-08-03T00:10:40Z</time></trkpt>
<trkpt lat="45.356692" lon="-75.838412"><ele>27.0</ele><time>2025-08-03T00:10:41Z</time></trkpt>
<trkpt lat="45.356692" lon="-75.838412"><ele>27.0</ele><time>2025-08-03T00:10:42Z</time></trkpt>
<trkpt lat="45.356692" lon="-75.838412"><ele>27.0</ele><time>2025-08-03T00:10:43Z</time></trkpt>
<trkpt lat="45.356692" lon="-75.838412"><ele>27.0</ele><time>2025-08-03T00:10:44Z</time></trkpt>
<trkpt lat="45.356692" lon="-75.838412"><ele>26.0</ele><time>2025-08-03T00:10:45Z</time></trkpt>
<trkpt lat="45.356692" lon="-75.838412"><ele>27.0</ele><time>2025-08-03T00:10:46Z</time></trkpt>
<trkpt lat="45.35668" lon="-75.838403"><ele>26.0</ele><time>2025-08-03T00:10:47Z</time></trkpt>
<trkpt lat="45.356677" lon="-75.838403"><ele>26.0</ele><time>2025-08-03T00:10:48Z</time></trkpt>
<trkpt lat="45.356677" lon="-75.838403"><ele>26.0</ele><time>2025-08-03T00:10:49Z</time></trkpt>
<trkpt lat="45.356677" lon="-75.838403"><ele>26.0</ele><time>2025-08-03T00:10:50Z</time></trkpt>
<trkpt lat="45.35668" lon="-75.838403"><ele>26.0</ele><time>2025-08-03T00:10:51Z</time></trkpt>
<trkpt lat="45.35668" lon="-75.838403"><ele>26.0</ele><time>2025-08-03T00:10:52Z</time></trkpt>
<trkpt lat="45.356683" lon="-75.838412"><ele>26.0</ele><time>2025-08-03T00:10:53Z</time></trkpt>
<trkpt lat="45.356683" lon="-75.838403"><ele>26.0</ele><time>2025-08-03T00:10:54Z</time></trkpt>
<trkpt lat="45.356686" lon="-75.838403"><ele>26.0</ele><time>2025-08-03T00:10:55Z</time></trkpt>
<trkpt lat="45.356686" lon="-75.838403"><ele>27.0</ele><time>2025-08-03T00:10:56Z</time></trkpt>
<trkpt lat="45.356689" lon="-75.838403"><ele>27.0</ele><time>2025-08-03T00:10:57Z</time></trkpt>
<trkpt lat="45.356689" lon="-75.838403"><ele>27.0</ele><time>2025-08-03T00:10:58Z</time></trkpt>
<trkpt lat="45.356689" lon="-75.838403"><ele>26.0</ele><time>2025-08-03T00:10:58Z</time></trkpt>
<trkpt lat="45.356689" lon="-75.838403"><ele>26.0</ele><time>2025-08-03T00:10:59Z</time></trkpt>
<trkpt lat="45.356689" lon="-75.838403"><ele>26.0</ele><time>2025-08-03T00:11:00Z</time></trkpt>
<trkpt lat="45.356689" lon="-75.838403"><ele>26.0</ele><time>2025-08-03T00:11:00Z</time></trkpt>
<trkpt lat="45.356689" lon="-75.838412"><ele>26.0</ele><time>2025-08-03T00:11:01Z</time></trkpt>
<trkpt lat="45.356689" lon="-75.838403"><ele>27.0</ele><time>2025-08-03T00:11:03Z</time></trkpt>
<trkpt lat="45.356689" lon="-75.838403"><ele>27.0</ele><time>2025-08-03T00:11:03Z</time></trkpt>
<trkpt lat="45.356689" lon="-75.838403"><ele>27.0</ele><time>2025-08-03T00:11:05Z</time></trkpt>
<trkpt lat="45.356692" lon="-75.838403"><ele>27.0</ele><time>2025-08-03T00:11:06Z</time></trkpt>
<trkpt lat="45.356692" lon="-75.838403"><ele>27.0</ele><time>2025-08-03T00:11:07Z</time></trkpt>
<trkpt lat="45.356692" lon="-75.838403"><ele>27.0</ele><time>2025-08-03T00:11:08Z</time></trkpt>
<trkpt lat="45.356689" lon="-75.838394"><ele>27.0</ele><time>2025-08-03T00:11:09Z</time></trkpt>
<trkpt lat="45.356689" lon="-75.838394"><ele>27.0</ele><time>2025-08-03T00:11:10Z</time></trkpt>
<trkpt lat="45.356689" lon="-75.838394"><ele>27.0</ele><time>2025-08-03T00:11:11Z</time></trkpt>
<trkpt lat="45.356689" lon="-75.838394"><ele>27.0</ele><time>2025-08-03T00:11:11Z</time></trkpt>
<trkpt lat="45.356686" lon="-75.838394"><ele>27.0</ele><time>2025-08-03T00:11:11Z</time></trkpt>
<trkpt lat="45.356686" lon="-75.838385"><ele>27.0</ele><time>2025-08-03T00:11:12Z</time></trkpt>
<trkpt lat="45.356683" lon="-75.838376"><ele>27.0</ele><time>2025-08-03T00:11:13Z</time></trkpt>
<trkpt lat="45.356686" lon="-75.838376"><ele>27.0</ele><time>2025-08-03T00:11:14Z</time></trkpt>
<trkpt lat="45.356689" lon="-75.838376"><ele>27.0</ele><time>2025-08-03T00:11:15Z</time></trkpt>
<trkpt lat="45.356689" lon="-75.838385"><ele>27.0</ele><time>2025-08-03T00:11:15Z</time></trkpt>
<trkpt lat="45.356689" lon="-75.838394"><ele>27.0</ele><time>2025-08-03T00:11:17Z</time></trkpt>
<trkpt lat="45.356689" lon="-75.838394"><ele>27.0</ele><time>2025-08-03T00:11:18Z</time></trkpt>
<trkpt lat="45.356689" lon="-75.838385"><ele>27.0</ele><time>2025-08-03T00:11:19Z</time></trkpt>
<trkpt lat="45.356689" lon="-75.838385"><ele>27.0</ele><time>2025-08-03T00:11:20Z</time></trkpt>
<trkpt lat="45.356689" lon="-75.838385"><ele>27.0</ele><time>2025-08-03T00:11:20Z</time></trkpt>
<trkpt lat="45.356689" lon="-75.838385"><ele>27.0</ele><time>2025-08-03T00:11:21Z</time></trkpt>
<trkpt lat="45.356686" lon="-75.838376"><ele>27.0</ele><time>2025-08-03T00:11:22Z</time></trkpt>
<trkpt lat="45.356686" lon="-75.838376"><ele>27.0</ele><time>2025-08-03T00:11:23Z</time></trkpt>
<trkpt lat="45.356686" lon="-75.838376"><ele>27.0</ele><time>2025-08-03T00:11:23Z</time></trkpt>
<trkpt lat="45.356686" lon="-75.838367"><ele>27.0</ele><time>2025-08-03T00:11:25Z</time></trkpt>
<trkpt lat="45.356686" lon="-75.838367"><ele>27.0</ele><time>2025-08-03T00:11:25Z</time></trkpt>
<trkpt lat="45.356686" lon="-75.838367"><ele>27.0</ele><time>2025-08-03T00:11:27Z</time></trkpt>
<trkpt lat="45.356686" lon="-75.838367"><ele>27.0</ele><time>2025-08-03T00:11:27Z</time></trkpt>
<trkpt lat="45.356683" lon="-75.838367"><ele>27.0</ele><time>2025-08-03T00:11:29Z</time></trkpt>
<trkpt lat="45.356683" lon="-75.838367"><ele>27.0</ele><time>2025-08-03T00:11:30Z</time></trkpt>
<trkpt lat="45.356683" lon="-75.838367"><ele>27.0</ele><time>2025-08-03T00:11:31Z</time></trkpt>
<trkpt lat="45.356683" lon="-75.838367"><ele>27.0</ele><time>2025-08-03T00:11:32Z</time></trkpt>
<trkpt lat="45.356686" lon="-75.838367"><ele>27.0</ele><time>2025-08-03T00:11:33Z</time></trkpt>
<trkpt lat="45.356683" lon="-75.838367"><ele>27.0</ele><time>2025-08-03T00:11:34Z</time></trkpt>
<trkpt lat="45.356686" lon="-75.838367"><ele>27.0</ele><time>2025-08-03T00:11:35Z</time></trkpt>
<trkpt lat="45.356686" lon="-75.838367"><ele>27.0</ele><time>2025-08-03T00:11:36Z</time></trkpt>
<trkpt lat="45.356686" lon="-75.838358"><ele>27.0</ele><time>2025-08-03T00:11:37Z</time></trkpt>
<trkpt lat="45.356683" lon="-75.838358"><ele>27.0</ele><time>2025-08-03T00:11:37Z</time></trkpt>
<trkpt lat="45.356683" lon="-75.838358"><ele>27.0</ele><time>2025-08-03T00:11:39Z</time></trkpt>
<trkpt lat="45.356683" lon="-75.838358"><ele>27.0</ele><time>2025-08-03T00:11:39Z</time></trkpt>
<trkpt lat="45.356686" lon="-75.838358"><ele>27.0</ele><time>2025-08-03T00:11:41Z</time></trkpt>
<trkpt lat="45.356686" lon="-75.838358"><ele>27.0</ele><time>2025-08-03T00:11:42Z</time></trkpt>
<trkpt lat="45.356686" lon="-75.838349"><ele>27.0</ele><time>2025-08-03T00:11:43Z</time></trkpt>
<trkpt lat="45.356686" lon="-75.838349"><ele>27.0</ele><time>2025-08-03T00:11:43Z</time></trkpt>
<trkpt lat="45.356686" lon="-75.838349"><ele>27.0</ele><time>2025-08-03T00:11:45Z</time></trkpt>
<trkpt lat="45.356686" lon="-75.838349"><ele>27.0</ele><time>2025-08-03T00:11:45Z</time></trkpt>
<trkpt lat="45.356686" lon="-75.838349"><ele>27.0</ele><time>2025-08-03T00:11:45Z</time></trkpt>
<trkpt lat="45.356689" lon="-75.83834"><ele>27.0</ele><time>2025-08-03T00:11:47Z</time></trkpt>
<trkpt lat="45.356689" lon="-75.83834"><ele>27.0</ele><time>2025-08-03T00:11:47Z</time></trkpt>
<trkpt lat="45.356689" lon="-75.83834"><ele>27.0</ele><time>2025-08-03T00:11:49Z</time></trkpt>
<trkpt lat="45.356689" lon="-75.83834"><ele>27.0</ele><time>2025-08-03T00:11:50Z</time></trkpt>
<trkpt lat="45.356692" lon="-75.83834"><ele>27.0</ele><time>2025-08-03T00:11:50Z</time></trkpt>
<trkpt lat="45.356692" lon="-75.83834"><ele>27.0</ele><time>2025-08-03T00:11:52Z</time></trkpt>
<trkpt lat="45.356692" lon="-75.83834"><ele>27.0</ele><time>2025-08-03T00:11:52Z</time></trkpt>
<trkpt lat="45.356692" lon="-75.83834"><ele>27.0</ele><time>2025-08-03T00:11:54Z</time></trkpt>
<trkpt lat="45.356692" lon="-75.838331"><ele>27.0</ele><time>2025-08-03T00:11:55Z</time></trkpt>
<trkpt lat="45.356696" lon="-75.838331"><ele>27.0</ele><time>2025-08-03T00:11:56Z</time></trkpt>
<trkpt lat="45.356696" lon="-75.838331"><ele>27.0</ele><time>2025-08-03T00:11:57Z</time></trkpt>
<trkpt lat="45.356696" lon="-75.838331"><ele>27.0</ele><time>2025-08-03T00:11:58Z</time></trkpt>
<trkpt lat="45.356696" lon="-75.838331"><ele>27.0</ele><time>2025-08-03T00:11:59Z</time></trkpt>
<trkpt lat="45.356696" lon="-75.838322"><ele>27.0</ele><time>2025-08-03T00:12:00Z</time></trkpt>
<trkpt lat="45.356699" lon="-75.838322"><ele>27.0</ele><time>2025-08-03T00:12:01Z</time></trkpt>
<trkpt lat="45.356699" lon="-75.838322"><ele>27.0</ele><time>2025-08-03T00:12:02Z</time></trkpt>
<trkpt lat="45.356699" lon="-75.838322"><ele>27.0</ele><time>2025-08-03T00:12:03Z</time></trkpt>
<trkpt lat="45.356699" lon="-75.838313"><ele>27.0</ele><time>2025-08-03T00:12:04Z</time></trkpt>
<trkpt lat="45.356702" lon="-75.838313"><ele>27.0</ele><time>2025-08-03T00:12:05Z</time></trkpt>
<trkpt lat="45.356702" lon="-75.838313"><ele>27.0</ele><time>2025-08-03T00:12:05Z</time></trkpt>
<trkpt lat="45.356702" lon="-75.838304"><ele>27.0</ele><time>2025-08-03T00:12:05Z</time></trkpt>
<trkpt lat="45.356702" lon="-75.838304"><ele>27.0</ele><time>2025-08-03T00:12:07Z</time></trkpt>
<trkpt lat="45.356705" lon="-75.838304"><ele>27.0</ele><time>2025-08-03T00:12:08Z</time></trkpt>
<trkpt lat="45.356705" lon="-75.838304"><ele>27.0</ele><time>2025-08-03T00:12:09Z</time></trkpt>
<trkpt lat="45.356705" lon="-75.838304"><ele>27.0</ele><time>2025-08-03T00:12:10Z</time></trkpt>
<trkpt lat="45.356705" lon="-75.838304"><ele>27.0</ele><time>2025-08-03T00:12:10Z</time></trkpt>
<trkpt lat="45.356705" lon="-75.838304"><ele>27.0</ele><time>2025-08-03T00:12:11Z</time></trkpt>
<trkpt lat="45.356708" lon="-75.838304"><ele>27.0</ele><time>2025-08-03T00:12:12Z</time></trkpt>
<trkpt lat="45.356708" lon="-75.838295"><ele>26.0</ele><time>2025-08-03T00:12:13Z</time></trkpt>
<trkpt lat="45.356708" lon="-75.838295"><ele>27.0</ele><time>2025-08-03T00:12:14Z</time></trkpt>
<trkpt lat="45.356708" lon="-75.838295"><ele>27.0</ele><time>2025-08-03T00:12:15Z</time></trkpt>
<trkpt lat="45.356708" lon="-75.838295"><ele>27.0</ele><time>2025-08-03T00:12:15Z</time></trkpt>
<trkpt lat="45.356708" lon="-75.838295"><ele>27.0</ele><time>2025-08-03T00:12:16Z</time></trkpt>
<trkpt lat="45.356711" lon="-75.838295"><ele>27.0</ele><time>2025-08-03T00:12:17Z</time></trkpt>
<trkpt lat="45.356711" lon="-75.838295"><ele>27.0</ele><time>2025-08-03T00:12:18Z</time></trkpt>
<trkpt lat="45.356711" lon="-75.838295"><ele>27.0</ele><time>2025-08-03T00:12:19Z</time></trkpt>
<trkpt lat="45.356711" lon="-75.838295"><ele>27.0</ele><time>2025-08-03T00:12:20Z</time></trkpt>
<trkpt lat="45.356711" lon="-75.838295"><ele>27.0</ele><time>2025-08-03T00:12:20Z</time></trkpt>
<trkpt lat="45.356711" lon="-75.838295"><ele>26.0</ele><time>2025-08-03T00:12:21Z</time></trkpt>
<trkpt lat="45.356711" lon="-75.838295"><ele>27.0</ele><time>2025-08-03T00:12:22Z</time></trkpt>
<trkpt lat="45.356708" lon="-75.838295"><ele>26.0</ele><time>2025-08-03T00:12:23Z</time></trkpt>
<trkpt lat="45.356708" lon="-75.838295"><ele>27.0</ele><time>2025-08-03T00:12:24Z</time></trkpt>
<trkpt lat="45.356708" lon="-75.838295"><ele>27.0</ele><time>2025-08-03T00:12:25Z</time></trkpt>
<trkpt lat="45.356708" lon="-75.838295"><ele>27.0</ele><time>2025-08-03T00:12:25Z</time></trkpt>
<trkpt lat="45.356711" lon="-75.838295"><ele>27.0</ele><time>2025-08-03T00:12:26Z</time></trkpt>
<trkpt lat="45.356711" lon="-75.838295"><ele>27.0</ele><time>2025-08-03T00:12:27Z</time></trkpt>
<trkpt lat="45.356711" lon="-75.838286"><ele>26.0</ele><time>2025-08-03T00:12:28Z</time></trkpt>
<trkpt lat="45.356711" lon="-75.838286"><ele>26.0</ele><time>2025-08-03T00:12:29Z</time></trkpt>
<trkpt lat="45.356711" lon="-75.838286"><ele>26.0</ele><time>2025-08-03T00:12:30Z</time></trkpt>
<trkpt lat="45.356711" lon="-75.838286"><ele>26.0</ele><time>2025-08-03T00:12:31Z</time></trkpt>
<trkpt lat="45.356711" lon="-75.838286"><ele>27.0</ele><time>2025-08-03T00:12:32Z</time></trkpt>
<trkpt lat="45.356715" lon="-75.838286"><ele>27.0</ele><time>2025-08-03T00:12:33Z</time></trkpt>
<trkpt lat="45.356718" lon="-75.838286"><ele>27.0</ele><time>2025-08-03T00:12:33Z</time></trkpt>
<trkpt lat="45.356718" lon="-75.838277"><ele>27.0</ele><time>2025-08-03T00:12:35Z</time></trkpt>
<trkpt lat="45.356718" lon="-75.838277"><ele>27.0</ele><time>2025-08-03T00:12:36Z</time></trkpt>
<trkpt lat="45.356721" lon="-75.838277"><ele>26.0</ele><time>2025-08-03T00:12:36Z</time></trkpt>
<trkpt lat="45.356721" lon="-75.838277"><ele>26.0</ele><time>2025-08-03T00:12:38Z</time></trkpt>
<trkpt lat="45.356721" lon="-75.838277"><ele>26.0</ele><time>2025-08-03T00:12:39Z</time></trkpt>
<trkpt lat="45.356724" lon="-75.838277"><ele>26.0</ele><time>2025-08-03T00:12:40Z</time></trkpt>
<trkpt lat="45.356724" lon="-75.838277"><ele>27.0</ele><time>2025-08-03T00:12:41Z</time></trkpt>
<trkpt lat="45.356727" lon="-75.838277"><ele>26.0</ele><time>2025-08-03T00:12:42Z</time></trkpt>
<trkpt lat="45.356727" lon="-75.838268"><ele>26.0</ele><time>2025-08-03T00:12:43Z</time></trkpt>
<trkpt lat="45.356727" lon="-75.838268"><ele>27.0</ele><time>2025-08-03T00:12:44Z</time></trkpt>
<trkpt lat="45.356727" lon="-75.838268"><ele>26.0</ele><time>2025-08-03T00:12:45Z</time></trkpt>
<trkpt lat="45.35673" lon="-75.838268"><ele>27.0</ele><time>2025-08-03T00:12:46Z</time></trkpt>
<trkpt lat="45.35673" lon="-75.838268"><ele>27.0</ele><time>2025-08-03T00:12:47Z</time></trkpt>
<trkpt lat="45.356734" lon="-75.838268"><ele>26.0</ele><time>2025-08-03T00:12:48Z</time></trkpt>
<trkpt lat="45.356734" lon="-75.838268"><ele>26.0</ele><time>2025-08-03T00:12:49Z</time></trkpt>
<trkpt lat="45.356734" lon="-75.838268"><ele>26.0</ele><time>2025-08-03T00:12:50Z</time></trkpt>
<trkpt lat="45.356734" lon="-75.838268"><ele>26.0</ele><time>2025-08-03T00:12:51Z</time></trkpt>
<trkpt lat="45.356734" lon="-75.838268"><ele>26.0</ele><time>2025-08-03T00:12:52Z</time></trkpt>
<trkpt lat="45.356734" lon="-75.838268"><ele>26.0</ele><time>2025-08-03T00:12:53Z</time></trkpt>
<trkpt lat="45.356734" lon="-75.838268"><ele>26.0</ele><time>2025-08-03T00:12:54Z</time></trkpt>
<trkpt lat="45.356734" lon="-75.838268"><ele>26.0</ele><time>2025-08-03T00:12:55Z</time></trkpt>
<trkpt lat="45.356734" lon="-75.838268"><ele>27.0</ele><time>2025-08-03T00:12:56Z</time></trkpt>
<trkpt lat="45.356734" lon="-75.838268"><ele>27.0</ele><time>2025-08-03T00:12:57Z</time></trkpt>
<trkpt lat="45.356734" lon="-75.838268"><ele>26.0</ele><time>2025-08-03T00:12:58Z</time></trkpt>
<trkpt lat="45.356734" lon="-75.838268"><ele>26.0</ele><time>2025-08-03T00:12:59Z</time></trkpt>
<trkpt lat="45.356734" lon="-75.838268"><ele>26.0</ele><time>2025-08-03T00:13:00Z</time></trkpt>
<trkpt lat="45.356734" lon="-75.838268"><ele>26.0</ele><time>2025-08-03T00:13:01Z</time></trkpt>
<trkpt lat="45.356734" lon="-75.838268"><ele>27.0</ele><time>2025-08-03T00:13:02Z</time></trkpt>
<trkpt lat="45.356734" lon="-75.838268"><ele>26.0</ele><time>2025-08-03T00:13:03Z</time></trkpt>
<trkpt lat="45.356734" lon="-75.838268"><ele>26.0</ele><time>2025-08-03T00:13:04Z</time></trkpt>
<trkpt lat="45.356734" lon="-75.838268"><ele>26.0</ele><time>2025-08-03T00:13:05Z</time></trkpt>
<trkpt lat="45.356734" lon="-75.838268"><ele>27.0</ele><time>2025-08-03T00:13:06Z</time></trkpt>
<trkpt lat="45.356734" lon="-75.838268"><ele>26.0</ele><time>2025-08-03T00:13:07Z</time></trkpt>
<trkpt lat="45.356734" lon="-75.838268"><ele>26.0</ele><time>2025-08-03T00:13:08Z</time></trkpt>
<trkpt lat="45.356734" lon="-75.838268"><ele>26.0</ele><time>2025-08-03T00:13:09Z</time></trkpt>
<trkpt lat="45.356734" lon="-75.838268"><ele>26.0</ele><time>2025-08-03T00:13:10Z</time></trkpt>
<trkpt lat="45.356734" lon="-75.838268"><ele>26.0</ele><time>2025-08-03T00:13:11Z</time></trkpt>
<trkpt lat="45.356734" lon="-75.838268"><ele>27.0</ele><time>2025-08-03T00:13:12Z</time></trkpt>
<trkpt lat="45.356734" lon="-75.838268"><ele>26.0</ele><time>2025-08-03T00:13:13Z</time></trkpt>
<trkpt lat="45.356734" lon="-75.838268"><ele>27.0</ele><time>2025-08-03T00:13:14Z</time></trkpt>
<trkpt lat="45.356734" lon="-75.838268"><ele>26.0</ele><time>2025-08-03T00:13:15Z</time></trkpt>
<trkpt lat="45.356734" lon="-75.838268"><ele>27.0</ele><time>2025-08-03T00:13:16Z</time></trkpt>
<trkpt lat="45.356734" lon="-75.838268"><ele>27.0</ele><time>2025-08-03T00:13:17Z</time></trkpt>
<trkpt lat="45.356734" lon="-75.838268"><ele>27.0</ele><time>2025-08-03T00:13:18Z</time></trkpt>
<trkpt lat="45.356734" lon="-75.838268"><ele>26.0</ele><time>2025-08-03T00:13:19Z</time></trkpt>
<trkpt lat="45.356734" lon="-75.838268"><ele>27.0</ele><time>2025-08-03T00:13:20Z</time></trkpt>
<trkpt lat="45.356734" lon="-75.838268"><ele>27.0</ele><time>2025-08-03T00:13:21Z</time></trkpt>
<trkpt lat="45.356734" lon="-75.838268"><ele>27.0</ele><time>2025-08-03T00:13:22Z</time></trkpt>
<trkpt lat="45.356734" lon="-75.838268"><ele>27.0</ele><time>2025-08-03T00:13:23Z</time></trkpt>
<trkpt lat="45.356734" lon="-75.838268"><ele>26.0</ele><time>2025-08-03T00:13:24Z</time></trkpt>
<trkpt lat="45.356734" lon="-75.838268"><ele>26.0</ele><time>2025-08-03T00:13:25Z</time></trkpt>
<trkpt lat="45.356734" lon="-75.838268"><ele>26.0</ele><time>2025-08-03T00:13:25Z</time></trkpt>
<trkpt lat="45.356734" lon="-75.838268"><ele>26.0</ele><time>2025-08-03T00:13:26Z</time></trkpt>
<trkpt lat="45.356734" lon="-75.838268"><ele>26.0</ele><time>2025-08-03T00:13:27Z</time></trkpt>
<trkpt lat="45.356734" lon="-75.838268"><ele>26.0</ele><time>2025-08-03T00:13:28Z</time></trkpt>
<trkpt lat="45.356734" lon="-75.838268"><ele>26.0</ele><time>2025-08-03T00:13:29Z</time></trkpt>
<trkpt lat="45.356734" lon="-75.838268"><ele>26.0</ele><time>2025-08-03T00:13:30Z</time></trkpt>
<trkpt lat="45.356734" lon="-75.838268"><ele>26.0</ele><time>2025-08-03T00:13:31Z</time></trkpt>
<trkpt lat="45.356734" lon="-75.838268"><ele>26.0</ele><time>2025-08-03T00:13:32Z</time></trkpt>
<trkpt lat="45.356734" lon="-75.838268"><ele>26.0</ele><time>2025-08-03T00:13:33Z</time></trkpt>
<trkpt lat="45.356734" lon="-75.838268"><ele>26.0</ele><time>2025-08-03T00:13:33Z</time></trkpt>
<trkpt lat="45.356734" lon="-75.838268"><ele>27.0</ele><time>2025-08-03T00:13:35Z</time></trkpt>
<trkpt lat="45.356734" lon="-75.838268"><ele>26.0</ele><time>2025-08-03T00:13:36Z</time></trkpt>
<trkpt lat="45.356734" lon="-75.838268"><ele>26.0</ele><time>2025-08-03T00:13:37Z</time></trkpt>
<trkpt lat="45.356734" lon="-75.838268"><ele>26.0</ele><time>2025-08-03T00:13:38Z</time></trkpt>
<trkpt lat="45.356734" lon="-75.838268"><ele>26.0</ele><time>2025-08-03T00:13:39Z</time></trkpt>
<trkpt lat="45.356734" lon="-75.838268"><ele>26.0</ele><time>2025-08-03T00:13:40Z</time></trkpt>
<trkpt lat="45.356734" lon="-75.838268"><ele>26.0</ele><time>2025-08-03T00:13:41Z</time></trkpt>
<trkpt lat="45.356734" lon="-75.838268"><ele>26.0</ele><time>2025-08-03T00:13:42Z</time></trkpt>
<trkpt lat="45.356734" lon="-75.838268"><ele>26.0</ele><time>2025-08-03T00:13:43Z</time></trkpt>
<trkpt lat="45.356734" lon="-75.838268"><ele>26.0</ele><time>2025-08-03T00:13:44Z</time></trkpt>
<trkpt lat="45.356734" lon="-75.838268"><ele>26.0</ele><time>2025-08-03T00:13:45Z</time></trkpt>
<trkpt lat="45.356734" lon="-75.838268"><ele>26.0</ele><time>2025-08-03T00:13:46Z</time></trkpt>
<trkpt lat="45.356734" lon="-75.838268"><ele>27.0</ele><time>2025-08-03T00:13:47Z</time></trkpt>
<trkpt lat="45.356734" lon="-75.838268"><ele>27.0</ele><time>2025-08-03T00:13:48Z</time></trkpt>
<trkpt lat="45.356734" lon="-75.838268"><ele>27.0</ele><time>2025-08-03T00:13:49Z</time></trkpt>
<trkpt lat="45.356734" lon="-75.838268"><ele>27.0</ele><time>2025-08-03T00:13:50Z</time></trkpt>
<trkpt lat="45.356734" lon="-75.838268"><ele>26.0</ele><time>2025-08-03T00:13:50Z</time></trkpt>
<trkpt lat="45.356734" lon="-75.838268"><ele>26.0</ele><time>2025-08-03T00:13:52Z</time></trkpt>
<trkpt lat="45.356734" lon="-75.838268"><ele>26.0</ele><time>2025-08-03T00:13:53Z</time></trkpt>
<trkpt lat="45.356737" lon="-75.838277"><ele>26.0</ele><time>2025-08-03T00:13:54Z</time></trkpt>
<trkpt lat="45.356737" lon="-75.838277"><ele>26.0</ele><time>2025-08-03T00:13:55Z</time></trkpt>
<trkpt lat="45.35674" lon="-75.838277"><ele>27.0</ele><time>2025-08-03T00:13:56Z</time></trkpt>
<trkpt lat="45.35674" lon="-75.838277"><ele>26.0</ele><time>2025-08-03T00:13:57Z</time></trkpt>
<trkpt lat="45.356743" lon="-75.838277"><ele>26.0</ele><time>2025-08-03T00:13:58Z</time></trkpt>
<trkpt lat="45.356743" lon="-75.838277"><ele>27.0</ele><time>2025-08-03T00:13:59Z</time></trkpt>
<trkpt lat="45.356743" lon="-75.838277"><ele>27.0</ele><time>2025-08-03T00:14:00Z</time></trkpt>
<trkpt lat="45.356743" lon="-75.838277"><ele>26.0</ele><time>2025-08-03T00:14:01Z</time></trkpt>
<trkpt lat="45.356743" lon="-75.838277"><ele>26.0</ele><time>2025-08-03T00:14:02Z</time></trkpt>
<trkpt lat="45.356746" lon="-75.838277"><ele>27.0</ele><time>2025-08-03T00:14:03Z</time></trkpt>
<trkpt lat="45.356746" lon="-75.838277"><ele>27.0</ele><time>2025-08-03T00:14:04Z</time></trkpt>
<trkpt lat="45.356746" lon="-75.838277"><ele>26.0</ele><time>2025-08-03T00:14:05Z</time></trkpt>
<trkpt lat="45.356746" lon="-75.838277"><ele>26.0</ele><time>2025-08-03T00:14:06Z</time></trkpt>
<trkpt lat="45.356746" lon="-75.838286"><ele>26.0</ele><time>2025-08-03T00:14:07Z</time></trkpt>
<trkpt lat="45.356746" lon="-75.838286"><ele>26.0</ele><time>2025-08-03T00:14:08Z</time></trkpt>
<trkpt lat="45.356746" lon="-75.838286"><ele>26.0</ele><time>2025-08-03T00:14:09Z</time></trkpt>
<trkpt lat="45.356746" lon="-75.838286"><ele>26.0</ele><time>2025-08-03T00:14:10Z</time></trkpt>
<trkpt lat="45.356746" lon="-75.838286"><ele>26.0</ele><time>2025-08-03T00:14:11Z</time></trkpt>
<trkpt lat="45.356746" lon="-75.838286"><ele>26.0</ele><time>2025-08-03T00:14:12Z</time></trkpt>
<trkpt lat="45.356749" lon="-75.838286"><ele>26.0</ele><time>2025-08-03T00:14:13Z</time></trkpt>
<trkpt lat="45.356749" lon="-75.838286"><ele>26.0</ele><time>2025-08-03T00:14:14Z</time></trkpt>
<trkpt lat="45.356749" lon="-75.838286"><ele>27.0</ele><time>2025-08-03T00:14:15Z</time></trkpt>
<trkpt lat="45.356749" lon="-75.838286"><ele>26.0</ele><time>2025-08-03T00:14:16Z</time></trkpt>
<trkpt lat="45.356749" lon="-75.838286"><ele>26.0</ele><time>2025-08-03T00:14:17Z</time></trkpt>
<trkpt lat="45.356749" lon="-75.838286"><ele>26.0</ele><time>2025-08-03T00:14:18Z</time></trkpt>
<trkpt lat="45.356749" lon="-75.838286"><ele>26.0</ele><time>2025-08-03T00:14:19Z</time></trkpt>
<trkpt lat="45.356749" lon="-75.838286"><ele>26.0</ele><time>2025-08-03T00:14:20Z</time></trkpt>
<trkpt lat="45.356749" lon="-75.838286"><ele>26.0</ele><time>2025-08-03T00:14:21Z</time></trkpt>
<trkpt lat="45.356749" lon="-75.838286"><ele>26.0</ele><time>2025-08-03T00:14:22Z</time></trkpt>
<trkpt lat="45.356749" lon="-75.838286"><ele>26.0</ele><time>2025-08-03T00:14:23Z</time></trkpt>
<trkpt lat="45.356749" lon="-75.838286"><ele>26.0</ele><time>2025-08-03T00:14:24Z</time></trkpt>
<trkpt lat="45.356749" lon="-75.838286"><ele>26.0</ele><time>2025-08-03T00:14:25Z</time></trkpt>
<trkpt lat="45.356749" lon="-75.838286"><ele>26.0</ele><time>2025-08-03T00:14:26Z</time></trkpt>
<trkpt lat="45.356743" lon="-75.838286"><ele>26.0</ele><time>2025-08-03T00:14:27Z</time></trkpt>
<trkpt lat="45.356743" lon="-75.838286"><ele>26.0</ele><time>2025-08-03T00:14:28Z</time></trkpt>
<trkpt lat="45.356746" lon="-75.838286"><ele>26.0</ele><time>2025-08-03T00:14:29Z</time></trkpt>
<trkpt lat="45.356749" lon="-75.838286"><ele>26.0</ele><time>2025-08-03T00:14:30Z</time></trkpt>
<trkpt lat="45.356749" lon="-75.838286"><ele>26.0</ele><time>2025-08-03T00:14:31Z</time></trkpt>
<trkpt lat="45.356749" lon="-75.838286"><ele>27.0</ele><time>2025-08-03T00:14:32Z</time></trkpt>
<trkpt lat="45.356749" lon="-75.838286"><ele>26.0</ele><time>2025-08-03T00:14:33Z</time></trkpt>
<trkpt lat="45.356749" lon="-75.838286"><ele>26.0</ele><time>2025-08-03T00:14:34Z</time></trkpt>
<trkpt lat="45.356749" lon="-75.838286"><ele>26.0</ele><time>2025-08-03T00:14:35Z</time></trkpt>
<trkpt lat="45.356753" lon="-75.838286"><ele>26.0</ele><time>2025-08-03T00:14:36Z</time></trkpt>
<trkpt lat="45.356753" lon="-75.838286"><ele>26.0</ele><time>2025-08-03T00:14:37Z</time></trkpt>
<trkpt lat="45.356753" lon="-75.838286"><ele>26.0</ele><time>2025-08-03T00:14:38Z</time></trkpt>
<trkpt lat="45.356756" lon="-75.838286"><ele>26.0</ele><time>2025-08-03T00:14:39Z</time></trkpt>
<trkpt lat="45.356756" lon="-75.838286"><ele>26.0</ele><time>2025-08-03T00:14:40Z</time></trkpt>
<trkpt lat="45.356756" lon="-75.838286"><ele>26.0</ele><time>2025-08-03T00:14:41Z</time></trkpt>
<trkpt lat="45.356756" lon="-75.838286"><ele>26.0</ele><time>2025-08-03T00:14:41Z</time></trkpt>
<trkpt lat="45.356756" lon="-75.838286"><ele>26.0</ele><time>2025-08-03T00:14:42Z</time></trkpt>
<trkpt lat="45.356756" lon="-75.838286"><ele>26.0</ele><time>2025-08-03T00:14:43Z</time></trkpt>
<trkpt lat="45.356756" lon="-75.838286"><ele>26.0</ele><time>2025-08-03T00:14:44Z</time></trkpt>
<trkpt lat="45.356759" lon="-75.838286"><ele>26.0</ele><time>2025-08-03T00:14:45Z</time></trkpt>
<trkpt lat="45.356759" lon="-75.838286"><ele>26.0</ele><time>2025-08-03T00:14:46Z</time></trkpt>
<trkpt lat="45.356759" lon="-75.838286"><ele>26.0</ele><time>2025-08-03T00:14:46Z</time></trkpt>
<trkpt lat="45.356759" lon="-75.838286"><ele>26.0</ele><time>2025-08-03T00:14:47Z</time></trkpt>
<trkpt lat="45.356759" lon="-75.838286"><ele>26.0</ele><time>2025-08-03T00:14:48Z</time></trkpt>
<trkpt lat="45.356759" lon="-75.838286"><ele>26.0</ele><time>2025-08-03T00:14:49Z</time></trkpt>
<trkpt lat="45.356759" lon="-75.838286"><ele>26.0</ele><time>2025-08-03T00:14:50Z</time></trkpt>
<trkpt lat="45.356759" lon="-75.838286"><ele>26.0</ele><time>2025-08-03T00:14:51Z</time></trkpt>
<trkpt lat="45.356759" lon="-75.838286"><ele>26.0</ele><time>2025-08-03T00:14:51Z</time></trkpt>
<trkpt lat="45.356759" lon="-75.838286"><ele>26.0</ele><time>2025-08-03T00:14:52Z</time></trkpt>
<trkpt lat="45.356759" lon="-75.838295"><ele>26.0</ele><time>2025-08-03T00:14:53Z</time></trkpt>
<trkpt lat="45.356759" lon="-75.838295"><ele>26.0</ele><time>2025-08-03T00:14:54Z</time></trkpt>
<trkpt lat="45.356759" lon="-75.838295"><ele>26.0</ele><time>2025-08-03T00:14:55Z</time></trkpt>
<trkpt lat="45.356759" lon="-75.838295"><ele>27.0</ele><time>2025-08-03T00:14:56Z</time></trkpt>
<trkpt lat="45.356759" lon="-75.838295"><ele>26.0</ele><time>2025-08-03T00:14:56Z</time></trkpt>
<trkpt lat="45.356762" lon="-75.838295"><ele>26.0</ele><time>2025-08-03T00:14:57Z</time></trkpt>
<trkpt lat="45.356762" lon="-75.838295"><ele>27.0</ele><time>2025-08-03T00:14:58Z</time></trkpt>
<trkpt lat="45.356762" lon="-75.838295"><ele>26.0</ele><time>2025-08-03T00:14:59Z</time></trkpt>
<trkpt lat="45.356762" lon="-75.838295"><ele>26.0</ele><time>2025-08-03T00:15:00Z</time></trkpt>
<trkpt lat="45.356762" lon="-75.838295"><ele>26.0</ele><time>2025-08-03T00:15:01Z</time></trkpt>
<trkpt lat="45.356762" lon="-75.838295"><ele>26.0</ele><time>2025-08-03T00:15:01Z</time></trkpt>
<trkpt lat="45.356762" lon="-75.838295"><ele>26.0</ele><time>2025-08-03T00:15:02Z</time></trkpt>
<trkpt lat="45.356762" lon="-75.838295"><ele>26.0</ele><time>2025-08-03T00:15:03Z</time></trkpt>
<trkpt lat="45.356762" lon="-75.838295"><ele>26.0</ele><time>2025-08-03T00:15:04Z</time></trkpt>
<trkpt lat="45.356762" lon="-75.838295"><ele>26.0</ele><time>2025-08-03T00:15:05Z</time></trkpt>
<trkpt lat="45.356762" lon="-75.838295"><ele>26.0</ele><time>2025-08-03T00:15:06Z</time></trkpt>
<trkpt lat="45.356762" lon="-75.838295"><ele>26.0</ele><time>2025-08-03T00:15:06Z</time></trkpt>
<trkpt lat="45.356762" lon="-75.838295"><ele>26.0</ele><time>2025-08-03T00:15:07Z</time></trkpt>
<trkpt lat="45.356762" lon="-75.838295"><ele>26.0</ele><time>2025-08-03T00:15:08Z</time></trkpt>
<trkpt lat="45.356762" lon="-75.838295"><ele>26.0</ele><time>2025-08-03T00:15:09Z</time></trkpt>
<trkpt lat="45.356762" lon="-75.838295"><ele>26.0</ele><time>2025-08-03T00:15:10Z</time></trkpt>
<trkpt lat="45.356765" lon="-75.838295"><ele>26.0</ele><time>2025-08-03T00:15:11Z</time></trkpt>
<trkpt lat="45.356765" lon="-75.838295"><ele>26.0</ele><time>2025-08-03T00:15:11Z</time></trkpt>
<trkpt lat="45.356765" lon="-75.838295"><ele>26.0</ele><time>2025-08-03T00:15:12Z</time></trkpt>
<trkpt lat="45.356765" lon="-75.838295"><ele>26.0</ele><time>2025-08-03T00:15:13Z</time></trkpt>
<trkpt lat="45.356765" lon="-75.838295"><ele>26.0</ele><time>2025-08-03T00:15:14Z</time></trkpt>
<trkpt lat="45.356765" lon="-75.838295"><ele>26.0</ele><time>2025-08-03T00:15:15Z</time></trkpt>
<trkpt lat="45.356765" lon="-75.838295"><ele>26.0</ele><time>2025-08-03T00:15:16Z</time></trkpt>
<trkpt lat="45.356765" lon="-75.838295"><ele>26.0</ele><time>2025-08-03T00:15:16Z</time></trkpt>
<trkpt lat="45.356765" lon="-75.838295"><ele>26.0</ele><time>2025-08-03T00:15:17Z</time></trkpt>
<trkpt lat="45.356765" lon="-75.838295"><ele>26.0</ele><time>2025-08-03T00:15:18Z</time></trkpt>
<trkpt lat="45.356765" lon="-75.838295"><ele>26.0</ele><time>2025-08-03T00:15:19Z</time></trkpt>
<trkpt lat="45.356765" lon="-75.838295"><ele>26.0</ele><time>2025-08-03T00:15:20Z</time></trkpt>
<trkpt lat="45.356765" lon="-75.838295"><ele>26.0</ele><time>2025-08-03T00:15:21Z</time></trkpt>
<trkpt lat="45.356765" lon="-75.838295"><ele>26.0</ele><time>2025-08-03T00:15:21Z</time></trkpt>
<trkpt lat="45.356765" lon="-75.838295"><ele>26.0</ele><time>2025-08-03T00:15:22Z</time></trkpt>
<trkpt lat="45.356765" lon="-75.838295"><ele>26.0</ele><time>2025-08-03T00:15:23Z</time></trkpt>
<trkpt lat="45.356765" lon="-75.838295"><ele>26.0</ele><time>2025-08-03T00:15:24Z</time></trkpt>
<trkpt lat="45.356765" lon="-75.838295"><ele>26.0</ele><time>2025-08-03T00:15:25Z</time></trkpt>
<trkpt lat="45.356765" lon="-75.838295"><ele>26.0</ele><time>2025-08-03T00:15:26Z</time></trkpt>
<trkpt lat="45.356768" lon="-75.838295"><ele>26.0</ele><time>2025-08-03T00:15:26Z</time></trkpt>
<trkpt lat="45.356765" lon="-75.838295"><ele>26.0</ele><time>2025-08-03T00:15:27Z</time></trkpt>
<trkpt lat="45.356765" lon="-75.838295"><ele>26.0</ele><time>2025-08-03T00:15:28Z</time></trkpt>
<trkpt lat="45.356765" lon="-75.838295"><ele>26.0</ele><time>2025-08-03T00:15:29Z</time></trkpt>
<trkpt lat="45.356765" lon="-75.838295"><ele>26.0</ele><time>2025-08-03T00:15:30Z</time></trkpt>
<trkpt lat="45.356765" lon="-75.838295"><ele>26.0</ele><time>2025-08-03T00:15:31Z</time></trkpt>
<trkpt lat="45.356765" lon="-75.838295"><ele>26.0</ele><time>2025-08-03T00:15:31Z</time></trkpt>
<trkpt lat="45.356765" lon="-75.838295"><ele>26.0</ele><time>2025-08-03T00:15:32Z</time></trkpt>
<trkpt lat="45.356768" lon="-75.838295"><ele>26.0</ele><time>2025-08-03T00:15:33Z</time></trkpt>
<trkpt lat="45.356768" lon="-75.838295"><ele>26.0</ele><time>2025-08-03T00:15:33Z</time></trkpt>
<trkpt lat="45.356768" lon="-75.838295"><ele>26.0</ele><time>2025-08-03T00:15:34Z</time></trkpt>
<trkpt lat="45.356768" lon="-75.838295"><ele>26.0</ele><time>2025-08-03T00:15:36Z</time></trkpt>
<trkpt lat="45.356768" lon="-75.838295"><ele>26.0</ele><time>2025-08-03T00:15:36Z</time></trkpt>
<trkpt lat="45.356768" lon="-75.838295"><ele>26.0</ele><time>2025-08-03T00:15:37Z</time></trkpt>
<trkpt lat="45.356768" lon="-75.838295"><ele>26.0</ele><time>2025-08-03T00:15:38Z</time></trkpt>
<trkpt lat="45.356768" lon="-75.838295"><ele>26.0</ele><time>2025-08-03T00:15:39Z</time></trkpt>
<trkpt lat="45.356768" lon="-75.838295"><ele>26.0</ele><time>2025-08-03T00:15:40Z</time></trkpt>
<trkpt lat="45.356772" lon="-75.838295"><ele>26.0</ele><time>2025-08-03T00:15:41Z</time></trkpt>
<trkpt lat="45.356772" lon="-75.838295"><ele>26.0</ele><time>2025-08-03T00:15:41Z</time></trkpt>
<trkpt lat="45.356772" lon="-75.838295"><ele>26.0</ele><time>2025-08-03T00:15:42Z</time></trkpt>
<trkpt lat="45.356772" lon="-75.838295"><ele>26.0</ele><time>2025-08-03T00:15:43Z</time></trkpt>
<trkpt lat="45.356772" lon="-75.838295"><ele>26.0</ele><time>2025-08-03T00:15:44Z</time></trkpt>
<trkpt lat="45.356772" lon="-75.838295"><ele>26.0</ele><time>2025-08-03T00:15:45Z</time></trkpt>
<trkpt lat="45.356772" lon="-75.838295"><ele>26.0</ele><time>2025-08-03T00:15:46Z</time></trkpt>
<trkpt lat="45.356772" lon="-75.838295"><ele>26.0</ele><time>2025-08-03T00:15:46Z</time></trkpt>
<trkpt lat="45.356772" lon="-75.838295"><ele>26.0</ele><time>2025-08-03T00:15:47Z</time></trkpt>
<trkpt lat="45.356772" lon="-75.838295"><ele>26.0</ele><time>2025-08-03T00:15:48Z</time></trkpt>
<trkpt lat="45.356772" lon="-75.838295"><ele>26.0</ele><time>2025-08-03T00:15:49Z</time></trkpt>
<trkpt lat="45.356772" lon="-75.838295"><ele>26.0</ele><time>2025-08-03T00:15:50Z</time></trkpt>
<trkpt lat="45.356772" lon="-75.838295"><ele>26.0</ele><time>2025-08-03T00:15:51Z</time></trkpt>
<trkpt lat="45.356772" lon="-75.838295"><ele>26.0</ele><time>2025-08-03T00:15:51Z</time></trkpt>
<trkpt lat="45.356772" lon="-75.838295"><ele>26.0</ele><time>2025-08-03T00:15:52Z</time></trkpt>
<trkpt lat="45.356772" lon="-75.838295"><ele>26.0</ele><time>2025-08-03T00:15:53Z</time></trkpt>
<trkpt lat="45.356772" lon="-75.838295"><ele>26.0</ele><time>2025-08-03T00:15:54Z</time></trkpt>
<trkpt lat="45.356772" lon="-75.838295"><ele>26.0</ele><time>2025-08-03T00:15:55Z</time></trkpt>
<trkpt lat="45.356772" lon="-75.838295"><ele>26.0</ele><time>2025-08-03T00:15:56Z</time></trkpt>
<trkpt lat="45.356772" lon="-75.838295"><ele>26.0</ele><time>2025-08-03T00:15:56Z</time></trkpt>
<trkpt lat="45.356772" lon="-75.838295"><ele>26.0</ele><time>2025-08-03T00:15:57Z</time></trkpt>
<trkpt lat="45.356772" lon="-75.838295"><ele>26.0</ele><time>2025-08-03T00:15:58Z</time></trkpt>
<trkpt lat="45.356772" lon="-75.838295"><ele>26.0</ele><time>2025-08-03T00:15:59Z</time></trkpt>
<trkpt lat="45.356772" lon="-75.838295"><ele>26.0</ele><time>2025-08-03T00:16:00Z</time></trkpt>
<trkpt lat="45.356772" lon="-75.838295"><ele>26.0</ele><time>2025-08-03T00:16:01Z</time></trkpt>
<trkpt lat="45.356772" lon="-75.838295"><ele>26.0</ele><time>2025-08-03T00:16:02Z</time></trkpt>
<trkpt lat="45.356772" lon="-75.838295"><ele>26.0</ele><time>2025-08-03T00:16:03Z</time></trkpt>
<trkpt lat="45.356772" lon="-75.838295"><ele>26.0</ele><time>2025-08-03T00:16:04Z</time></trkpt>
<trkpt lat="45.356772" lon="-75.838295"><ele>26.0</ele><time>2025-08-03T00:16:05Z</time></trkpt>
<trkpt lat="45.356772" lon="-75.838295"><ele>26.0</ele><time>2025-08-03T00:16:06Z</time></trkpt>
<trkpt lat="45.356772" lon="-75.838295"><ele>26.0</ele><time>2025-08-03T00:16:06Z</time></trkpt>
<trkpt lat="45.356772" lon="-75.838295"><ele>26.0</ele><time>2025-08-03T00:16:07Z</time></trkpt>
<trkpt lat="45.356772" lon="-75.838295"><ele>26.0</ele><time>2025-08-03T00:16:08Z</time></trkpt>
<trkpt lat="45.356772" lon="-75.838295"><ele>26.0</ele><time>2025-08-03T00:16:09Z</time></trkpt>
<trkpt lat="45.356772" lon="-75.838295"><ele>26.0</ele><time>2025-08-03T00:16:10Z</time></trkpt>
<trkpt lat="45.356772" lon="-75.838295"><ele>26.0</ele><time>2025-08-03T00:16:11Z</time></trkpt>
<trkpt lat="45.356772" lon="-75.838295"><ele>26.0</ele><time>2025-08-03T00:16:11Z</time></trkpt>
<trkpt lat="45.356772" lon="-75.838295"><ele>26.0</ele><time>2025-08-03T00:16:12Z</time></trkpt>
<trkpt lat="45.356772" lon="-75.838295"><ele>26.0</ele><time>2025-08-03T00:16:13Z</time></trkpt>
<trkpt lat="45.356772" lon="-75.838295"><ele>26.0</ele><time>2025-08-03T00:16:14Z</time></trkpt>
<trkpt lat="45.356772" lon="-75.838295"><ele>26.0</ele><time>2025-08-03T00:16:15Z</time></trkpt>
<trkpt lat="45.356772" lon="-75.838295"><ele>26.0</ele><time>2025-08-03T00:16:16Z</time></trkpt>
<trkpt lat="45.356772" lon="-75.838295"><ele>26.0</ele><time>2025-08-03T00:16:16Z</time></trkpt>
<trkpt lat="45.356772" lon="-75.838295"><ele>26.0</ele><time>2025-08-03T00:16:17Z</time></trkpt>
<trkpt lat="45.356772" lon="-75.838295"><ele>26.0</ele><time>2025-08-03T00:16:18Z</time></trkpt>
<trkpt lat="45.356772" lon="-75.838295"><ele>26.0</ele><time>2025-08-03T00:16:19Z</time></trkpt>
<trkpt lat="45.356772" lon="-75.838295"><ele>26.0</ele><time>2025-08-03T00:16:20Z</time></trkpt>
<trkpt lat="45.356775" lon="-75.838304"><ele>26.0</ele><time>2025-08-03T00:16:21Z</time></trkpt>
<trkpt lat="45.356775" lon="-75.838304"><ele>26.0</ele><time>2025-08-03T00:16:21Z</time></trkpt>
<trkpt lat="45.356775" lon="-75.838304"><ele>26.0</ele><time>2025-08-03T00:16:22Z</time></trkpt>
<trkpt lat="45.356778" lon="-75.838304"><ele>26.0</ele><time>2025-08-03T00:16:23Z</time></trkpt>
<trkpt lat="45.356781" lon="-75.838304"><ele>26.0</ele><time>2025-08-03T00:16:24Z</time></trkpt>
<trkpt lat="45.356781" lon="-75.838304"><ele>26.0</ele><time>2025-08-03T00:16:25Z</time></trkpt>
<trkpt lat="45.356781" lon="-75.838313"><ele>26.0</ele><time>2025-08-03T00:16:26Z</time></trkpt>
<trkpt lat="45.356781" lon="-75.838313"><ele>26.0</ele><time>2025-08-03T00:16:26Z</time></trkpt>
<trkpt lat="45.356781" lon="-75.838313"><ele>26.0</ele><time>2025-08-03T00:16:27Z</time></trkpt>
<trkpt lat="45.356781" lon="-75.838313"><ele>26.0</ele><time>2025-08-03T00:16:27Z</time></trkpt>
<trkpt lat="45.356781" lon="-75.838313"><ele>26.0</ele><time>2025-08-03T00:16:28Z</time></trkpt>
<trkpt lat="45.356781" lon="-75.838313"><ele>26.0</ele><time>2025-08-03T00:16:29Z</time></trkpt>
<trkpt lat="45.356781" lon="-75.838313"><ele>26.0</ele><time>2025-08-03T00:16:30Z</time></trkpt>
<trkpt lat="45.356781" lon="-75.838313"><ele>26.0</ele><time>2025-08-03T00:16:30Z</time></trkpt>
<trkpt lat="45.356781" lon="-75.838313"><ele>26.0</ele><time>2025-08-03T00:16:31Z</time></trkpt>
<trkpt lat="45.356781" lon="-75.838313"><ele>26.0</ele><time>2025-08-03T00:16:33Z</time></trkpt>
<trkpt lat="45.356784" lon="-75.838313"><ele>26.0</ele><time>2025-08-03T00:16:33Z</time></trkpt>
<trkpt lat="45.356787" lon="-75.838304"><ele>26.0</ele><time>2025-08-03T00:16:35Z</time></trkpt>
<trkpt lat="45.356791" lon="-75.838304"><ele>26.0</ele><time>2025-08-03T00:16:35Z</time></trkpt>
<trkpt lat="45.356791" lon="-75.838304"><ele>26.0</ele><time>2025-08-03T00:16:37Z</time></trkpt>
<trkpt lat="45.356791" lon="-75.838304"><ele>26.0</ele><time>2025-08-03T00:16:37Z</time></trkpt>
<trkpt lat="45.356791" lon="-75.838304"><ele>26.0</ele><time>2025-08-03T00:16:38Z</time></trkpt>
<trkpt lat="45.356791" lon="-75.838304"><ele>26.0</ele><time>2025-08-03T00:16:39Z</time></trkpt>
<trkpt lat="45.356791" lon="-75.838304"><ele>26.0</ele><time>2025-08-03T00:16:40Z</time></trkpt>
<trkpt lat="45.356791" lon="-75.838304"><ele>26.0</ele><time>2025-08-03T00:16:40Z</time></trkpt>
<trkpt lat="45.356791" lon="-75.838304"><ele>26.0</ele><time>2025-08-03T00:16:42Z</time></trkpt>
<trkpt lat="45.356791" lon="-75.838304"><ele>26.0</ele><time>2025-08-03T00:16:42Z</time></trkpt>
<trkpt lat="45.356791" lon="-75.838313"><ele>26.0</ele><time>2025-08-03T00:16:43Z</time></trkpt>
<trkpt lat="45.356791" lon="-75.838313"><ele>26.0</ele><time>2025-08-03T00:16:44Z</time></trkpt>
<trkpt lat="45.356791" lon="-75.838313"><ele>26.0</ele><time>2025-08-03T00:16:45Z</time></trkpt>
<trkpt lat="45.356791" lon="-75.838313"><ele>26.0</ele><time>2025-08-03T00:16:46Z</time></trkpt>
<trkpt lat="45.356791" lon="-75.838313"><ele>26.0</ele><time>2025-08-03T00:16:46Z</time></trkpt>
<trkpt lat="45.356787" lon="-75.838313"><ele>26.0</ele><time>2025-08-03T00:16:47Z</time></trkpt>
<trkpt lat="45.356787" lon="-75.838322"><ele>26.0</ele><time>2025-08-03T00:16:48Z</time></trkpt>
<trkpt lat="45.356787" lon="-75.838322"><ele>26.0</ele><time>2025-08-03T00:16:49Z</time></trkpt>
<trkpt lat="45.356787" lon="-75.838322"><ele>26.0</ele><time>2025-08-03T00:16:50Z</time></trkpt>
<trkpt lat="45.356787" lon="-75.838322"><ele>26.0</ele><time>2025-08-03T00:16:51Z</time></trkpt>
<trkpt lat="45.356787" lon="-75.838322"><ele>26.0</ele><time>2025-08-03T00:16:51Z</time></trkpt>
<trkpt lat="45.356787" lon="-75.838322"><ele>26.0</ele><time>2025-08-03T00:16:53Z</time></trkpt>
<trkpt lat="45.356791" lon="-75.838322"><ele>26.0</ele><time>2025-08-03T00:16:54Z</time></trkpt>
<trkpt lat="45.356791" lon="-75.838322"><ele>26.0</ele><time>2025-08-03T00:16:55Z</time></trkpt>
<trkpt lat="45.356791" lon="-75.838313"><ele>27.0</ele><time>2025-08-03T00:16:56Z</time></trkpt>
<trkpt lat="45.356791" lon="-75.838313"><ele>27.0</ele><time>2025-08-03T00:16:56Z</time></trkpt>
<trkpt lat="45.356791" lon="-75.838313"><ele>27.0</ele><time>2025-08-03T00:16:57Z</time></trkpt>
<trkpt lat="45.356791" lon="-75.838313"><ele>27.0</ele><time>2025-08-03T00:16:59Z</time></trkpt>
<trkpt lat="45.356791" lon="-75.838313"><ele>27.0</ele><time>2025-08-03T00:17:00Z</time></trkpt>
<trkpt lat="45.356791" lon="-75.838313"><ele>27.0</ele><time>2025-08-03T00:17:00Z</time></trkpt>
<trkpt lat="45.356791" lon="-75.838313"><ele>27.0</ele><time>2025-08-03T00:17:01Z</time></trkpt>
<trkpt lat="45.356791" lon="-75.838313"><ele>26.0</ele><time>2025-08-03T00:17:01Z</time></trkpt>
<trkpt lat="45.356791" lon="-75.838313"><ele>26.0</ele><time>2025-08-03T00:17:03Z</time></trkpt>
<trkpt lat="45.356791" lon="-75.838313"><ele>26.0</ele><time>2025-08-03T00:17:03Z</time></trkpt>
<trkpt lat="45.356791" lon="-75.838313"><ele>26.0</ele><time>2025-08-03T00:17:05Z</time></trkpt>
<trkpt lat="45.356791" lon="-75.838313"><ele>26.0</ele><time>2025-08-03T00:17:06Z</time></trkpt>
<trkpt lat="45.356791" lon="-75.838313"><ele>26.0</ele><time>2025-08-03T00:17:07Z</time></trkpt>
<trkpt lat="45.356791" lon="-75.838313"><ele>26.0</ele><time>2025-08-03T00:17:08Z</time></trkpt>
<trkpt lat="45.356791" lon="-75.838313"><ele>26.0</ele><time>2025-08-03T00:17:09Z</time></trkpt>
<trkpt lat="45.356791" lon="-75.838313"><ele>26.0</ele><time>2025-08-03T00:17:10Z</time></trkpt>
<trkpt lat="45.356791" lon="-75.838313"><ele>26.0</ele><time>2025-08-03T00:17:11Z</time></trkpt>
<trkpt lat="45.356791" lon="-75.838313"><ele>26.0</ele><time>2025-08-03T00:17:12Z</time></trkpt>
<trkpt lat="45.356791" lon="-75.838313"><ele>26.0</ele><time>2025-08-03T00:17:13Z</time></trkpt>
<trkpt lat="45.356794" lon="-75.838313"><ele>26.0</ele><time>2025-08-03T00:17:14Z</time></trkpt>
<trkpt lat="45.356794" lon="-75.838313"><ele>26.0</ele><time>2025-08-03T00:17:15Z</time></trkpt>
<trkpt lat="45.356794" lon="-75.838313"><ele>26.0</ele><time>2025-08-03T00:17:16Z</time></trkpt>
<trkpt lat="45.356794" lon="-75.838313"><ele>26.0</ele><time>2025-08-03T00:17:17Z</time></trkpt>
<trkpt lat="45.356794" lon="-75.838313"><ele>26.0</ele><time>2025-08-03T00:17:18Z</time></trkpt>
<trkpt lat="45.356794" lon="-75.838313"><ele>26.0</ele><time>2025-08-03T00:17:19Z</time></trkpt>
<trkpt lat="45.356794" lon="-75.838313"><ele>26.0</ele><time>2025-08-03T00:17:20Z</time></trkpt>
<trkpt lat="45.356794" lon="-75.838313"><ele>26.0</ele><time>2025-08-03T00:17:21Z</time></trkpt>
<trkpt lat="45.356794" lon="-75.838313"><ele>26.0</ele><time>2025-08-03T00:17:22Z</time></trkpt>
<trkpt lat="45.356794" lon="-75.838313"><ele>26.0</ele><time>2025-08-03T00:17:23Z</time></trkpt>
<trkpt lat="45.356794" lon="-75.838313"><ele>26.0</ele><time>2025-08-03T00:17:24Z</time></trkpt>
<trkpt lat="45.356794" lon="-75.838313"><ele>26.0</ele><time>2025-08-03T00:17:25Z</time></trkpt>
<trkpt lat="45.356794" lon="-75.838313"><ele>26.0</ele><time>2025-08-03T00:17:26Z</time></trkpt>
<trkpt lat="45.356794" lon="-75.838313"><ele>26.0</ele><time>2025-08-03T00:17:27Z</time></trkpt>
<trkpt lat="45.356794" lon="-75.838313"><ele>26.0</ele><time>2025-08-03T00:17:28Z</time></trkpt>
<trkpt lat="45.356794" lon="-75.838313"><ele>26.0</ele><time>2025-08-03T00:17:29Z</time></trkpt>
<trkpt lat="45.356794" lon="-75.838313"><ele>26.0</ele><time>2025-08-03T00:17:30Z</time></trkpt>
<trkpt lat="45.356794" lon="-75.838313"><ele>26.0</ele><time>2025-08-03T00:17:31Z</time></trkpt>
<trkpt lat="45.356794" lon="-75.838313"><ele>26.0</ele><time>2025-08-03T00:17:32Z</time></trkpt>
<trkpt lat="45.356794" lon="-75.838313"><ele>26.0</ele><time>2025-08-03T00:17:33Z</time></trkpt>
<trkpt lat="45.356794" lon="-75.838313"><ele>26.0</ele><time>2025-08-03T00:17:34Z</time></trkpt>
<trkpt lat="45.356794" lon="-75.838313"><ele>26.0</ele><time>2025-08-03T00:17:35Z</time></trkpt>
<trkpt lat="45.356794" lon="-75.838313"><ele>26.0</ele><time>2025-08-03T00:17:36Z</time></trkpt>
<trkpt lat="45.356794" lon="-75.838313"><ele>26.0</ele><time>2025-08-03T00:17:37Z</time></trkpt>
<trkpt lat="45.356794" lon="-75.838313"><ele>26.0</ele><time>2025-08-03T00:17:37Z</time></trkpt>
<trkpt lat="45.356794" lon="-75.838313"><ele>26.0</ele><time>2025-08-03T00:17:38Z</time></trkpt>
<trkpt lat="45.356794" lon="-75.838313"><ele>26.0</ele><time>2025-08-03T00:17:40Z</time></trkpt>
<trkpt lat="45.356794" lon="-75.838313"><ele>26.0</ele><time>2025-08-03T00:17:40Z</time></trkpt>
<trkpt lat="45.356794" lon="-75.838313"><ele>26.0</ele><time>2025-08-03T00:17:40Z</time></trkpt>
<trkpt lat="45.356794" lon="-75.838313"><ele>26.0</ele><time>2025-08-03T00:17:42Z</time></trkpt>
<trkpt lat="45.356794" lon="-75.838313"><ele>26.0</ele><time>2025-08-03T00:17:43Z</time></trkpt>
<trkpt lat="45.356794" lon="-75.838313"><ele>26.0</ele><time>2025-08-03T00:17:44Z</time></trkpt>
<trkpt lat="45.356794" lon="-75.838313"><ele>26.0</ele><time>2025-08-03T00:17:45Z</time></trkpt>
<trkpt lat="45.356794" lon="-75.838313"><ele>26.0</ele><time>2025-08-03T00:17:46Z</time></trkpt>
<trkpt lat="45.356794" lon="-75.838313"><ele>26.0</ele><time>2025-08-03T00:17:47Z</time></trkpt>
<trkpt lat="45.356794" lon="-75.838313"><ele>26.0</ele><time>2025-08-03T00:17:48Z</time></trkpt>
<trkpt lat="45.356794" lon="-75.838313"><ele>26.0</ele><time>2025-08-03T00:17:49Z</time></trkpt>
<trkpt lat="45.356794" lon="-75.838313"><ele>26.0</ele><time>2025-08-03T00:17:50Z</time></trkpt>
<trkpt lat="45.356794" lon="-75.838313"><ele>26.0</ele><time>2025-08-03T00:17:51Z</time></trkpt>
<trkpt lat="45.356794" lon="-75.838313"><ele>26.0</ele><time>2025-08-03T00:17:51Z</time></trkpt>
<trkpt lat="45.356794" lon="-75.838313"><ele>26.0</ele><time>2025-08-03T00:17:52Z</time></trkpt>
<trkpt lat="45.356794" lon="-75.838313"><ele>26.0</ele><time>2025-08-03T00:17:53Z</time></trkpt>
<trkpt lat="45.356794" lon="-75.838313"><ele>26.0</ele><time>2025-08-03T00:17:54Z</time></trkpt>
<trkpt lat="45.356794" lon="-75.838313"><ele>26.0</ele><time>2025-08-03T00:17:55Z</time></trkpt>
<trkpt lat="45.356794" lon="-75.838313"><ele>26.0</ele><time>2025-08-03T00:17:56Z</time></trkpt>
<trkpt lat="45.356794" lon="-75.838313"><ele>26.0</ele><time>2025-08-03T00:17:57Z</time></trkpt>
<trkpt lat="45.356794" lon="-75.838313"><ele>26.0</ele><time>2025-08-03T00:17:57Z</time></trkpt>
<trkpt lat="45.356794" lon="-75.838313"><ele>26.0</ele><time>2025-08-03T00:17:58Z</time></trkpt>
<trkpt lat="45.356794" lon="-75.838313"><ele>26.0</ele><time>2025-08-03T00:17:59Z</time></trkpt>
<trkpt lat="45.356794" lon="-75.838313"><ele>26.0</ele><time>2025-08-03T00:18:00Z</time></trkpt>
<trkpt lat="45.356794" lon="-75.838313"><ele>26.0</ele><time>2025-08-03T00:18:01Z</time></trkpt>
<trkpt lat="45.356794" lon="-75.838313"><ele>26.0</ele><time>2025-08-03T00:18:02Z</time></trkpt>
<trkpt lat="45.356794" lon="-75.838313"><ele>26.0</ele><time>2025-08-03T00:18:03Z</time></trkpt>
<trkpt lat="45.356794" lon="-75.838313"><ele>26.0</ele><time>2025-08-03T00:18:04Z</time></trkpt>
<trkpt lat="45.356794" lon="-75.838313"><ele>26.0</ele><time>2025-08-03T00:18:04Z</time></trkpt>
<trkpt lat="45.356794" lon="-75.838313"><ele>26.0</ele><time>2025-08-03T00:18:06Z</time></trkpt>
<trkpt lat="45.356794" lon="-75.838313"><ele>26.0</ele><time>2025-08-03T00:18:07Z</time></trkpt>
<trkpt lat="45.356794" lon="-75.838313"><ele>26.0</ele><time>2025-08-03T00:18:08Z</time></trkpt>
<trkpt lat="45.356794" lon="-75.838313"><ele>26.0</ele><time>2025-08-03T00:18:09Z</time></trkpt>
<trkpt lat="45.356794" lon="-75.838313"><ele>26.0</ele><time>2025-08-03T00:18:10Z</time></trkpt>
<trkpt lat="45.356794" lon="-75.838313"><ele>26.0</ele><time>2025-08-03T00:18:11Z</time></trkpt>
<trkpt lat="45.356794" lon="-75.838313"><ele>26.0</ele><time>2025-08-03T00:18:12Z</time></trkpt>
<trkpt lat="45.356794" lon="-75.838313"><ele>26.0</ele><time>2025-08-03T00:18:12Z</time></trkpt>
<trkpt lat="45.356794" lon="-75.838313"><ele>26.0</ele><time>2025-08-03T00:18:12Z</time></trkpt>
<trkpt lat="45.356794" lon="-75.838313"><ele>26.0</ele><time>2025-08-03T00:18:13Z</time></trkpt>
<trkpt lat="45.356794" lon="-75.838313"><ele>26.0</ele><time>2025-08-03T00:18:14Z</time></trkpt>
<trkpt lat="45.356794" lon="-75.838313"><ele>26.0</ele><time>2025-08-03T00:18:16Z</time></trkpt>
<trkpt lat="45.356794" lon="-75.838313"><ele>26.0</ele><time>2025-08-03T00:18:17Z</time></trkpt>
<trkpt lat="45.356794" lon="-75.838313"><ele>26.0</ele><time>2025-08-03T00:18:18Z</time></trkpt>
<trkpt lat="45.356794" lon="-75.838313"><ele>26.0</ele><time>2025-08-03T00:18:19Z</time></trkpt>
<trkpt lat="45.356794" lon="-75.838313"><ele>26.0</ele><time>2025-08-03T00:18:20Z</time></trkpt>
<trkpt lat="45.356794" lon="-75.838313"><ele>26.0</ele><time>2025-08-03T00:18:21Z</time></trkpt>
<trkpt lat="45.356794" lon="-75.838313"><ele>26.0</ele><time>2025-08-03T00:18:22Z</time></trkpt>
<trkpt lat="45.356794" lon="-75.838313"><ele>26.0</ele><time>2025-08-03T00:18:22Z</time></trkpt>
<trkpt lat="45.356794" lon="-75.838313"><ele>26.0</ele><time>2025-08-03T00:18:23Z</time></trkpt>
<trkpt lat="45.356794" lon="-75.838313"><ele>26.0</ele><time>2025-08-03T00:18:24Z</time></trkpt>
<trkpt lat="45.356791" lon="-75.838313"><ele>26.0</ele><time>2025-08-03T00:18:25Z</time></trkpt>
<trkpt lat="45.356791" lon="-75.838313"><ele>26.0</ele><time>2025-08-03T00:18:26Z</time></trkpt>
<trkpt lat="45.356791" lon="-75.838313"><ele>26.0</ele><time>2025-08-03T00:18:27Z</time></trkpt>
<trkpt lat="45.356791" lon="-75.838313"><ele>26.0</ele><time>2025-08-03T00:18:27Z</time></trkpt>
<trkpt lat="45.356787" lon="-75.838313"><ele>26.0</ele><time>2025-08-03T00:18:28Z</time></trkpt>
<trkpt lat="45.356787" lon="-75.838313"><ele>26.0</ele><time>2025-08-03T00:18:29Z</time></trkpt>
<trkpt lat="45.356787" lon="-75.838313"><ele>26.0</ele><time>2025-08-03T00:18:30Z</time></trkpt>
<trkpt lat="45.356787" lon="-75.838313"><ele>26.0</ele><time>2025-08-03T00:18:31Z</time></trkpt>
<trkpt lat="45.356787" lon="-75.838313"><ele>26.0</ele><time>2025-08-03T00:18:32Z</time></trkpt>
<trkpt lat="45.356787" lon="-75.838313"><ele>26.0</ele><time>2025-08-03T00:18:32Z</time></trkpt>
<trkpt lat="45.356787" lon="-75.838313"><ele>26.0</ele><time>2025-08-03T00:18:33Z</time></trkpt>
<trkpt lat="45.356787" lon="-75.838313"><ele>26.0</ele><time>2025-08-03T00:18:34Z</time></trkpt>
<trkpt lat="45.356787" lon="-75.838313"><ele>26.0</ele><time>2025-08-03T00:18:35Z</time></trkpt>
<trkpt lat="45.356787" lon="-75.838313"><ele>26.0</ele><time>2025-08-03T00:18:36Z</time></trkpt>
<trkpt lat="45.356787" lon="-75.838313"><ele>26.0</ele><time>2025-08-03T00:18:37Z</time></trkpt>
<trkpt lat="45.356787" lon="-75.838313"><ele>26.0</ele><time>2025-08-03T00:18:37Z</time></trkpt>
<trkpt lat="45.356787" lon="-75.838313"><ele>26.0</ele><time>2025-08-03T00:18:38Z</time></trkpt>
<trkpt lat="45.356787" lon="-75.838313"><ele>26.0</ele><time>2025-08-03T00:18:39Z</time></trkpt>
<trkpt lat="45.356787" lon="-75.838313"><ele>26.0</ele><time>2025-08-03T00:18:40Z</time></trkpt>
<trkpt lat="45.356787" lon="-75.838313"><ele>26.0</ele><time>2025-08-03T00:18:41Z</time></trkpt>
<trkpt lat="45.356787" lon="-75.838313"><ele>26.0</ele><time>2025-08-03T00:18:42Z</time></trkpt>
<trkpt lat="45.356787" lon="-75.838313"><ele>26.0</ele><time>2025-08-03T00:18:42Z</time></trkpt>
<trkpt lat="45.356787" lon="-75.838313"><ele>26.0</ele><time>2025-08-03T00:18:43Z</time></trkpt>
<trkpt lat="45.356787" lon="-75.838313"><ele>26.0</ele><time>2025-08-03T00:18:44Z</time></trkpt>
<trkpt lat="45.356787" lon="-75.838313"><ele>26.0</ele><time>2025-08-03T00:18:45Z</time></trkpt>
<trkpt lat="45.356787" lon="-75.838313"><ele>26.0</ele><time>2025-08-03T00:18:46Z</time></trkpt>
<trkpt lat="45.356787" lon="-75.838313"><ele>26.0</ele><time>2025-08-03T00:18:47Z</time></trkpt>
<trkpt lat="45.356787" lon="-75.838313"><ele>26.0</ele><time>2025-08-03T00:18:47Z</time></trkpt>
<trkpt lat="45.356787" lon="-75.838313"><ele>26.0</ele><time>2025-08-03T00:18:48Z</time></trkpt>
<trkpt lat="45.356787" lon="-75.838313"><ele>26.0</ele><time>2025-08-03T00:18:49Z</time></trkpt>
<trkpt lat="45.356787" lon="-75.838313"><ele>26.0</ele><time>2025-08-03T00:18:50Z</time></trkpt>
<trkpt lat="45.356784" lon="-75.838313"><ele>26.0</ele><time>2025-08-03T00:18:50Z</time></trkpt>
<trkpt lat="45.356784" lon="-75.838313"><ele>26.0</ele><time>2025-08-03T00:18:52Z</time></trkpt>
<trkpt lat="45.356784" lon="-75.838313"><ele>26.0</ele><time>2025-08-03T00:18:52Z</time></trkpt>
<trkpt lat="45.356784" lon="-75.838313"><ele>26.0</ele><time>2025-08-03T00:18:53Z</time></trkpt>
<trkpt lat="45.356784" lon="-75.838313"><ele>26.0</ele><time>2025-08-03T00:18:54Z</time></trkpt>
<trkpt lat="45.356781" lon="-75.838304"><ele>26.0</ele><time>2025-08-03T00:18:55Z</time></trkpt>
<trkpt lat="45.356781" lon="-75.838304"><ele>26.0</ele><time>2025-08-03T00:18:56Z</time></trkpt>
<trkpt lat="45.356778" lon="-75.838304"><ele>26.0</ele><time>2025-08-03T00:18:57Z</time></trkpt>
<trkpt lat="45.356778" lon="-75.838304"><ele>26.0</ele><time>2025-08-03T00:18:57Z</time></trkpt>
<trkpt lat="45.356778" lon="-75.838304"><ele>26.0</ele><time>2025-08-03T00:18:58Z</time></trkpt>
<trkpt lat="45.356775" lon="-75.838304"><ele>26.0</ele><time>2025-08-03T00:18:59Z</time></trkpt>
<trkpt lat="45.356775" lon="-75.838304"><ele>26.0</ele><time>2025-08-03T00:19:00Z</time></trkpt>
<trkpt lat="45.356775" lon="-75.838304"><ele>26.0</ele><time>2025-08-03T00:19:01Z</time></trkpt>
<trkpt lat="45.356775" lon="-75.838295"><ele>26.0</ele><time>2025-08-03T00:19:02Z</time></trkpt>
<trkpt lat="45.356775" lon="-75.838295"><ele>26.0</ele><time>2025-08-03T00:19:02Z</time></trkpt>
<trkpt lat="45.356775" lon="-75.838295"><ele>26.0</ele><time>2025-08-03T00:19:03Z</time></trkpt>
<trkpt lat="45.356775" lon="-75.838295"><ele>26.0</ele><time>2025-08-03T00:19:04Z</time></trkpt>
<trkpt lat="45.356772" lon="-75.838295"><ele>26.0</ele><time>2025-08-03T00:19:05Z</time></trkpt>
<trkpt lat="45.356772" lon="-75.838295"><ele>26.0</ele><time>2025-08-03T00:19:06Z</time></trkpt>
<trkpt lat="45.356772" lon="-75.838295"><ele>26.0</ele><time>2025-08-03T00:19:07Z</time></trkpt>
<trkpt lat="45.356772" lon="-75.838295"><ele>26.0</ele><time>2025-08-03T00:19:08Z</time></trkpt>
<trkpt lat="45.356772" lon="-75.838295"><ele>26.0</ele><time>2025-08-03T00:19:09Z</time></trkpt>
<trkpt lat="45.356772" lon="-75.838295"><ele>26.0</ele><time>2025-08-03T00:19:10Z</time></trkpt>
<trkpt lat="45.356772" lon="-75.838295"><ele>26.0</ele><time>2025-08-03T00:19:11Z</time></trkpt>
<trkpt lat="45.356772" lon="-75.838295"><ele>26.0</ele><time>2025-08-03T00:19:12Z</time></trkpt>
<trkpt lat="45.356772" lon="-75.838295"><ele>26.0</ele><time>2025-08-03T00:19:12Z</time></trkpt>
<trkpt lat="45.356768" lon="-75.838295"><ele>26.0</ele><time>2025-08-03T00:19:13Z</time></trkpt>
<trkpt lat="45.356768" lon="-75.838295"><ele>26.0</ele><time>2025-08-03T00:19:14Z</time></trkpt>
<trkpt lat="45.356768" lon="-75.838295"><ele>26.0</ele><time>2025-08-03T00:19:14Z</time></trkpt>
<trkpt lat="45.356765" lon="-75.838286"><ele>26.0</ele><time>2025-08-03T00:19:14Z</time></trkpt>
<trkpt lat="45.356762" lon="-75.838286"><ele>26.0</ele><time>2025-08-03T00:19:16Z</time></trkpt>
<trkpt lat="45.356746" lon="-75.838277"><ele>26.0</ele><time>2025-08-03T00:19:17Z</time></trkpt>
<trkpt lat="45.356743" lon="-75.838268"><ele>26.0</ele><time>2025-08-03T00:19:17Z</time></trkpt>
<trkpt lat="45.356724" lon="-75.838268"><ele>26.0</ele><time>2025-08-03T00:19:17Z</time></trkpt>
<trkpt lat="45.356721" lon="-75.838268"><ele>26.0</ele><time>2025-08-03T00:19:18Z</time></trkpt>
<trkpt lat="45.356718" lon="-75.838277"><ele>26.0</ele><time>2025-08-03T00:19:20Z</time></trkpt>
<trkpt lat="45.356721" lon="-75.838286"><ele>26.0</ele><time>2025-08-03T00:19:21Z</time></trkpt>
<trkpt lat="45.356727" lon="-75.838286"><ele>26.0</ele><time>2025-08-03T00:19:22Z</time></trkpt>
<trkpt lat="45.356734" lon="-75.838286"><ele>26.0</ele><time>2025-08-03T00:19:22Z</time></trkpt>
<trkpt lat="45.356737" lon="-75.838286"><ele>26.0</ele><time>2025-08-03T00:19:23Z</time></trkpt>
<trkpt lat="45.356737" lon="-75.838295"><ele>26.0</ele><time>2025-08-03T00:19:24Z</time></trkpt>
<trkpt lat="45.356737" lon="-75.838295"><ele>26.0</ele><time>2025-08-03T00:19:26Z</time></trkpt>
<trkpt lat="45.35674" lon="-75.838295"><ele>26.0</ele><time>2025-08-03T00:19:27Z</time></trkpt>
<trkpt lat="45.35674" lon="-75.838295"><ele>26.0</ele><time>2025-08-03T00:19:27Z</time></trkpt>
<trkpt lat="45.356743" lon="-75.838295"><ele>26.0</ele><time>2025-08-03T00:19:28Z</time></trkpt>
<trkpt lat="45.356746" lon="-75.838295"><ele>26.0</ele><time>2025-08-03T00:19:29Z</time></trkpt>
<trkpt lat="45.356746" lon="-75.838286"><ele>26.0</ele><time>2025-08-03T00:19:30Z</time></trkpt>
<trkpt lat="45.356746" lon="-75.838286"><ele>26.0</ele><time>2025-08-03T00:19:31Z</time></trkpt>
<trkpt lat="45.356746" lon="-75.838286"><ele>26.0</ele><time>2025-08-03T00:19:32Z</time></trkpt>
<trkpt lat="45.356746" lon="-75.838286"><ele>26.0</ele><time>2025-08-03T00:19:32Z</time></trkpt>
<trkpt lat="45.356746" lon="-75.838286"><ele>26.0</ele><time>2025-08-03T00:19:33Z</time></trkpt>
<trkpt lat="45.356743" lon="-75.838295"><ele>26.0</ele><time>2025-08-03T00:19:34Z</time></trkpt>
<trkpt lat="45.35674" lon="-75.838304"><ele>26.0</ele><time>2025-08-03T00:19:34Z</time></trkpt>
<trkpt lat="45.356737" lon="-75.838322"><ele>26.0</ele><time>2025-08-03T00:19:36Z</time></trkpt>
<trkpt lat="45.356743" lon="-75.838322"><ele>26.0</ele><time>2025-08-03T00:19:37Z</time></trkpt>
<trkpt lat="45.356743" lon="-75.838313"><ele>26.0</ele><time>2025-08-03T00:19:37Z</time></trkpt>
<trkpt lat="45.356743" lon="-75.838313"><ele>26.0</ele><time>2025-08-03T00:19:39Z</time></trkpt>
<trkpt lat="45.35674" lon="-75.838304"><ele>26.0</ele><time>2025-08-03T00:19:40Z</time></trkpt>
<trkpt lat="45.35674" lon="-75.838295"><ele>26.0</ele><time>2025-08-03T00:19:40Z</time></trkpt>
<trkpt lat="45.35674" lon="-75.838304"><ele>26.0</ele><time>2025-08-03T00:19:42Z</time></trkpt>
<trkpt lat="45.356734" lon="-75.838304"><ele>26.0</ele><time>2025-08-03T00:19:42Z</time></trkpt>
<trkpt lat="45.356737" lon="-75.838304"><ele>26.0</ele><time>2025-08-03T00:19:43Z</time></trkpt>
<trkpt lat="45.356737" lon="-75.838295"><ele>26.0</ele><time>2025-08-03T00:19:45Z</time></trkpt>
<trkpt lat="45.356737" lon="-75.838295"><ele>26.0</ele><time>2025-08-03T00:19:46Z</time></trkpt>
<trkpt lat="45.35674" lon="-75.838286"><ele>26.0</ele><time>2025-08-03T00:19:47Z</time></trkpt>
<trkpt lat="45.35674" lon="-75.838277"><ele>26.0</ele><time>2025-08-03T00:19:48Z</time></trkpt>
<trkpt lat="45.35674" lon="-75.838277"><ele>26.0</ele><time>2025-08-03T00:19:49Z</time></trkpt>
<trkpt lat="45.356737" lon="-75.838277"><ele>26.0</ele><time>2025-08-03T00:19:49Z</time></trkpt>
<trkpt lat="45.356737" lon="-75.838277"><ele>26.0</ele><time>2025-08-03T00:19:51Z</time></trkpt>
<trkpt lat="45.356737" lon="-75.838277"><ele>26.0</ele><time>2025-08-03T00:19:52Z</time></trkpt>
<trkpt lat="45.356737" lon="-75.838286"><ele>26.0</ele><time>2025-08-03T00:19:53Z</time></trkpt>
<trkpt lat="45.356737" lon="-75.838286"><ele>26.0</ele><time>2025-08-03T00:19:54Z</time></trkpt>
<trkpt lat="45.356737" lon="-75.838286"><ele>26.0</ele><time>2025-08-03T00:19:55Z</time></trkpt>
<trkpt lat="45.356737" lon="-75.838277"><ele>26.0</ele><time>2025-08-03T00:19:56Z</time></trkpt>
<trkpt lat="45.356737" lon="-75.838286"><ele>26.0</ele><time>2025-08-03T00:19:57Z</time></trkpt>
<trkpt lat="45.356737" lon="-75.838286"><ele>26.0</ele><time>2025-08-03T00:19:58Z</time></trkpt>
<trkpt lat="45.356734" lon="-75.838286"><ele>26.0</ele><time>2025-08-03T00:19:59Z</time></trkpt>
<trkpt lat="45.356734" lon="-75.838286"><ele>26.0</ele><time>2025-08-03T00:20:00Z</time></trkpt>
<trkpt lat="45.356734" lon="-75.838286"><ele>26.0</ele><time>2025-08-03T00:20:01Z</time></trkpt>
<trkpt lat="45.356734" lon="-75.838286"><ele>26.0</ele><time>2025-08-03T00:20:02Z</time></trkpt>
<trkpt lat="45.356734" lon="-75.838286"><ele>26.0</ele><time>2025-08-03T00:20:02Z</time></trkpt>
<trkpt lat="45.356734" lon="-75.838286"><ele>26.0</ele><time>2025-08-03T00:20:03Z</time></trkpt>
<trkpt lat="45.356734" lon="-75.838286"><ele>26.0</ele><time>2025-08-03T00:20:03Z</time></trkpt>
<trkpt lat="45.356734" lon="-75.838286"><ele>26.0</ele><time>2025-08-03T00:20:05Z</time></trkpt>
<trkpt lat="45.356734" lon="-75.838286"><ele>26.0</ele><time>2025-08-03T00:20:06Z</time></trkpt>
<trkpt lat="45.356734" lon="-75.838286"><ele>26.0</ele><time>2025-08-03T00:20:07Z</time></trkpt>
<trkpt lat="45.356734" lon="-75.838286"><ele>26.0</ele><time>2025-08-03T00:20:07Z</time></trkpt>
<trkpt lat="45.356734" lon="-75.838286"><ele>26.0</ele><time>2025-08-03T00:20:08Z</time></trkpt>
<trkpt lat="45.356734" lon="-75.838286"><ele>26.0</ele><time>2025-08-03T00:20:09Z</time></trkpt>
<trkpt lat="45.356734" lon="-75.838286"><ele>26.0</ele><time>2025-08-03T00:20:10Z</time></trkpt>
<trkpt lat="45.356734" lon="-75.838286"><ele>26.0</ele><time>2025-08-03T00:20:11Z</time></trkpt>
<trkpt lat="45.356734" lon="-75.838286"><ele>26.0</ele><time>2025-08-03T00:20:12Z</time></trkpt>
<trkpt lat="45.356734" lon="-75.838286"><ele>26.0</ele><time>2025-08-03T00:20:12Z</time></trkpt>
<trkpt lat="45.356734" lon="-75.838286"><ele>26.0</ele><time>2025-08-03T00:20:13Z</time></trkpt>
<trkpt lat="45.35673" lon="-75.838286"><ele>26.0</ele><time>2025-08-03T00:20:14Z</time></trkpt>
<trkpt lat="45.35673" lon="-75.838286"><ele>26.0</ele><time>2025-08-03T00:20:15Z</time></trkpt>
<trkpt lat="45.356734" lon="-75.838286"><ele>26.0</ele><time>2025-08-03T00:20:16Z</time></trkpt>
<trkpt lat="45.356734" lon="-75.838286"><ele>26.0</ele><time>2025-08-03T00:20:17Z</time></trkpt>
<trkpt lat="45.356734" lon="-75.838286"><ele>26.0</ele><time>2025-08-03T00:20:17Z</time></trkpt>
<trkpt lat="45.356734" lon="-75.838286"><ele>26.0</ele><time>2025-08-03T00:20:18Z</time></trkpt>
<trkpt lat="45.356734" lon="-75.838286"><ele>26.0</ele><time>2025-08-03T00:20:18Z</time></trkpt>
<trkpt lat="45.356734" lon="-75.838286"><ele>26.0</ele><time>2025-08-03T00:20:19Z</time></trkpt>
<trkpt lat="45.356737" lon="-75.838286"><ele>26.0</ele><time>2025-08-03T00:20:20Z</time></trkpt>
<trkpt lat="45.356734" lon="-75.838286"><ele>26.0</ele><time>2025-08-03T00:20:21Z</time></trkpt>
<trkpt lat="45.356734" lon="-75.838286"><ele>26.0</ele><time>2025-08-03T00:20:22Z</time></trkpt>
<trkpt lat="45.356734" lon="-75.838286"><ele>26.0</ele><time>2025-08-03T00:20:23Z</time></trkpt>
<trkpt lat="45.356734" lon="-75.838286"><ele>26.0</ele><time>2025-08-03T00:20:23Z</time></trkpt>
<trkpt lat="45.356734" lon="-75.838286"><ele>26.0</ele><time>2025-08-03T00:20:25Z</time></trkpt>
<trkpt lat="45.356734" lon="-75.838286"><ele>26.0</ele><time>2025-08-03T00:20:26Z</time></trkpt>
<trkpt lat="45.356734" lon="-75.838286"><ele>26.0</ele><time>2025-08-03T00:20:26Z</time></trkpt>
<trkpt lat="45.356734" lon="-75.838286"><ele>26.0</ele><time>2025-08-03T00:20:27Z</time></trkpt>
<trkpt lat="45.356734" lon="-75.838286"><ele>26.0</ele><time>2025-08-03T00:20:27Z</time></trkpt>
<trkpt lat="45.356734" lon="-75.838286"><ele>26.0</ele><time>2025-08-03T00:20:28Z</time></trkpt>
<trkpt lat="45.356734" lon="-75.838286"><ele>26.0</ele><time>2025-08-03T00:20:30Z</time></trkpt>
<trkpt lat="45.356737" lon="-75.838286"><ele>26.0</ele><time>2025-08-03T00:20:31Z</time></trkpt>
<trkpt lat="45.356737" lon="-75.838286"><ele>26.0</ele><time>2025-08-03T00:20:31Z</time></trkpt>
<trkpt lat="45.356737" lon="-75.838286"><ele>26.0</ele><time>2025-08-03T00:20:32Z</time></trkpt>
<trkpt lat="45.356737" lon="-75.838286"><ele>26.0</ele><time>2025-08-03T00:20:32Z</time></trkpt>
<trkpt lat="45.356737" lon="-75.838286"><ele>26.0</ele><time>2025-08-03T00:20:33Z</time></trkpt>
<trkpt lat="45.356737" lon="-75.838286"><ele>26.0</ele><time>2025-08-03T00:20:34Z</time></trkpt>
<trkpt lat="45.356737" lon="-75.838286"><ele>26.0</ele><time>2025-08-03T00:20:35Z</time></trkpt>
<trkpt lat="45.356737" lon="-75.838295"><ele>26.0</ele><time>2025-08-03T00:20:36Z</time></trkpt>
<trkpt lat="45.356737" lon="-75.838295"><ele>26.0</ele><time>2025-08-03T00:20:37Z</time></trkpt>
<trkpt lat="45.356737" lon="-75.838295"><ele>26.0</ele><time>2025-08-03T00:20:37Z</time></trkpt>
<trkpt lat="45.356737" lon="-75.838295"><ele>26.0</ele><time>2025-08-03T00:20:39Z</time></trkpt>
<trkpt lat="45.356737" lon="-75.838295"><ele>26.0</ele><time>2025-08-03T00:20:39Z</time></trkpt>
<trkpt lat="45.356737" lon="-75.838295"><ele>26.0</ele><time>2025-08-03T00:20:40Z</time></trkpt>
<trkpt lat="45.35674" lon="-75.838295"><ele>26.0</ele><time>2025-08-03T00:20:42Z</time></trkpt>
<trkpt lat="45.35674" lon="-75.838295"><ele>26.0</ele><time>2025-08-03T00:20:42Z</time></trkpt>
<trkpt lat="45.35674" lon="-75.838295"><ele>26.0</ele><time>2025-08-03T00:20:42Z</time></trkpt>
<trkpt lat="45.356743" lon="-75.838295"><ele>26.0</ele><time>2025-08-03T00:20:44Z</time></trkpt>
<trkpt lat="45.356743" lon="-75.838295"><ele>26.0</ele><time>2025-08-03T00:20:44Z</time></trkpt>
<trkpt lat="45.356743" lon="-75.838295"><ele>26.0</ele><time>2025-08-03T00:20:46Z</time></trkpt>
<trkpt lat="45.356743" lon="-75.838295"><ele>26.0</ele><time>2025-08-03T00:20:47Z</time></trkpt>
<trkpt lat="45.356743" lon="-75.838295"><ele>26.0</ele><time>2025-08-03T00:20:47Z</time></trkpt>
<trkpt lat="45.356743" lon="-75.838295"><ele>26.0</ele><time>2025-08-03T00:20:47Z</time></trkpt>
<trkpt lat="45.356746" lon="-75.838295"><ele>26.0</ele><time>2025-08-03T00:20:48Z</time></trkpt>
<trkpt lat="45.356746" lon="-75.838295"><ele>26.0</ele><time>2025-08-03T00:20:49Z</time></trkpt>
<trkpt lat="45.356749" lon="-75.838304"><ele>26.0</ele><time>2025-08-03T00:20:50Z</time></trkpt>
<trkpt lat="45.356753" lon="-75.838304"><ele>26.0</ele><time>2025-08-03T00:20:51Z</time></trkpt>
<trkpt lat="45.356753" lon="-75.838304"><ele>26.0</ele><time>2025-08-03T00:20:53Z</time></trkpt>
<trkpt lat="45.356753" lon="-75.838304"><ele>26.0</ele><time>2025-08-03T00:20:53Z</time></trkpt>
<trkpt lat="45.356753" lon="-75.838304"><ele>26.0</ele><time>2025-08-03T00:20:55Z</time></trkpt>
<trkpt lat="45.356753" lon="-75.838304"><ele>26.0</ele><time>2025-08-03T00:20:55Z</time></trkpt>
<trkpt lat="45.356753" lon="-75.838304"><ele>26.0</ele><time>2025-08-03T00:20:57Z</time></trkpt>
<trkpt lat="45.356753" lon="-75.838304"><ele>26.0</ele><time>2025-08-03T00:20:58Z</time></trkpt>
<trkpt lat="45.356756" lon="-75.838304"><ele>26.0</ele><time>2025-08-03T00:20:59Z</time></trkpt>
<trkpt lat="45.356756" lon="-75.838304"><ele>26.0</ele><time>2025-08-03T00:21:00Z</time></trkpt>
<trkpt lat="45.356753" lon="-75.838304"><ele>26.0</ele><time>2025-08-03T00:21:00Z</time></trkpt>
<trkpt lat="45.356756" lon="-75.838304"><ele>26.0</ele><time>2025-08-03T00:21:02Z</time></trkpt>
<trkpt lat="45.356756" lon="-75.838304"><ele>26.0</ele><time>2025-08-03T00:21:03Z</time></trkpt>
<trkpt lat="45.356756" lon="-75.838304"><ele>26.0</ele><time>2025-08-03T00:21:03Z</time></trkpt>
<trkpt lat="45.356756" lon="-75.838304"><ele>26.0</ele><time>2025-08-03T00:21:05Z</time></trkpt>
<trkpt lat="45.356756" lon="-75.838304"><ele>26.0</ele><time>2025-08-03T00:21:06Z</time></trkpt>
<trkpt lat="45.356756" lon="-75.838304"><ele>26.0</ele><time>2025-08-03T00:21:06Z</time></trkpt>
<trkpt lat="45.356756" lon="-75.838304"><ele>26.0</ele><time>2025-08-03T00:21:07Z</time></trkpt>
<trkpt lat="45.356756" lon="-75.838304"><ele>26.0</ele><time>2025-08-03T00:21:09Z</time></trkpt>
<trkpt lat="45.356756" lon="-75.838304"><ele>26.0</ele><time>2025-08-03T00:21:09Z</time></trkpt>
<trkpt lat="45.356756" lon="-75.838304"><ele>26.0</ele><time>2025-08-03T00:21:11Z</time></trkpt>
<trkpt lat="45.356756" lon="-75.838304"><ele>26.0</ele><time>2025-08-03T00:21:12Z</time></trkpt>
<trkpt lat="45.356756" lon="-75.838304"><ele>26.0</ele><time>2025-08-03T00:21:12Z</time></trkpt>
<trkpt lat="45.356756" lon="-75.838304"><ele>26.0</ele><time>2025-08-03T00:21:14Z</time></trkpt>
<trkpt lat="45.356756" lon="-75.838304"><ele>26.0</ele><time>2025-08-03T00:21:15Z</time></trkpt>
<trkpt lat="45.356756" lon="-75.838304"><ele>26.0</ele><time>2025-08-03T00:21:16Z</time></trkpt>
<trkpt lat="45.356756" lon="-75.838304"><ele>26.0</ele><time>2025-08-03T00:21:16Z</time></trkpt>
<trkpt lat="45.356756" lon="-75.838304"><ele>26.0</ele><time>2025-08-03T00:21:17Z</time></trkpt>
<trkpt lat="45.356756" lon="-75.838304"><ele>26.0</ele><time>2025-08-03T00:21:18Z</time></trkpt>
<trkpt lat="45.356756" lon="-75.838304"><ele>26.0</ele><time>2025-08-03T00:21:19Z</time></trkpt>
<trkpt lat="45.356759" lon="-75.838304"><ele>26.0</ele><time>2025-08-03T00:21:20Z</time></trkpt>
<trkpt lat="45.356759" lon="-75.838304"><ele>26.0</ele><time>2025-08-03T00:21:21Z</time></trkpt>
<trkpt lat="45.356762" lon="-75.838304"><ele>26.0</ele><time>2025-08-03T00:21:22Z</time></trkpt>
<trkpt lat="45.356762" lon="-75.838304"><ele>26.0</ele><time>2025-08-03T00:21:22Z</time></trkpt>
<trkpt lat="45.356765" lon="-75.838304"><ele>26.0</ele><time>2025-08-03T00:21:23Z</time></trkpt>
<trkpt lat="45.356765" lon="-75.838304"><ele>26.0</ele><time>2025-08-03T00:21:25Z</time></trkpt>
<trkpt lat="45.356765" lon="-75.838304"><ele>26.0</ele><time>2025-08-03T00:21:25Z</time></trkpt>
<trkpt lat="45.356765" lon="-75.838304"><ele>26.0</ele><time>2025-08-03T00:21:27Z</time></trkpt>
<trkpt lat="45.356765" lon="-75.838304"><ele>26.0</ele><time>2025-08-03T00:21:27Z</time></trkpt>
<trkpt lat="45.356765" lon="-75.838304"><ele>26.0</ele><time>2025-08-03T00:21:29Z</time></trkpt>
<trkpt lat="45.356765" lon="-75.838304"><ele>26.0</ele><time>2025-08-03T00:21:30Z</time></trkpt>
<trkpt lat="45.356765" lon="-75.838304"><ele>26.0</ele><time>2025-08-03T00:21:31Z</time></trkpt>
<trkpt lat="45.356765" lon="-75.838304"><ele>26.0</ele><time>2025-08-03T00:21:31Z</time></trkpt>
<trkpt lat="45.356765" lon="-75.838304"><ele>26.0</ele><time>2025-08-03T00:21:32Z</time></trkpt>
<trkpt lat="45.356768" lon="-75.838304"><ele>26.0</ele><time>2025-08-03T00:21:34Z</time></trkpt>
<trkpt lat="45.356768" lon="-75.838304"><ele>26.0</ele><time>2025-08-03T00:21:34Z</time></trkpt>
<trkpt lat="45.356768" lon="-75.838304"><ele>26.0</ele><time>2025-08-03T00:21:36Z</time></trkpt>
<trkpt lat="45.356768" lon="-75.838304"><ele>26.0</ele><time>2025-08-03T00:21:36Z</time></trkpt>
<trkpt lat="45.356768" lon="-75.838313"><ele>25.0</ele><time>2025-08-03T00:21:38Z</time></trkpt>
<trkpt lat="45.356768" lon="-75.838322"><ele>25.0</ele><time>2025-08-03T00:21:38Z</time></trkpt>
<trkpt lat="45.356765" lon="-75.838331"><ele>26.0</ele><time>2025-08-03T00:21:39Z</time></trkpt>
<trkpt lat="45.356746" lon="-75.838331"><ele>26.0</ele><time>2025-08-03T00:21:40Z</time></trkpt>
<trkpt lat="45.356734" lon="-75.83834"><ele>26.0</ele><time>2025-08-03T00:21:41Z</time></trkpt>
<trkpt lat="45.356734" lon="-75.838349"><ele>26.0</ele><time>2025-08-03T00:21:43Z</time></trkpt>
<trkpt lat="45.356743" lon="-75.83834"><ele>26.0</ele><time>2025-08-03T00:21:44Z</time></trkpt>
<trkpt lat="45.356753" lon="-75.838331"><ele>26.0</ele><time>2025-08-03T00:21:45Z</time></trkpt>
<trkpt lat="45.356762" lon="-75.838322"><ele>26.0</ele><time>2025-08-03T00:21:46Z</time></trkpt>
<trkpt lat="45.356768" lon="-75.838313"><ele>26.0</ele><time>2025-08-03T00:21:47Z</time></trkpt>
<trkpt lat="45.356768" lon="-75.838313"><ele>26.0</ele><time>2025-08-03T00:21:47Z</time></trkpt>
<trkpt lat="45.356772" lon="-75.838322"><ele>26.0</ele><time>2025-08-03T00:21:49Z</time></trkpt>
<trkpt lat="45.356772" lon="-75.838322"><ele>26.0</ele><time>2025-08-03T00:21:50Z</time></trkpt>
<trkpt lat="45.356768" lon="-75.838322"><ele>26.0</ele><time>2025-08-03T00:21:51Z</time></trkpt>
<trkpt lat="45.356768" lon="-75.838322"><ele>26.0</ele><time>2025-08-03T00:21:52Z</time></trkpt>
<trkpt lat="45.356768" lon="-75.838322"><ele>26.0</ele><time>2025-08-03T00:21:52Z</time></trkpt>
<trkpt lat="45.356772" lon="-75.838322"><ele>26.0</ele><time>2025-08-03T00:21:54Z</time></trkpt>
<trkpt lat="45.356772" lon="-75.838322"><ele>26.0</ele><time>2025-08-03T00:21:55Z</time></trkpt>
<trkpt lat="45.356772" lon="-75.838322"><ele>26.0</ele><time>2025-08-03T00:21:55Z</time></trkpt>
<trkpt lat="45.356772" lon="-75.838322"><ele>26.0</ele><time>2025-08-03T00:21:57Z</time></trkpt>
<trkpt lat="45.356772" lon="-75.838322"><ele>26.0</ele><time>2025-08-03T00:21:58Z</time></trkpt>
<trkpt lat="45.356772" lon="-75.838322"><ele>26.0</ele><time>2025-08-03T00:21:59Z</time></trkpt>
<trkpt lat="45.356772" lon="-75.838322"><ele>26.0</ele><time>2025-08-03T00:22:00Z</time></trkpt>
<trkpt lat="45.356772" lon="-75.838322"><ele>26.0</ele><time>2025-08-03T00:22:01Z</time></trkpt>
<trkpt lat="45.356772" lon="-75.838322"><ele>26.0</ele><time>2025-08-03T00:22:02Z</time></trkpt>
<trkpt lat="45.356772" lon="-75.838322"><ele>26.0</ele><time>2025-08-03T00:22:02Z</time></trkpt>
<trkpt lat="45.356772" lon="-75.838322"><ele>26.0</ele><time>2025-08-03T00:22:03Z</time></trkpt>
<trkpt lat="45.356772" lon="-75.838322"><ele>26.0</ele><time>2025-08-03T00:22:04Z</time></trkpt>
<trkpt lat="45.356772" lon="-75.838322"><ele>26.0</ele><time>2025-08-03T00:22:05Z</time></trkpt>
<trkpt lat="45.356772" lon="-75.838322"><ele>26.0</ele><time>2025-08-03T00:22:06Z</time></trkpt>
<trkpt lat="45.356772" lon="-75.838322"><ele>26.0</ele><time>2025-08-03T00:22:07Z</time></trkpt>
<trkpt lat="45.356772" lon="-75.838322"><ele>26.0</ele><time>2025-08-03T00:22:07Z</time></trkpt>
<trkpt lat="45.356772" lon="-75.838322"><ele>25.0</ele><time>2025-08-03T00:22:09Z</time></trkpt>
<trkpt lat="45.356772" lon="-75.838322"><ele>26.0</ele><time>2025-08-03T00:22:09Z</time></trkpt>
<trkpt lat="45.356772" lon="-75.838322"><ele>26.0</ele><time>2025-08-03T00:22:10Z</time></trkpt>
<trkpt lat="45.356772" lon="-75.838322"><ele>26.0</ele><time>2025-08-03T00:22:12Z</time></trkpt>
<trkpt lat="45.356772" lon="-75.838322"><ele>26.0</ele><time>2025-08-03T00:22:12Z</time></trkpt>
<trkpt lat="45.356772" lon="-75.838322"><ele>26.0</ele><time>2025-08-03T00:22:14Z</time></trkpt>
<trkpt lat="45.356772" lon="-75.838322"><ele>26.0</ele><time>2025-08-03T00:22:14Z</time></trkpt>
<trkpt lat="45.356772" lon="-75.838322"><ele>26.0</ele><time>2025-08-03T00:22:15Z</time></trkpt>
<trkpt lat="45.356772" lon="-75.838322"><ele>26.0</ele><time>2025-08-03T00:22:16Z</time></trkpt>
<trkpt lat="45.356772" lon="-75.838322"><ele>26.0</ele><time>2025-08-03T00:22:18Z</time></trkpt>
<trkpt lat="45.356775" lon="-75.838322"><ele>26.0</ele><time>2025-08-03T00:22:19Z</time></trkpt>
<trkpt lat="45.356775" lon="-75.838322"><ele>26.0</ele><time>2025-08-03T00:22:20Z</time></trkpt>
<trkpt lat="45.356775" lon="-75.838322"><ele>26.0</ele><time>2025-08-03T00:22:21Z</time></trkpt>
<trkpt lat="45.356775" lon="-75.838322"><ele>26.0</ele><time>2025-08-03T00:22:22Z</time></trkpt>
<trkpt lat="45.356775" lon="-75.838322"><ele>26.0</ele><time>2025-08-03T00:22:22Z</time></trkpt>
<trkpt lat="45.356775" lon="-75.838322"><ele>26.0</ele><time>2025-08-03T00:22:22Z</time></trkpt>
<trkpt lat="45.356775" lon="-75.838322"><ele>26.0</ele><time>2025-08-03T00:22:23Z</time></trkpt>
<trkpt lat="45.356778" lon="-75.838322"><ele>26.0</ele><time>2025-08-03T00:22:25Z</time></trkpt>
<trkpt lat="45.356778" lon="-75.838322"><ele>26.0</ele><time>2025-08-03T00:22:26Z</time></trkpt>
<trkpt lat="45.356778" lon="-75.838331"><ele>26.0</ele><time>2025-08-03T00:22:27Z</time></trkpt>
<trkpt lat="45.356778" lon="-75.838331"><ele>26.0</ele><time>2025-08-03T00:22:28Z</time></trkpt>
<trkpt lat="45.356781" lon="-75.838331"><ele>26.0</ele><time>2025-08-03T00:22:29Z</time></trkpt>
<trkpt lat="45.356781" lon="-75.838331"><ele>26.0</ele><time>2025-08-03T00:22:30Z</time></trkpt>
<trkpt lat="45.356781" lon="-75.838331"><ele>26.0</ele><time>2025-08-03T00:22:31Z</time></trkpt>
<trkpt lat="45.356781" lon="-75.838331"><ele>26.0</ele><time>2025-08-03T00:22:32Z</time></trkpt>
<trkpt lat="45.356781" lon="-75.838331"><ele>26.0</ele><time>2025-08-03T00:22:32Z</time></trkpt>
<trkpt lat="45.356781" lon="-75.838331"><ele>26.0</ele><time>2025-08-03T00:22:33Z</time></trkpt>
<trkpt lat="45.356781" lon="-75.838331"><ele>26.0</ele><time>2025-08-03T00:22:35Z</time></trkpt>
<trkpt lat="45.356781" lon="-75.838331"><ele>26.0</ele><time>2025-08-03T00:22:36Z</time></trkpt>
<trkpt lat="45.356781" lon="-75.838331"><ele>26.0</ele><time>2025-08-03T00:22:37Z</time></trkpt>
<trkpt lat="45.356781" lon="-75.838331"><ele>25.0</ele><time>2025-08-03T00:22:38Z</time></trkpt>
<trkpt lat="45.356781" lon="-75.838331"><ele>25.0</ele><time>2025-08-03T00:22:39Z</time></trkpt>
<trkpt lat="45.356781" lon="-75.838331"><ele>26.0</ele><time>2025-08-03T00:22:39Z</time></trkpt>
<trkpt lat="45.356781" lon="-75.838331"><ele>26.0</ele><time>2025-08-03T00:22:40Z</time></trkpt>
<trkpt lat="45.356784" lon="-75.838322"><ele>26.0</ele><time>2025-08-03T00:22:41Z</time></trkpt>
<trkpt lat="45.356784" lon="-75.838322"><ele>26.0</ele><time>2025-08-03T00:22:43Z</time></trkpt>
<trkpt lat="45.356787" lon="-75.838322"><ele>26.0</ele><time>2025-08-03T00:22:44Z</time></trkpt>
<trkpt lat="45.356791" lon="-75.838322"><ele>26.0</ele><time>2025-08-03T00:22:45Z</time></trkpt>
<trkpt lat="45.356794" lon="-75.838331"><ele>26.0</ele><time>2025-08-03T00:22:45Z</time></trkpt>
<trkpt lat="45.356797" lon="-75.838331"><ele>26.0</ele><time>2025-08-03T00:22:46Z</time></trkpt>
<trkpt lat="45.356797" lon="-75.838331"><ele>26.0</ele><time>2025-08-03T00:22:47Z</time></trkpt>
<trkpt lat="45.356797" lon="-75.838331"><ele>26.0</ele><time>2025-08-03T00:22:47Z</time></trkpt>
<trkpt lat="45.356797" lon="-75.838331"><ele>26.0</ele><time>2025-08-03T00:22:47Z</time></trkpt>
<trkpt lat="45.356794" lon="-75.838331"><ele>26.0</ele><time>2025-08-03T00:22:49Z</time></trkpt>
<trkpt lat="45.356794" lon="-75.838331"><ele>26.0</ele><time>2025-08-03T00:22:50Z</time></trkpt>
<trkpt lat="45.356794" lon="-75.838331"><ele>25.0</ele><time>2025-08-03T00:22:51Z</time></trkpt>
<trkpt lat="45.356797" lon="-75.838331"><ele>25.0</ele><time>2025-08-03T00:22:52Z</time></trkpt>
<trkpt lat="45.356797" lon="-75.838331"><ele>26.0</ele><time>2025-08-03T00:22:53Z</time></trkpt>
<trkpt lat="45.356797" lon="-75.838331"><ele>26.0</ele><time>2025-08-03T00:22:53Z</time></trkpt>
<trkpt lat="45.3568" lon="-75.838331"><ele>26.0</ele><time>2025-08-03T00:22:54Z</time></trkpt>
<trkpt lat="45.3568" lon="-75.838331"><ele>26.0</ele><time>2025-08-03T00:22:55Z</time></trkpt>
<trkpt lat="45.3568" lon="-75.83834"><ele>26.0</ele><time>2025-08-03T00:22:56Z</time></trkpt>
<trkpt lat="45.3568" lon="-75.83834"><ele>26.0</ele><time>2025-08-03T00:22:57Z</time></trkpt>
<trkpt lat="45.356803" lon="-75.83834"><ele>26.0</ele><time>2025-08-03T00:22:58Z</time></trkpt>
<trkpt lat="45.356806" lon="-75.83834"><ele>26.0</ele><time>2025-08-03T00:22:59Z</time></trkpt>
</trkseg></trk></gpx>
