<?xml version="1.0" encoding="UTF-8" standalone="no" ?>
<gpx xmlns="http://www.topografix.com/GPX/1/1" creator="SailFreeGPS" xmlns:xsi="http://www.w3.org/2001/XMLSchema-instance"  xsi:schemaLocation="http://www.topografix.com/GPX/1/1 http://www.topografix.com/GPX/1/1/gpx.xsd">
<trk>
<metadata><name>SailFreeGps_2026-10-04_16-10-16.gpx</name></metadata>
<trkseg>
<trkpt lat="45.3775401" lon="-75.8497569"><speed>3.160</speed><ele>25.1</ele><time>2026-10-04T19:17:15Z</time></trkpt>
<trkpt lat="45.3774609" lon="-75.8496452"><speed>2.670</speed><ele>29.5</ele><time>2026-10-04T19:17:20Z</time></trkpt>
<trkpt lat="45.3774035" lon="-75.8494957"><speed>2.420</speed><ele>29.9</ele><time>2026-10-04T19:17:25Z</time></trkpt>
<trkpt lat="45.3773432" lon="-75.8493414"><speed>2.970</speed><ele>29.9</ele><time>2026-10-04T19:17:30Z</time></trkpt>
<trkpt lat="45.3772419" lon="-75.8492218"><speed>1.940</speed><ele>29.9</ele><time>2026-10-04T19:17:35Z</time></trkpt>
<trkpt lat="45.3771962" lon="-75.8490328"><speed>3.040</speed><ele>30.0</ele><time>2026-10-04T19:17:40Z</time></trkpt>
<trkpt lat="45.3771522" lon="-75.8488510"><speed>2.970</speed><ele>29.8</ele><time>2026-10-04T19:17:45Z</time></trkpt>
<trkpt lat="45.3770766" lon="-75.8487137"><speed>1.750</speed><ele>29.7</ele><time>2026-10-04T19:17:50Z</time></trkpt>
<trkpt lat="45.3770120" lon="-75.8485447"><speed>2.910</speed><ele>29.6</ele><time>2026-10-04T19:17:55Z</time></trkpt>
<trkpt lat="45.3769533" lon="-75.8483836"><speed>2.780</speed><ele>29.6</ele><time>2026-10-04T19:18:00Z</time></trkpt>
<trkpt lat="45.3769017" lon="-75.8482307"><speed>2.780</speed><ele>29.5</ele><time>2026-10-04T19:18:05Z</time></trkpt>
<trkpt lat="45.3768650" lon="-75.8480530"><speed>2.880</speed><ele>29.6</ele><time>2026-10-04T19:18:10Z</time></trkpt>
<trkpt lat="45.3768118" lon="-75.8478816"><speed>2.920</speed><ele>29.7</ele><time>2026-10-04T19:18:15Z</time></trkpt>
<trkpt lat="45.3767704" lon="-75.8477012"><speed>2.860</speed><ele>29.8</ele><time>2026-10-04T19:18:20Z</time></trkpt>
<trkpt lat="45.3766990" lon="-75.8475670"><speed>2.400</speed><ele>30.1</ele><time>2026-10-04T19:18:25Z</time></trkpt>
<trkpt lat="45.3766425" lon="-75.8474367"><speed>2.440</speed><ele>30.0</ele><time>2026-10-04T19:18:30Z</time></trkpt>
<trkpt lat="45.3766590" lon="-75.8472771"><speed>2.630</speed><ele>29.9</ele><time>2026-10-04T19:18:35Z</time></trkpt>
<trkpt lat="45.3766218" lon="-75.8471248"><speed>2.250</speed><ele>29.9</ele><time>2026-10-04T19:18:40Z</time></trkpt>
<trkpt lat="45.3766414" lon="-75.8469817"><speed>2.200</speed><ele>29.9</ele><time>2026-10-04T19:18:45Z</time></trkpt>
<trkpt lat="45.3767080" lon="-75.8468845"><speed>2.060</speed><ele>29.3</ele><time>2026-10-04T19:18:50Z</time></trkpt>
<trkpt lat="45.3767589" lon="-75.8467762"><speed>2.060</speed><ele>29.3</ele><time>2026-10-04T19:18:55Z</time></trkpt>
<trkpt lat="45.3767724" lon="-75.8466504"><speed>2.070</speed><ele>29.5</ele><time>2026-10-04T19:19:00Z</time></trkpt>
<trkpt lat="45.3767645" lon="-75.8465180"><speed>2.180</speed><ele>29.6</ele><time>2026-10-04T19:19:05Z</time></trkpt>
<trkpt lat="45.3767678" lon="-75.8463729"><speed>2.230</speed><ele>29.5</ele><time>2026-10-04T19:19:10Z</time></trkpt>
<trkpt lat="45.3767780" lon="-75.8462374"><speed>2.010</speed><ele>29.7</ele><time>2026-10-04T19:19:15Z</time></trkpt>
<trkpt lat="45.3768170" lon="-75.8461161"><speed>2.170</speed><ele>29.4</ele><time>2026-10-04T19:19:20Z</time></trkpt>
<trkpt lat="45.3768188" lon="-75.8459777"><speed>2.180</speed><ele>29.7</ele><time>2026-10-04T19:19:25Z</time></trkpt>
<trkpt lat="45.3768237" lon="-75.8458260"><speed>2.530</speed><ele>29.5</ele><time>2026-10-04T19:19:30Z</time></trkpt>
<trkpt lat="45.3768126" lon="-75.8456637"><speed>2.650</speed><ele>29.4</ele><time>2026-10-04T19:19:35Z</time></trkpt>
<trkpt lat="45.3768108" lon="-75.8454954"><speed>2.770</speed><ele>29.4</ele><time>2026-10-04T19:19:40Z</time></trkpt>
<trkpt lat="45.3768064" lon="-75.8453192"><speed>2.910</speed><ele>29.6</ele><time>2026-10-04T19:19:45Z</time></trkpt>
<trkpt lat="45.3767690" lon="-75.8451313"><speed>3.160</speed><ele>29.2</ele><time>2026-10-04T19:19:50Z</time></trkpt>
<trkpt lat="45.3767231" lon="-75.8449451"><speed>3.000</speed><ele>29.7</ele><time>2026-10-04T19:19:55Z</time></trkpt>
<trkpt lat="45.3766780" lon="-75.8447640"><speed>3.010</speed><ele>29.7</ele><time>2026-10-04T19:20:00Z</time></trkpt>
<trkpt lat="45.3766070" lon="-75.8446086"><speed>2.890</speed><ele>29.5</ele><time>2026-10-04T19:20:05Z</time></trkpt>
<trkpt lat="45.3765323" lon="-75.8444574"><speed>2.740</speed><ele>29.7</ele><time>2026-10-04T19:20:10Z</time></trkpt>
<trkpt lat="45.3764830" lon="-75.8443059"><speed>2.790</speed><ele>29.7</ele><time>2026-10-04T19:20:15Z</time></trkpt>
<trkpt lat="45.3765221" lon="-75.8441483"><speed>2.430</speed><ele>29.1</ele><time>2026-10-04T19:20:20Z</time></trkpt>
<trkpt lat="45.3766090" lon="-75.8440825"><speed>2.050</speed><ele>28.6</ele><time>2026-10-04T19:20:25Z</time></trkpt>
<trkpt lat="45.3766940" lon="-75.8440499"><speed>1.860</speed><ele>29.0</ele><time>2026-10-04T19:20:30Z</time></trkpt>
<trkpt lat="45.3767726" lon="-75.8440675"><speed>1.860</speed><ele>28.9</ele><time>2026-10-04T19:20:35Z</time></trkpt>
<trkpt lat="45.3768506" lon="-75.8441249"><speed>1.920</speed><ele>27.2</ele><time>2026-10-04T19:20:40Z</time></trkpt>
<trkpt lat="45.3769282" lon="-75.8441780"><speed>1.830</speed><ele>27.4</ele><time>2026-10-04T19:20:45Z</time></trkpt>
<trkpt lat="45.3770076" lon="-75.8442305"><speed>1.910</speed><ele>28.8</ele><time>2026-10-04T19:20:50Z</time></trkpt>
<trkpt lat="45.3770883" lon="-75.8442857"><speed>2.040</speed><ele>27.3</ele><time>2026-10-04T19:20:55Z</time></trkpt>
<trkpt lat="45.3771578" lon="-75.8443528"><speed>1.840</speed><ele>27.7</ele><time>2026-10-04T19:21:00Z</time></trkpt>
<trkpt lat="45.3772040" lon="-75.8444548"><speed>1.990</speed><ele>27.7</ele><time>2026-10-04T19:21:05Z</time></trkpt>
<trkpt lat="45.3772464" lon="-75.8445619"><speed>1.970</speed><ele>27.6</ele><time>2026-10-04T19:21:10Z</time></trkpt>
<trkpt lat="45.3772962" lon="-75.8446708"><speed>2.050</speed><ele>27.6</ele><time>2026-10-04T19:21:15Z</time></trkpt>
<trkpt lat="45.3773498" lon="-75.8447863"><speed>2.240</speed><ele>27.5</ele><time>2026-10-04T19:21:20Z</time></trkpt>
<trkpt lat="45.3774128" lon="-75.8449075"><speed>2.370</speed><ele>27.8</ele><time>2026-10-04T19:21:25Z</time></trkpt>
<trkpt lat="45.3774906" lon="-75.8450072"><speed>2.440</speed><ele>27.5</ele><time>2026-10-04T19:21:30Z</time></trkpt>
<trkpt lat="45.3775580" lon="-75.8451306"><speed>2.390</speed><ele>27.6</ele><time>2026-10-04T19:21:35Z</time></trkpt>
<trkpt lat="45.3776243" lon="-75.8452484"><speed>2.320</speed><ele>27.8</ele><time>2026-10-04T19:21:40Z</time></trkpt>
<trkpt lat="45.3776694" lon="-75.8453797"><speed>2.350</speed><ele>27.6</ele><time>2026-10-04T19:21:45Z</time></trkpt>
<trkpt lat="45.3777133" lon="-75.8455187"><speed>2.470</speed><ele>27.6</ele><time>2026-10-04T19:21:50Z</time></trkpt>
<trkpt lat="45.3777655" lon="-75.8456580"><speed>2.430</speed><ele>27.7</ele><time>2026-10-04T19:21:55Z</time></trkpt>
<trkpt lat="45.3778216" lon="-75.8457944"><speed>2.410</speed><ele>27.5</ele><time>2026-10-04T19:22:00Z</time></trkpt>
<trkpt lat="45.3778800" lon="-75.8459287"><speed>2.490</speed><ele>27.7</ele><time>2026-10-04T19:22:05Z</time></trkpt>
<trkpt lat="45.3779325" lon="-75.8460534"><speed>2.110</speed><ele>27.3</ele><time>2026-10-04T19:22:10Z</time></trkpt>
<trkpt lat="45.3779718" lon="-75.8461708"><speed>2.080</speed><ele>27.5</ele><time>2026-10-04T19:22:15Z</time></trkpt>
<trkpt lat="45.3780192" lon="-75.8462824"><speed>2.010</speed><ele>27.5</ele><time>2026-10-04T19:22:20Z</time></trkpt>
<trkpt lat="45.3780671" lon="-75.8463918"><speed>1.980</speed><ele>27.8</ele><time>2026-10-04T19:22:25Z</time></trkpt>
<trkpt lat="45.3781141" lon="-75.8464994"><speed>1.950</speed><ele>27.5</ele><time>2026-10-04T19:22:30Z</time></trkpt>
<trkpt lat="45.3781659" lon="-75.8466083"><speed>2.020</speed><ele>27.6</ele><time>2026-10-04T19:22:35Z</time></trkpt>
<trkpt lat="45.3782114" lon="-75.8467193"><speed>1.980</speed><ele>27.4</ele><time>2026-10-04T19:22:40Z</time></trkpt>
<trkpt lat="45.3782663" lon="-75.8468224"><speed>2.030</speed><ele>27.4</ele><time>2026-10-04T19:22:45Z</time></trkpt>
<trkpt lat="45.3783215" lon="-75.8469222"><speed>1.970</speed><ele>27.6</ele><time>2026-10-04T19:22:50Z</time></trkpt>
<trkpt lat="45.3783812" lon="-75.8470221"><speed>2.110</speed><ele>27.4</ele><time>2026-10-04T19:22:55Z</time></trkpt>
<trkpt lat="45.3784359" lon="-75.8471386"><speed>2.200</speed><ele>27.4</ele><time>2026-10-04T19:23:00Z</time></trkpt>
<trkpt lat="45.3784902" lon="-75.8472654"><speed>2.380</speed><ele>27.4</ele><time>2026-10-04T19:23:05Z</time></trkpt>
<trkpt lat="45.3785373" lon="-75.8473963"><speed>2.280</speed><ele>27.4</ele><time>2026-10-04T19:23:10Z</time></trkpt>
<trkpt lat="45.3785737" lon="-75.8475255"><speed>2.170</speed><ele>27.4</ele><time>2026-10-04T19:23:15Z</time></trkpt>
<trkpt lat="45.3786016" lon="-75.8476534"><speed>2.010</speed><ele>27.4</ele><time>2026-10-04T19:23:20Z</time></trkpt>
<trkpt lat="45.3786169" lon="-75.8477793"><speed>2.050</speed><ele>27.4</ele><time>2026-10-04T19:23:25Z</time></trkpt>
<trkpt lat="45.3786411" lon="-75.8479096"><speed>2.200</speed><ele>27.5</ele><time>2026-10-04T19:23:30Z</time></trkpt>
<trkpt lat="45.3786719" lon="-75.8480541"><speed>2.470</speed><ele>27.4</ele><time>2026-10-04T19:23:35Z</time></trkpt>
<trkpt lat="45.3786964" lon="-75.8482042"><speed>2.400</speed><ele>27.6</ele><time>2026-10-04T19:23:40Z</time></trkpt>
<trkpt lat="45.3787210" lon="-75.8483885"><speed>2.880</speed><ele>27.5</ele><time>2026-10-04T19:23:45Z</time></trkpt>
<trkpt lat="45.3787366" lon="-75.8485115"><speed>2.350</speed><ele>27.5</ele><time>2026-10-04T19:23:50Z</time></trkpt>
<trkpt lat="45.3787660" lon="-75.8486544"><speed>2.350</speed><ele>27.5</ele><time>2026-10-04T19:23:55Z</time></trkpt>
<trkpt lat="45.3787952" lon="-75.8488073"><speed>2.550</speed><ele>27.5</ele><time>2026-10-04T19:24:00Z</time></trkpt>
<trkpt lat="45.3788228" lon="-75.8489679"><speed>2.620</speed><ele>27.2</ele><time>2026-10-04T19:24:05Z</time></trkpt>
<trkpt lat="45.3788520" lon="-75.8491243"><speed>2.430</speed><ele>27.6</ele><time>2026-10-04T19:24:10Z</time></trkpt>
<trkpt lat="45.3788814" lon="-75.8492662"><speed>2.210</speed><ele>27.6</ele><time>2026-10-04T19:24:15Z</time></trkpt>
<trkpt lat="45.3789050" lon="-75.8493979"><speed>1.970</speed><ele>27.2</ele><time>2026-10-04T19:24:20Z</time></trkpt>
<trkpt lat="45.3789208" lon="-75.8495153"><speed>1.860</speed><ele>27.5</ele><time>2026-10-04T19:24:25Z</time></trkpt>
<trkpt lat="45.3789307" lon="-75.8496282"><speed>1.760</speed><ele>27.3</ele><time>2026-10-04T19:24:30Z</time></trkpt>
<trkpt lat="45.3789297" lon="-75.8497432"><speed>1.870</speed><ele>27.4</ele><time>2026-10-04T19:24:35Z</time></trkpt>
<trkpt lat="45.3789211" lon="-75.8498643"><speed>1.990</speed><ele>27.1</ele><time>2026-10-04T19:24:40Z</time></trkpt>
<trkpt lat="45.3789015" lon="-75.8499891"><speed>1.970</speed><ele>27.5</ele><time>2026-10-04T19:24:45Z</time></trkpt>
<trkpt lat="45.3788834" lon="-75.8501113"><speed>1.920</speed><ele>27.5</ele><time>2026-10-04T19:24:50Z</time></trkpt>
<trkpt lat="45.3788564" lon="-75.8502261"><speed>1.830</speed><ele>27.1</ele><time>2026-10-04T19:24:55Z</time></trkpt>
<trkpt lat="45.3788204" lon="-75.8503267"><speed>1.980</speed><ele>27.5</ele><time>2026-10-04T19:25:00Z</time></trkpt>
<trkpt lat="45.3787902" lon="-75.8504152"><speed>1.560</speed><ele>27.3</ele><time>2026-10-04T19:25:05Z</time></trkpt>
<trkpt lat="45.3787782" lon="-75.8505236"><speed>1.760</speed><ele>26.8</ele><time>2026-10-04T19:25:10Z</time></trkpt>
<trkpt lat="45.3787686" lon="-75.8506393"><speed>2.020</speed><ele>27.2</ele><time>2026-10-04T19:25:15Z</time></trkpt>
<trkpt lat="45.3787656" lon="-75.8507746"><speed>2.140</speed><ele>27.5</ele><time>2026-10-04T19:25:20Z</time></trkpt>
<trkpt lat="45.3787526" lon="-75.8509122"><speed>2.280</speed><ele>27.2</ele><time>2026-10-04T19:25:25Z</time></trkpt>
<trkpt lat="45.3787250" lon="-75.8510550"><speed>2.090</speed><ele>27.1</ele><time>2026-10-04T19:25:30Z</time></trkpt>
<trkpt lat="45.3786949" lon="-75.8511912"><speed>2.190</speed><ele>27.3</ele><time>2026-10-04T19:25:35Z</time></trkpt>
<trkpt lat="45.3786716" lon="-75.8513257"><speed>2.120</speed><ele>27.4</ele><time>2026-10-04T19:25:40Z</time></trkpt>
<trkpt lat="45.3786453" lon="-75.8514553"><speed>2.120</speed><ele>27.1</ele><time>2026-10-04T19:25:45Z</time></trkpt>
<trkpt lat="45.3786177" lon="-75.8515836"><speed>2.070</speed><ele>27.3</ele><time>2026-10-04T19:25:50Z</time></trkpt>
<trkpt lat="45.3785881" lon="-75.8517118"><speed>2.100</speed><ele>27.4</ele><time>2026-10-04T19:25:55Z</time></trkpt>
<trkpt lat="45.3785597" lon="-75.8518444"><speed>2.130</speed><ele>27.0</ele><time>2026-10-04T19:26:00Z</time></trkpt>
<trkpt lat="45.3785261" lon="-75.8519665"><speed>2.060</speed><ele>27.2</ele><time>2026-10-04T19:26:05Z</time></trkpt>
<trkpt lat="45.3784750" lon="-75.8520687"><speed>1.930</speed><ele>27.4</ele><time>2026-10-04T19:26:10Z</time></trkpt>
<trkpt lat="45.3784105" lon="-75.8521360"><speed>1.690</speed><ele>27.1</ele><time>2026-10-04T19:26:15Z</time></trkpt>
<trkpt lat="45.3783473" lon="-75.8521588"><speed>1.270</speed><ele>27.3</ele><time>2026-10-04T19:26:20Z</time></trkpt>
<trkpt lat="45.3782979" lon="-75.8521301"><speed>1.140</speed><ele>27.7</ele><time>2026-10-04T19:26:25Z</time></trkpt>
<trkpt lat="45.3782687" lon="-75.8520710"><speed>1.000</speed><ele>28.2</ele><time>2026-10-04T19:26:30Z</time></trkpt>
<trkpt lat="45.3782599" lon="-75.8520102"><speed>0.920</speed><ele>27.9</ele><time>2026-10-04T19:26:35Z</time></trkpt>
<trkpt lat="45.3782606" lon="-75.8519565"><speed>0.820</speed><ele>27.6</ele><time>2026-10-04T19:26:40Z</time></trkpt>
<trkpt lat="45.3782602" lon="-75.8519094"><speed>0.670</speed><ele>27.6</ele><time>2026-10-04T19:26:45Z</time></trkpt>
<trkpt lat="45.3782595" lon="-75.8518724"><speed>0.510</speed><ele>27.5</ele><time>2026-10-04T19:26:50Z</time></trkpt>
<trkpt lat="45.3782618" lon="-75.8518404"><speed>0.510</speed><ele>27.6</ele><time>2026-10-04T19:26:55Z</time></trkpt>
<trkpt lat="45.3782695" lon="-75.8518060"><speed>0.610</speed><ele>27.5</ele><time>2026-10-04T19:27:00Z</time></trkpt>
<trkpt lat="45.3782822" lon="-75.8517688"><speed>0.660</speed><ele>27.5</ele><time>2026-10-04T19:27:05Z</time></trkpt>
<trkpt lat="45.3782931" lon="-75.8517328"><speed>0.630</speed><ele>27.4</ele><time>2026-10-04T19:27:10Z</time></trkpt>
<trkpt lat="45.3783059" lon="-75.8516951"><speed>0.620</speed><ele>27.7</ele><time>2026-10-04T19:27:15Z</time></trkpt>
<trkpt lat="45.3783198" lon="-75.8516581"><speed>0.620</speed><ele>27.6</ele><time>2026-10-04T19:27:20Z</time></trkpt>
<trkpt lat="45.3783334" lon="-75.8516220"><speed>0.630</speed><ele>27.5</ele><time>2026-10-04T19:27:25Z</time></trkpt>
<trkpt lat="45.3783467" lon="-75.8515847"><speed>0.660</speed><ele>27.6</ele><time>2026-10-04T19:27:30Z</time></trkpt>
<trkpt lat="45.3783617" lon="-75.8515488"><speed>0.630</speed><ele>27.6</ele><time>2026-10-04T19:27:35Z</time></trkpt>
<trkpt lat="45.3783762" lon="-75.8515148"><speed>0.600</speed><ele>27.7</ele><time>2026-10-04T19:27:40Z</time></trkpt>
<trkpt lat="45.3783884" lon="-75.8514809"><speed>0.600</speed><ele>27.7</ele><time>2026-10-04T19:27:45Z</time></trkpt>
<trkpt lat="45.3783984" lon="-75.8514462"><speed>0.570</speed><ele>27.6</ele><time>2026-10-04T19:27:50Z</time></trkpt>
<trkpt lat="45.3784075" lon="-75.8514145"><speed>0.550</speed><ele>27.5</ele><time>2026-10-04T19:27:55Z</time></trkpt>
<trkpt lat="45.3784171" lon="-75.8513824"><speed>0.580</speed><ele>27.4</ele><time>2026-10-04T19:28:00Z</time></trkpt>
<trkpt lat="45.3784288" lon="-75.8513482"><speed>0.600</speed><ele>27.5</ele><time>2026-10-04T19:28:05Z</time></trkpt>
<trkpt lat="45.3784406" lon="-75.8513151"><speed>0.590</speed><ele>27.2</ele><time>2026-10-04T19:28:10Z</time></trkpt>
<trkpt lat="45.3784518" lon="-75.8512829"><speed>0.580</speed><ele>27.3</ele><time>2026-10-04T19:28:15Z</time></trkpt>
<trkpt lat="45.3784616" lon="-75.8512518"><speed>0.550</speed><ele>27.4</ele><time>2026-10-04T19:28:20Z</time></trkpt>
<trkpt lat="45.3784732" lon="-75.8512186"><speed>0.560</speed><ele>27.4</ele><time>2026-10-04T19:28:25Z</time></trkpt>
<trkpt lat="45.3784857" lon="-75.8511860"><speed>0.570</speed><ele>27.5</ele><time>2026-10-04T19:28:30Z</time></trkpt>
<trkpt lat="45.3784981" lon="-75.8511533"><speed>0.580</speed><ele>27.6</ele><time>2026-10-04T19:28:35Z</time></trkpt>
<trkpt lat="45.3785127" lon="-75.8511208"><speed>0.630</speed><ele>27.6</ele><time>2026-10-04T19:28:40Z</time></trkpt>
<trkpt lat="45.3785411" lon="-75.8510979"><speed>0.720</speed><ele>27.4</ele><time>2026-10-04T19:28:45Z</time></trkpt>
<trkpt lat="45.3785670" lon="-75.8510405"><speed>0.830</speed><ele>27.1</ele><time>2026-10-04T19:28:50Z</time></trkpt>
<trkpt lat="45.3785621" lon="-75.8510294"><speed>0.170</speed><ele>27.1</ele><time>2026-10-04T19:28:55Z</time></trkpt>
<trkpt lat="45.3785596" lon="-75.8509949"><speed>0.580</speed><ele>27.2</ele><time>2026-10-04T19:29:00Z</time></trkpt>
<trkpt lat="45.3785663" lon="-75.8509623"><speed>0.580</speed><ele>27.3</ele><time>2026-10-04T19:29:05Z</time></trkpt>
<trkpt lat="45.3785739" lon="-75.8509305"><speed>0.500</speed><ele>27.3</ele><time>2026-10-04T19:29:10Z</time></trkpt>
<trkpt lat="45.3785805" lon="-75.8509002"><speed>0.440</speed><ele>27.3</ele><time>2026-10-04T19:29:15Z</time></trkpt>
<trkpt lat="45.3785895" lon="-75.8508722"><speed>0.420</speed><ele>27.4</ele><time>2026-10-04T19:29:20Z</time></trkpt>
<trkpt lat="45.3785973" lon="-75.8508498"><speed>0.400</speed><ele>27.6</ele><time>2026-10-04T19:29:25Z</time></trkpt>
<trkpt lat="45.3786052" lon="-75.8508235"><speed>0.400</speed><ele>27.4</ele><time>2026-10-04T19:29:30Z</time></trkpt>
<trkpt lat="45.3786147" lon="-75.8508016"><speed>0.380</speed><ele>27.5</ele><time>2026-10-04T19:29:35Z</time></trkpt>
<trkpt lat="45.3786256" lon="-75.8507858"><speed>0.340</speed><ele>27.5</ele><time>2026-10-04T19:29:40Z</time></trkpt>
<trkpt lat="45.3786372" lon="-75.8507720"><speed>0.390</speed><ele>27.5</ele><time>2026-10-04T19:29:45Z</time></trkpt>
<trkpt lat="45.3786530" lon="-75.8507553"><speed>0.420</speed><ele>27.4</ele><time>2026-10-04T19:29:50Z</time></trkpt>
<trkpt lat="45.3786705" lon="-75.8507386"><speed>0.460</speed><ele>27.3</ele><time>2026-10-04T19:29:55Z</time></trkpt>
<trkpt lat="45.3786873" lon="-75.8507214"><speed>0.460</speed><ele>27.4</ele><time>2026-10-04T19:30:00Z</time></trkpt>
<trkpt lat="45.3787058" lon="-75.8507028"><speed>0.470</speed><ele>27.5</ele><time>2026-10-04T19:30:05Z</time></trkpt>
<trkpt lat="45.3787254" lon="-75.8506833"><speed>0.480</speed><ele>27.4</ele><time>2026-10-04T19:30:10Z</time></trkpt>
<trkpt lat="45.3787429" lon="-75.8506632"><speed>0.500</speed><ele>27.5</ele><time>2026-10-04T19:30:15Z</time></trkpt>
<trkpt lat="45.3787561" lon="-75.8506446"><speed>0.480</speed><ele>27.4</ele><time>2026-10-04T19:30:20Z</time></trkpt>
<trkpt lat="45.3787696" lon="-75.8506207"><speed>0.420</speed><ele>27.5</ele><time>2026-10-04T19:30:25Z</time></trkpt>
<trkpt lat="45.3787820" lon="-75.8505981"><speed>0.420</speed><ele>27.5</ele><time>2026-10-04T19:30:30Z</time></trkpt>
<trkpt lat="45.3787916" lon="-75.8505768"><speed>0.370</speed><ele>27.6</ele><time>2026-10-04T19:30:35Z</time></trkpt>
<trkpt lat="45.3788011" lon="-75.8505523"><speed>0.440</speed><ele>27.8</ele><time>2026-10-04T19:30:40Z</time></trkpt>
<trkpt lat="45.3788116" lon="-75.8505362"><speed>0.370</speed><ele>27.7</ele><time>2026-10-04T19:30:45Z</time></trkpt>
<trkpt lat="45.3788218" lon="-75.8505183"><speed>0.360</speed><ele>27.7</ele><time>2026-10-04T19:30:50Z</time></trkpt>
<trkpt lat="45.3788319" lon="-75.8504993"><speed>0.330</speed><ele>27.7</ele><time>2026-10-04T19:30:55Z</time></trkpt>
<trkpt lat="45.3788437" lon="-75.8504834"><speed>0.360</speed><ele>27.6</ele><time>2026-10-04T19:31:00Z</time></trkpt>
<trkpt lat="45.3788571" lon="-75.8504641"><speed>0.400</speed><ele>27.5</ele><time>2026-10-04T19:31:05Z</time></trkpt>
<trkpt lat="45.3788718" lon="-75.8504467"><speed>0.420</speed><ele>27.6</ele><time>2026-10-04T19:31:10Z</time></trkpt>
<trkpt lat="45.3788862" lon="-75.8504273"><speed>0.410</speed><ele>27.7</ele><time>2026-10-04T19:31:15Z</time></trkpt>
<trkpt lat="45.3789000" lon="-75.8504085"><speed>0.410</speed><ele>27.6</ele><time>2026-10-04T19:31:20Z</time></trkpt>
<trkpt lat="45.3789157" lon="-75.8503887"><speed>0.420</speed><ele>27.7</ele><time>2026-10-04T19:31:25Z</time></trkpt>
<trkpt lat="45.3789314" lon="-75.8503723"><speed>0.400</speed><ele>27.8</ele><time>2026-10-04T19:31:30Z</time></trkpt>
<trkpt lat="45.3789441" lon="-75.8503547"><speed>0.420</speed><ele>27.6</ele><time>2026-10-04T19:31:35Z</time></trkpt>
<trkpt lat="45.3789561" lon="-75.8503373"><speed>0.360</speed><ele>27.7</ele><time>2026-10-04T19:31:40Z</time></trkpt>
<trkpt lat="45.3789669" lon="-75.8503195"><speed>0.370</speed><ele>27.7</ele><time>2026-10-04T19:31:45Z</time></trkpt>
<trkpt lat="45.3789764" lon="-75.8503009"><speed>0.360</speed><ele>27.6</ele><time>2026-10-04T19:31:50Z</time></trkpt>
<trkpt lat="45.3789874" lon="-75.8502827"><speed>0.370</speed><ele>27.6</ele><time>2026-10-04T19:31:55Z</time></trkpt>
<trkpt lat="45.3789984" lon="-75.8502607"><speed>0.420</speed><ele>27.6</ele><time>2026-10-04T19:32:00Z</time></trkpt>
<trkpt lat="45.3790111" lon="-75.8502410"><speed>0.450</speed><ele>27.7</ele><time>2026-10-04T19:32:05Z</time></trkpt>
<trkpt lat="45.3790263" lon="-75.8502197"><speed>0.460</speed><ele>27.5</ele><time>2026-10-04T19:32:10Z</time></trkpt>
<trkpt lat="45.3790407" lon="-75.8501963"><speed>0.480</speed><ele>27.3</ele><time>2026-10-04T19:32:15Z</time></trkpt>
<trkpt lat="45.3790560" lon="-75.8501737"><speed>0.480</speed><ele>27.4</ele><time>2026-10-04T19:32:20Z</time></trkpt>
<trkpt lat="45.3790718" lon="-75.8501493"><speed>0.490</speed><ele>27.5</ele><time>2026-10-04T19:32:25Z</time></trkpt>
<trkpt lat="45.3790876" lon="-75.8501251"><speed>0.490</speed><ele>27.5</ele><time>2026-10-04T19:32:30Z</time></trkpt>
<trkpt lat="45.3790987" lon="-75.8501008"><speed>0.420</speed><ele>27.5</ele><time>2026-10-04T19:32:35Z</time></trkpt>
<trkpt lat="45.3791068" lon="-75.8500757"><speed>0.410</speed><ele>27.4</ele><time>2026-10-04T19:32:40Z</time></trkpt>
<trkpt lat="45.3791152" lon="-75.8500529"><speed>0.410</speed><ele>27.4</ele><time>2026-10-04T19:32:45Z</time></trkpt>
<trkpt lat="45.3791228" lon="-75.8500291"><speed>0.380</speed><ele>27.4</ele><time>2026-10-04T19:32:50Z</time></trkpt>
<trkpt lat="45.3791290" lon="-75.8500083"><speed>0.380</speed><ele>27.4</ele><time>2026-10-04T19:32:55Z</time></trkpt>
<trkpt lat="45.3791356" lon="-75.8499874"><speed>0.350</speed><ele>27.5</ele><time>2026-10-04T19:33:00Z</time></trkpt>
<trkpt lat="45.3791429" lon="-75.8499656"><speed>0.360</speed><ele>27.5</ele><time>2026-10-04T19:33:05Z</time></trkpt>
<trkpt lat="45.3791495" lon="-75.8499445"><speed>0.350</speed><ele>27.4</ele><time>2026-10-04T19:33:10Z</time></trkpt>
<trkpt lat="45.3791559" lon="-75.8499259"><speed>0.320</speed><ele>27.5</ele><time>2026-10-04T19:33:15Z</time></trkpt>
<trkpt lat="45.3791644" lon="-75.8499077"><speed>0.310</speed><ele>27.5</ele><time>2026-10-04T19:33:20Z</time></trkpt>
<trkpt lat="45.3791766" lon="-75.8498909"><speed>0.360</speed><ele>27.4</ele><time>2026-10-04T19:33:25Z</time></trkpt>
<trkpt lat="45.3791884" lon="-75.8498749"><speed>0.370</speed><ele>27.4</ele><time>2026-10-04T19:33:30Z</time></trkpt>
<trkpt lat="45.3792012" lon="-75.8498561"><speed>0.430</speed><ele>27.5</ele><time>2026-10-04T19:33:35Z</time></trkpt>
<trkpt lat="45.3792192" lon="-75.8498383"><speed>0.490</speed><ele>27.4</ele><time>2026-10-04T19:33:40Z</time></trkpt>
<trkpt lat="45.3792372" lon="-75.8498160"><speed>0.530</speed><ele>27.3</ele><time>2026-10-04T19:33:45Z</time></trkpt>
<trkpt lat="45.3792532" lon="-75.8497922"><speed>0.560</speed><ele>27.4</ele><time>2026-10-04T19:33:50Z</time></trkpt>
<trkpt lat="45.3792688" lon="-75.8497653"><speed>0.550</speed><ele>27.5</ele><time>2026-10-04T19:33:55Z</time></trkpt>
<trkpt lat="45.3792845" lon="-75.8497365"><speed>0.580</speed><ele>27.4</ele><time>2026-10-04T19:34:00Z</time></trkpt>
<trkpt lat="45.3793013" lon="-75.8497071"><speed>0.560</speed><ele>27.4</ele><time>2026-10-04T19:34:05Z</time></trkpt>
<trkpt lat="45.3793166" lon="-75.8496772"><speed>0.580</speed><ele>27.5</ele><time>2026-10-04T19:34:10Z</time></trkpt>
<trkpt lat="45.3793334" lon="-75.8496476"><speed>0.580</speed><ele>27.4</ele><time>2026-10-04T19:34:15Z</time></trkpt>
<trkpt lat="45.3793496" lon="-75.8496166"><speed>0.590</speed><ele>27.5</ele><time>2026-10-04T19:34:20Z</time></trkpt>
<trkpt lat="45.3793927" lon="-75.8495583"><speed>0.590</speed><ele>27.6</ele><time>2026-10-04T19:34:25Z</time></trkpt>
<trkpt lat="45.3793852" lon="-75.8495397"><speed>0.570</speed><ele>27.5</ele><time>2026-10-04T19:34:30Z</time></trkpt>
<trkpt lat="45.3793901" lon="-75.8495131"><speed>0.560</speed><ele>27.5</ele><time>2026-10-04T19:34:35Z</time></trkpt>
<trkpt lat="45.3794003" lon="-75.8494882"><speed>0.490</speed><ele>27.6</ele><time>2026-10-04T19:34:40Z</time></trkpt>
<trkpt lat="45.3794080" lon="-75.8494580"><speed>0.500</speed><ele>27.6</ele><time>2026-10-04T19:34:45Z</time></trkpt>
<trkpt lat="45.3794147" lon="-75.8494293"><speed>0.480</speed><ele>27.7</ele><time>2026-10-04T19:34:50Z</time></trkpt>
<trkpt lat="45.3794213" lon="-75.8493982"><speed>0.610</speed><ele>27.5</ele><time>2026-10-04T19:34:55Z</time></trkpt>
<trkpt lat="45.3794267" lon="-75.8493490"><speed>0.910</speed><ele>27.5</ele><time>2026-10-04T19:35:00Z</time></trkpt>
<trkpt lat="45.3794177" lon="-75.8492873"><speed>1.050</speed><ele>27.6</ele><time>2026-10-04T19:35:05Z</time></trkpt>
<trkpt lat="45.3794013" lon="-75.8492102"><speed>1.450</speed><ele>27.7</ele><time>2026-10-04T19:35:10Z</time></trkpt>
<trkpt lat="45.3793792" lon="-75.8491209"><speed>1.820</speed><ele>27.7</ele><time>2026-10-04T19:35:15Z</time></trkpt>
<trkpt lat="45.3793321" lon="-75.8490373"><speed>1.610</speed><ele>27.8</ele><time>2026-10-04T19:35:20Z</time></trkpt>
<trkpt lat="45.3792781" lon="-75.8489624"><speed>1.750</speed><ele>27.8</ele><time>2026-10-04T19:35:25Z</time></trkpt>
<trkpt lat="45.3792232" lon="-75.8488683"><speed>2.010</speed><ele>27.7</ele><time>2026-10-04T19:35:30Z</time></trkpt>
<trkpt lat="45.3791658" lon="-75.8487586"><speed>2.280</speed><ele>27.8</ele><time>2026-10-04T19:35:35Z</time></trkpt>
<trkpt lat="45.3791218" lon="-75.8486258"><speed>2.360</speed><ele>27.9</ele><time>2026-10-04T19:35:40Z</time></trkpt>
<trkpt lat="45.3790875" lon="-75.8484861"><speed>2.350</speed><ele>27.8</ele><time>2026-10-04T19:35:45Z</time></trkpt>
<trkpt lat="45.3790658" lon="-75.8483472"><speed>2.150</speed><ele>27.8</ele><time>2026-10-04T19:35:50Z</time></trkpt>
<trkpt lat="45.3790494" lon="-75.8482151"><speed>2.060</speed><ele>27.6</ele><time>2026-10-04T19:35:55Z</time></trkpt>
<trkpt lat="45.3790374" lon="-75.8480865"><speed>1.990</speed><ele>27.7</ele><time>2026-10-04T19:36:00Z</time></trkpt>
<trkpt lat="45.3790170" lon="-75.8479555"><speed>2.210</speed><ele>27.7</ele><time>2026-10-04T19:36:05Z</time></trkpt>
<trkpt lat="45.3789909" lon="-75.8478172"><speed>2.230</speed><ele>27.9</ele><time>2026-10-04T19:36:10Z</time></trkpt>
<trkpt lat="45.3789650" lon="-75.8476770"><speed>2.290</speed><ele>27.8</ele><time>2026-10-04T19:36:15Z</time></trkpt>
<trkpt lat="45.3789403" lon="-75.8475259"><speed>2.490</speed><ele>27.8</ele><time>2026-10-04T19:36:20Z</time></trkpt>
<trkpt lat="45.3789130" lon="-75.8473673"><speed>2.530</speed><ele>27.8</ele><time>2026-10-04T19:36:25Z</time></trkpt>
<trkpt lat="45.3788857" lon="-75.8472077"><speed>2.570</speed><ele>27.9</ele><time>2026-10-04T19:36:30Z</time></trkpt>
<trkpt lat="45.3788569" lon="-75.8470550"><speed>2.410</speed><ele>27.9</ele><time>2026-10-04T19:36:35Z</time></trkpt>
<trkpt lat="45.3788298" lon="-75.8469057"><speed>2.400</speed><ele>27.9</ele><time>2026-10-04T19:36:40Z</time></trkpt>
<trkpt lat="45.3787561" lon="-75.8468580"><speed>1.480</speed><ele>27.9</ele><time>2026-10-04T19:36:45Z</time></trkpt>
<trkpt lat="45.3787050" lon="-75.8469036"><speed>1.200</speed><ele>27.9</ele><time>2026-10-04T19:36:50Z</time></trkpt>
<trkpt lat="45.3786877" lon="-75.8469742"><speed>1.290</speed><ele>27.9</ele><time>2026-10-04T19:36:55Z</time></trkpt>
<trkpt lat="45.3787021" lon="-75.8470695"><speed>1.620</speed><ele>27.9</ele><time>2026-10-04T19:37:00Z</time></trkpt>
<trkpt lat="45.3787435" lon="-75.8471621"><speed>1.710</speed><ele>27.9</ele><time>2026-10-04T19:37:05Z</time></trkpt>
<trkpt lat="45.3787885" lon="-75.8472505"><speed>1.680</speed><ele>27.9</ele><time>2026-10-04T19:37:10Z</time></trkpt>
<trkpt lat="45.3788307" lon="-75.8473424"><speed>1.750</speed><ele>27.8</ele><time>2026-10-04T19:37:15Z</time></trkpt>
<trkpt lat="45.3788700" lon="-75.8474393"><speed>1.770</speed><ele>27.8</ele><time>2026-10-04T19:37:20Z</time></trkpt>
<trkpt lat="45.3789092" lon="-75.8475427"><speed>1.860</speed><ele>28.0</ele><time>2026-10-04T19:37:25Z</time></trkpt>
<trkpt lat="45.3789459" lon="-75.8476497"><speed>1.800</speed><ele>28.0</ele><time>2026-10-04T19:37:30Z</time></trkpt>
<trkpt lat="45.3789885" lon="-75.8477494"><speed>1.810</speed><ele>27.8</ele><time>2026-10-04T19:37:35Z</time></trkpt>
<trkpt lat="45.3790203" lon="-75.8478531"><speed>1.760</speed><ele>27.9</ele><time>2026-10-04T19:37:40Z</time></trkpt>
<trkpt lat="45.3790540" lon="-75.8479554"><speed>1.710</speed><ele>27.8</ele><time>2026-10-04T19:37:45Z</time></trkpt>
<trkpt lat="45.3790829" lon="-75.8480588"><speed>1.680</speed><ele>27.8</ele><time>2026-10-04T19:37:50Z</time></trkpt>
<trkpt lat="45.3791079" lon="-75.8481529"><speed>1.540</speed><ele>27.8</ele><time>2026-10-04T19:37:55Z</time></trkpt>
<trkpt lat="45.3791148" lon="-75.8482498"><speed>1.590</speed><ele>27.8</ele><time>2026-10-04T19:38:00Z</time></trkpt>
<trkpt lat="45.3791323" lon="-75.8483448"><speed>1.460</speed><ele>27.8</ele><time>2026-10-04T19:38:05Z</time></trkpt>
<trkpt lat="45.3791153" lon="-75.8484278"><speed>1.390</speed><ele>27.9</ele><time>2026-10-04T19:38:10Z</time></trkpt>
<trkpt lat="45.3790674" lon="-75.8484502"><speed>1.100</speed><ele>28.0</ele><time>2026-10-04T19:38:15Z</time></trkpt>
<trkpt lat="45.3790277" lon="-75.8484213"><speed>1.090</speed><ele>27.9</ele><time>2026-10-04T19:38:20Z</time></trkpt>
<trkpt lat="45.3790083" lon="-75.8483616"><speed>1.160</speed><ele>28.0</ele><time>2026-10-04T19:38:25Z</time></trkpt>
<trkpt lat="45.3790166" lon="-75.8482869"><speed>1.170</speed><ele>27.9</ele><time>2026-10-04T19:38:30Z</time></trkpt>
<trkpt lat="45.3790197" lon="-75.8482116"><speed>1.150</speed><ele>28.0</ele><time>2026-10-04T19:38:35Z</time></trkpt>
<trkpt lat="45.3790165" lon="-75.8481377"><speed>1.120</speed><ele>28.0</ele><time>2026-10-04T19:38:40Z</time></trkpt>
<trkpt lat="45.3790142" lon="-75.8480654"><speed>1.170</speed><ele>28.0</ele><time>2026-10-04T19:38:45Z</time></trkpt>
<trkpt lat="45.3790130" lon="-75.8479939"><speed>1.160</speed><ele>28.1</ele><time>2026-10-04T19:38:50Z</time></trkpt>
<trkpt lat="45.3790060" lon="-75.8479253"><speed>1.100</speed><ele>28.1</ele><time>2026-10-04T19:38:55Z</time></trkpt>
<trkpt lat="45.3790004" lon="-75.8478527"><speed>1.160</speed><ele>28.1</ele><time>2026-10-04T19:39:00Z</time></trkpt>
<trkpt lat="45.3789964" lon="-75.8477781"><speed>1.190</speed><ele>28.1</ele><time>2026-10-04T19:39:05Z</time></trkpt>
<trkpt lat="45.3789839" lon="-75.8477060"><speed>1.090</speed><ele>28.1</ele><time>2026-10-04T19:39:10Z</time></trkpt>
<trkpt lat="45.3789589" lon="-75.8476402"><speed>1.210</speed><ele>28.1</ele><time>2026-10-04T19:39:15Z</time></trkpt>
<trkpt lat="45.3789317" lon="-75.8475733"><speed>1.130</speed><ele>28.0</ele><time>2026-10-04T19:39:20Z</time></trkpt>
<trkpt lat="45.3788948" lon="-75.8475152"><speed>1.220</speed><ele>28.2</ele><time>2026-10-04T19:39:25Z</time></trkpt>
<trkpt lat="45.3788555" lon="-75.8474550"><speed>1.310</speed><ele>28.2</ele><time>2026-10-04T19:39:30Z</time></trkpt>
<trkpt lat="45.3788161" lon="-75.8473942"><speed>1.330</speed><ele>28.3</ele><time>2026-10-04T19:39:35Z</time></trkpt>
<trkpt lat="45.3787761" lon="-75.8473330"><speed>1.340</speed><ele>28.2</ele><time>2026-10-04T19:39:40Z</time></trkpt>
<trkpt lat="45.3787364" lon="-75.8472667"><speed>1.420</speed><ele>28.1</ele><time>2026-10-04T19:39:45Z</time></trkpt>
<trkpt lat="45.3786980" lon="-75.8471931"><speed>1.460</speed><ele>28.1</ele><time>2026-10-04T19:39:50Z</time></trkpt>
<trkpt lat="45.3786592" lon="-75.8471107"><speed>1.600</speed><ele>28.3</ele><time>2026-10-04T19:39:55Z</time></trkpt>
<trkpt lat="45.3786162" lon="-75.8470240"><speed>1.770</speed><ele>28.4</ele><time>2026-10-04T19:40:00Z</time></trkpt>
<trkpt lat="45.3785632" lon="-75.8469374"><speed>1.950</speed><ele>28.4</ele><time>2026-10-04T19:40:05Z</time></trkpt>
<trkpt lat="45.3785003" lon="-75.8468595"><speed>1.690</speed><ele>28.3</ele><time>2026-10-04T19:40:10Z</time></trkpt>
<trkpt lat="45.3784380" lon="-75.8467868"><speed>1.800</speed><ele>28.3</ele><time>2026-10-04T19:40:15Z</time></trkpt>
<trkpt lat="45.3783810" lon="-75.8467043"><speed>1.820</speed><ele>28.4</ele><time>2026-10-04T19:40:20Z</time></trkpt>
<trkpt lat="45.3783236" lon="-75.8466138"><speed>1.960</speed><ele>28.4</ele><time>2026-10-04T19:40:25Z</time></trkpt>
<trkpt lat="45.3782604" lon="-75.8465282"><speed>1.960</speed><ele>28.4</ele><time>2026-10-04T19:40:30Z</time></trkpt>
<trkpt lat="45.3781957" lon="-75.8464556"><speed>1.780</speed><ele>28.4</ele><time>2026-10-04T19:40:35Z</time></trkpt>
<trkpt lat="45.3781336" lon="-75.8463907"><speed>1.650</speed><ele>28.5</ele><time>2026-10-04T19:40:40Z</time></trkpt>
<trkpt lat="45.3780785" lon="-75.8463216"><speed>1.700</speed><ele>28.4</ele><time>2026-10-04T19:40:45Z</time></trkpt>
<trkpt lat="45.3780263" lon="-75.8462423"><speed>1.690</speed><ele>28.4</ele><time>2026-10-04T19:40:50Z</time></trkpt>
<trkpt lat="45.3779717" lon="-75.8461636"><speed>1.710</speed><ele>28.6</ele><time>2026-10-04T19:40:55Z</time></trkpt>
<trkpt lat="45.3779161" lon="-75.8460934"><speed>1.660</speed><ele>28.5</ele><time>2026-10-04T19:41:00Z</time></trkpt>
<trkpt lat="45.3778641" lon="-75.8460224"><speed>1.620</speed><ele>28.6</ele><time>2026-10-04T19:41:05Z</time></trkpt>
<trkpt lat="45.3778120" lon="-75.8459485"><speed>1.700</speed><ele>28.6</ele><time>2026-10-04T19:41:10Z</time></trkpt>
<trkpt lat="45.3777593" lon="-75.8458693"><speed>1.670</speed><ele>28.5</ele><time>2026-10-04T19:41:15Z</time></trkpt>
<trkpt lat="45.3777071" lon="-75.8458003"><speed>1.730</speed><ele>28.6</ele><time>2026-10-04T19:41:20Z</time></trkpt>
<trkpt lat="45.3776519" lon="-75.8457376"><speed>1.440</speed><ele>28.6</ele><time>2026-10-04T19:41:25Z</time></trkpt>
<trkpt lat="45.3775993" lon="-75.8456962"><speed>1.180</speed><ele>28.7</ele><time>2026-10-04T19:41:30Z</time></trkpt>
<trkpt lat="45.3775620" lon="-75.8456472"><speed>1.140</speed><ele>28.9</ele><time>2026-10-04T19:41:35Z</time></trkpt>
<trkpt lat="45.3775329" lon="-75.8455862"><speed>1.180</speed><ele>28.7</ele><time>2026-10-04T19:41:40Z</time></trkpt>
<trkpt lat="45.3775023" lon="-75.8455239"><speed>1.180</speed><ele>28.6</ele><time>2026-10-04T19:41:45Z</time></trkpt>
<trkpt lat="45.3774713" lon="-75.8454623"><speed>1.220</speed><ele>28.7</ele><time>2026-10-04T19:41:50Z</time></trkpt>
<trkpt lat="45.3774325" lon="-75.8454266"><speed>0.880</speed><ele>28.7</ele><time>2026-10-04T19:41:55Z</time></trkpt>
<trkpt lat="45.3773996" lon="-75.8454437"><speed>0.680</speed><ele>28.7</ele><time>2026-10-04T19:42:00Z</time></trkpt>
<trkpt lat="45.3773879" lon="-75.8454911"><speed>0.840</speed><ele>28.8</ele><time>2026-10-04T19:42:05Z</time></trkpt>
<trkpt lat="45.3773973" lon="-75.8455503"><speed>0.930</speed><ele>28.8</ele><time>2026-10-04T19:42:10Z</time></trkpt>
<trkpt lat="45.3773983" lon="-75.8456112"><speed>0.940</speed><ele>28.8</ele><time>2026-10-04T19:42:15Z</time></trkpt>
<trkpt lat="45.3773930" lon="-75.8456833"><speed>1.360</speed><ele>28.9</ele><time>2026-10-04T19:42:20Z</time></trkpt>
<trkpt lat="45.3773783" lon="-75.8457320"><speed>0.980</speed><ele>28.8</ele><time>2026-10-04T19:42:25Z</time></trkpt>
<trkpt lat="45.3773674" lon="-75.8457894"><speed>1.000</speed><ele>28.8</ele><time>2026-10-04T19:42:30Z</time></trkpt>
<trkpt lat="45.3773725" lon="-75.8458651"><speed>1.540</speed><ele>28.8</ele><time>2026-10-04T19:42:35Z</time></trkpt>
<trkpt lat="45.3773671" lon="-75.8459334"><speed>1.150</speed><ele>28.8</ele><time>2026-10-04T19:42:40Z</time></trkpt>
<trkpt lat="45.3773547" lon="-75.8460061"><speed>1.280</speed><ele>28.9</ele><time>2026-10-04T19:42:45Z</time></trkpt>
<trkpt lat="45.3773374" lon="-75.8460861"><speed>1.240</speed><ele>28.8</ele><time>2026-10-04T19:42:50Z</time></trkpt>
<trkpt lat="45.3773147" lon="-75.8461671"><speed>1.380</speed><ele>29.0</ele><time>2026-10-04T19:42:55Z</time></trkpt>
<trkpt lat="45.3772914" lon="-75.8462513"><speed>1.470</speed><ele>29.0</ele><time>2026-10-04T19:43:00Z</time></trkpt>
<trkpt lat="45.3772644" lon="-75.8463343"><speed>1.550</speed><ele>29.0</ele><time>2026-10-04T19:43:05Z</time></trkpt>
<trkpt lat="45.3772416" lon="-75.8464394"><speed>1.750</speed><ele>28.9</ele><time>2026-10-04T19:43:10Z</time></trkpt>
<trkpt lat="45.3772108" lon="-75.8465445"><speed>1.870</speed><ele>29.0</ele><time>2026-10-04T19:43:15Z</time></trkpt>
<trkpt lat="45.3771780" lon="-75.8466475"><speed>1.770</speed><ele>29.1</ele><time>2026-10-04T19:43:20Z</time></trkpt>
<trkpt lat="45.3771451" lon="-75.8467497"><speed>1.800</speed><ele>29.1</ele><time>2026-10-04T19:43:25Z</time></trkpt>
<trkpt lat="45.3771132" lon="-75.8468511"><speed>1.770</speed><ele>29.0</ele><time>2026-10-04T19:43:30Z</time></trkpt>
<trkpt lat="45.3770780" lon="-75.8469450"><speed>1.680</speed><ele>29.1</ele><time>2026-10-04T19:43:35Z</time></trkpt>
<trkpt lat="45.3770386" lon="-75.8470328"><speed>1.640</speed><ele>29.0</ele><time>2026-10-04T19:43:40Z</time></trkpt>
<trkpt lat="45.3769947" lon="-75.8471187"><speed>1.660</speed><ele>29.2</ele><time>2026-10-04T19:43:45Z</time></trkpt>
<trkpt lat="45.3769507" lon="-75.8472075"><speed>1.720</speed><ele>29.2</ele><time>2026-10-04T19:43:50Z</time></trkpt>
<trkpt lat="45.3769062" lon="-75.8472984"><speed>1.710</speed><ele>29.2</ele><time>2026-10-04T19:43:55Z</time></trkpt>
<trkpt lat="45.3768614" lon="-75.8473862"><speed>1.680</speed><ele>29.2</ele><time>2026-10-04T19:44:00Z</time></trkpt>
<trkpt lat="45.3768197" lon="-75.8474728"><speed>1.600</speed><ele>29.1</ele><time>2026-10-04T19:44:05Z</time></trkpt>
<trkpt lat="45.3767769" lon="-75.8475525"><speed>1.560</speed><ele>29.1</ele><time>2026-10-04T19:44:10Z</time></trkpt>
<trkpt lat="45.3767326" lon="-75.8476291"><speed>1.550</speed><ele>29.1</ele><time>2026-10-04T19:44:15Z</time></trkpt>
<trkpt lat="45.3766899" lon="-75.8477126"><speed>1.680</speed><ele>29.2</ele><time>2026-10-04T19:44:20Z</time></trkpt>
<trkpt lat="45.3766509" lon="-75.8478072"><speed>1.760</speed><ele>29.2</ele><time>2026-10-04T19:44:25Z</time></trkpt>
<trkpt lat="45.3766099" lon="-75.8479038"><speed>1.780</speed><ele>29.2</ele><time>2026-10-04T19:44:30Z</time></trkpt>
<trkpt lat="45.3765680" lon="-75.8480031"><speed>1.840</speed><ele>29.2</ele><time>2026-10-04T19:44:35Z</time></trkpt>
<trkpt lat="45.3765247" lon="-75.8481005"><speed>1.770</speed><ele>29.2</ele><time>2026-10-04T19:44:40Z</time></trkpt>
<trkpt lat="45.3764831" lon="-75.8481987"><speed>1.760</speed><ele>29.1</ele><time>2026-10-04T19:44:45Z</time></trkpt>
<trkpt lat="45.3764396" lon="-75.8482926"><speed>1.750</speed><ele>29.1</ele><time>2026-10-04T19:44:50Z</time></trkpt>
<trkpt lat="45.3763943" lon="-75.8483936"><speed>1.960</speed><ele>29.1</ele><time>2026-10-04T19:44:55Z</time></trkpt>
<trkpt lat="45.3763462" lon="-75.8484973"><speed>1.920</speed><ele>29.2</ele><time>2026-10-04T19:45:00Z</time></trkpt>
<trkpt lat="45.3762992" lon="-75.8485985"><speed>1.880</speed><ele>29.2</ele><time>2026-10-04T19:45:05Z</time></trkpt>
<trkpt lat="45.3762572" lon="-75.8486972"><speed>1.740</speed><ele>29.0</ele><time>2026-10-04T19:45:10Z</time></trkpt>
<trkpt lat="45.3762202" lon="-75.8487951"><speed>1.760</speed><ele>29.0</ele><time>2026-10-04T19:45:15Z</time></trkpt>
<trkpt lat="45.3761796" lon="-75.8488822"><speed>1.580</speed><ele>29.1</ele><time>2026-10-04T19:45:20Z</time></trkpt>
<trkpt lat="45.3761319" lon="-75.8489563"><speed>1.470</speed><ele>29.1</ele><time>2026-10-04T19:45:25Z</time></trkpt>
<trkpt lat="45.3760905" lon="-75.8490323"><speed>1.540</speed><ele>29.2</ele><time>2026-10-04T19:45:30Z</time></trkpt>
<trkpt lat="45.3760529" lon="-75.8491145"><speed>1.530</speed><ele>29.1</ele><time>2026-10-04T19:45:35Z</time></trkpt>
<trkpt lat="45.3760132" lon="-75.8491953"><speed>1.570</speed><ele>29.1</ele><time>2026-10-04T19:45:40Z</time></trkpt>
<trkpt lat="45.3759633" lon="-75.8492655"><speed>1.540</speed><ele>29.2</ele><time>2026-10-04T19:45:45Z</time></trkpt>
<trkpt lat="45.3759068" lon="-75.8493283"><speed>1.610</speed><ele>29.1</ele><time>2026-10-04T19:45:50Z</time></trkpt>
<trkpt lat="45.3758504" lon="-75.8493920"><speed>1.630</speed><ele>29.1</ele><time>2026-10-04T19:45:55Z</time></trkpt>
<trkpt lat="45.3757920" lon="-75.8494514"><speed>1.570</speed><ele>29.3</ele><time>2026-10-04T19:46:00Z</time></trkpt>
<trkpt lat="45.3757355" lon="-75.8495147"><speed>1.580</speed><ele>29.3</ele><time>2026-10-04T19:46:05Z</time></trkpt>
<trkpt lat="45.3756776" lon="-75.8495761"><speed>1.620</speed><ele>29.3</ele><time>2026-10-04T19:46:10Z</time></trkpt>
<trkpt lat="45.3756195" lon="-75.8496386"><speed>1.660</speed><ele>29.3</ele><time>2026-10-04T19:46:15Z</time></trkpt>
<trkpt lat="45.3755605" lon="-75.8497037"><speed>1.670</speed><ele>29.2</ele><time>2026-10-04T19:46:20Z</time></trkpt>
<trkpt lat="45.3754998" lon="-75.8497709"><speed>1.720</speed><ele>29.2</ele><time>2026-10-04T19:46:25Z</time></trkpt>
<trkpt lat="45.3754371" lon="-75.8498372"><speed>1.750</speed><ele>29.3</ele><time>2026-10-04T19:46:30Z</time></trkpt>
<trkpt lat="45.3753724" lon="-75.8499121"><speed>1.900</speed><ele>29.5</ele><time>2026-10-04T19:46:35Z</time></trkpt>
<trkpt lat="45.3753065" lon="-75.8499933"><speed>1.930</speed><ele>29.5</ele><time>2026-10-04T19:46:40Z</time></trkpt>
<trkpt lat="45.3752387" lon="-75.8500757"><speed>2.030</speed><ele>29.5</ele><time>2026-10-04T19:46:45Z</time></trkpt>
<trkpt lat="45.3751727" lon="-75.8501644"><speed>2.030</speed><ele>29.3</ele><time>2026-10-04T19:46:50Z</time></trkpt>
<trkpt lat="45.3751072" lon="-75.8502488"><speed>1.930</speed><ele>29.4</ele><time>2026-10-04T19:46:55Z</time></trkpt>
<trkpt lat="45.3750471" lon="-75.8503355"><speed>1.910</speed><ele>29.4</ele><time>2026-10-04T19:47:00Z</time></trkpt>
<trkpt lat="45.3749862" lon="-75.8504202"><speed>1.890</speed><ele>29.4</ele><time>2026-10-04T19:47:05Z</time></trkpt>
<trkpt lat="45.3749263" lon="-75.8505063"><speed>1.900</speed><ele>29.3</ele><time>2026-10-04T19:47:10Z</time></trkpt>
<trkpt lat="45.3748669" lon="-75.8505930"><speed>1.880</speed><ele>29.3</ele><time>2026-10-04T19:47:15Z</time></trkpt>
<trkpt lat="45.3748037" lon="-75.8506716"><speed>1.870</speed><ele>29.3</ele><time>2026-10-04T19:47:20Z</time></trkpt>
<trkpt lat="45.3747425" lon="-75.8507539"><speed>1.870</speed><ele>29.3</ele><time>2026-10-04T19:47:25Z</time></trkpt>
<trkpt lat="45.3746829" lon="-75.8508377"><speed>1.870</speed><ele>29.5</ele><time>2026-10-04T19:47:30Z</time></trkpt>
<trkpt lat="45.3746244" lon="-75.8509196"><speed>1.720</speed><ele>29.4</ele><time>2026-10-04T19:47:35Z</time></trkpt>
<trkpt lat="45.3745748" lon="-75.8510005"><speed>1.610</speed><ele>29.4</ele><time>2026-10-04T19:47:40Z</time></trkpt>
<trkpt lat="45.3745322" lon="-75.8510810"><speed>1.560</speed><ele>29.4</ele><time>2026-10-04T19:47:45Z</time></trkpt>
<trkpt lat="45.3744967" lon="-75.8511766"><speed>1.790</speed><ele>29.5</ele><time>2026-10-04T19:47:50Z</time></trkpt>
<trkpt lat="45.3744502" lon="-75.8512809"><speed>1.930</speed><ele>29.6</ele><time>2026-10-04T19:47:55Z</time></trkpt>
<trkpt lat="45.3743976" lon="-75.8513801"><speed>1.900</speed><ele>29.6</ele><time>2026-10-04T19:48:00Z</time></trkpt>
<trkpt lat="45.3743475" lon="-75.8514814"><speed>1.950</speed><ele>29.7</ele><time>2026-10-04T19:48:05Z</time></trkpt>
<trkpt lat="45.3742985" lon="-75.8515842"><speed>1.930</speed><ele>29.8</ele><time>2026-10-04T19:48:10Z</time></trkpt>
<trkpt lat="45.3742526" lon="-75.8516856"><speed>1.920</speed><ele>29.5</ele><time>2026-10-04T19:48:15Z</time></trkpt>
<trkpt lat="45.3742108" lon="-75.8517977"><speed>2.070</speed><ele>29.6</ele><time>2026-10-04T19:48:20Z</time></trkpt>
<trkpt lat="45.3741612" lon="-75.8519152"><speed>2.190</speed><ele>29.6</ele><time>2026-10-04T19:48:25Z</time></trkpt>
<trkpt lat="45.3741082" lon="-75.8520353"><speed>2.200</speed><ele>29.7</ele><time>2026-10-04T19:48:30Z</time></trkpt>
<trkpt lat="45.3740576" lon="-75.8521612"><speed>2.320</speed><ele>29.8</ele><time>2026-10-04T19:48:35Z</time></trkpt>
<trkpt lat="45.3739999" lon="-75.8522895"><speed>2.420</speed><ele>29.9</ele><time>2026-10-04T19:48:40Z</time></trkpt>
<trkpt lat="45.3739264" lon="-75.8524041"><speed>2.340</speed><ele>29.7</ele><time>2026-10-04T19:48:45Z</time></trkpt>
<trkpt lat="45.3738786" lon="-75.8525244"><speed>2.090</speed><ele>29.7</ele><time>2026-10-04T19:48:50Z</time></trkpt>
<trkpt lat="45.3738209" lon="-75.8526228"><speed>1.930</speed><ele>29.8</ele><time>2026-10-04T19:48:55Z</time></trkpt>
<trkpt lat="45.3737724" lon="-75.8527237"><speed>1.900</speed><ele>29.9</ele><time>2026-10-04T19:49:00Z</time></trkpt>
<trkpt lat="45.3737251" lon="-75.8528283"><speed>1.980</speed><ele>30.0</ele><time>2026-10-04T19:49:05Z</time></trkpt>
<trkpt lat="45.3736758" lon="-75.8529291"><speed>1.860</speed><ele>30.0</ele><time>2026-10-04T19:49:10Z</time></trkpt>
<trkpt lat="45.3736304" lon="-75.8530305"><speed>1.800</speed><ele>30.0</ele><time>2026-10-04T19:49:15Z</time></trkpt>
<trkpt lat="45.3735869" lon="-75.8531379"><speed>1.950</speed><ele>29.9</ele><time>2026-10-04T19:49:20Z</time></trkpt>
<trkpt lat="45.3735368" lon="-75.8532399"><speed>1.920</speed><ele>30.0</ele><time>2026-10-04T19:49:25Z</time></trkpt>
<trkpt lat="45.3734887" lon="-75.8533427"><speed>1.890</speed><ele>30.1</ele><time>2026-10-04T19:49:30Z</time></trkpt>
<trkpt lat="45.3734444" lon="-75.8534445"><speed>1.840</speed><ele>30.1</ele><time>2026-10-04T19:49:35Z</time></trkpt>
<trkpt lat="45.3734036" lon="-75.8535474"><speed>1.890</speed><ele>30.1</ele><time>2026-10-04T19:49:40Z</time></trkpt>
<trkpt lat="45.3733591" lon="-75.8536473"><speed>1.830</speed><ele>30.0</ele><time>2026-10-04T19:49:45Z</time></trkpt>
<trkpt lat="45.3733194" lon="-75.8537453"><speed>1.730</speed><ele>30.0</ele><time>2026-10-04T19:49:50Z</time></trkpt>
<trkpt lat="45.3732828" lon="-75.8538426"><speed>1.690</speed><ele>30.1</ele><time>2026-10-04T19:49:55Z</time></trkpt>
<trkpt lat="45.3732422" lon="-75.8539325"><speed>1.610</speed><ele>30.2</ele><time>2026-10-04T19:50:00Z</time></trkpt>
<trkpt lat="45.3731914" lon="-75.8540079"><speed>1.620</speed><ele>30.1</ele><time>2026-10-04T19:50:05Z</time></trkpt>
<trkpt lat="45.3731379" lon="-75.8540768"><speed>1.590</speed><ele>30.1</ele><time>2026-10-04T19:50:10Z</time></trkpt>
<trkpt lat="45.3730844" lon="-75.8541461"><speed>1.620</speed><ele>30.0</ele><time>2026-10-04T19:50:15Z</time></trkpt>
<trkpt lat="45.3730305" lon="-75.8542172"><speed>1.620</speed><ele>30.1</ele><time>2026-10-04T19:50:20Z</time></trkpt>
<trkpt lat="45.3729767" lon="-75.8542913"><speed>1.710</speed><ele>30.1</ele><time>2026-10-04T19:50:25Z</time></trkpt>
<trkpt lat="45.3729233" lon="-75.8543722"><speed>1.730</speed><ele>29.9</ele><time>2026-10-04T19:50:30Z</time></trkpt>
<trkpt lat="45.3728650" lon="-75.8544456"><speed>1.700</speed><ele>30.0</ele><time>2026-10-04T19:50:35Z</time></trkpt>
<trkpt lat="45.3728081" lon="-75.8545149"><speed>1.620</speed><ele>30.0</ele><time>2026-10-04T19:50:40Z</time></trkpt>
<trkpt lat="45.3727560" lon="-75.8545896"><speed>1.650</speed><ele>29.9</ele><time>2026-10-04T19:50:45Z</time></trkpt>
<trkpt lat="45.3727051" lon="-75.8546685"><speed>1.680</speed><ele>30.0</ele><time>2026-10-04T19:50:50Z</time></trkpt>
<trkpt lat="45.3726547" lon="-75.8547538"><speed>1.790</speed><ele>30.2</ele><time>2026-10-04T19:50:55Z</time></trkpt>
<trkpt lat="45.3726006" lon="-75.8548438"><speed>1.890</speed><ele>30.0</ele><time>2026-10-04T19:51:00Z</time></trkpt>
<trkpt lat="45.3725434" lon="-75.8549378"><speed>1.960</speed><ele>29.9</ele><time>2026-10-04T19:51:05Z</time></trkpt>
<trkpt lat="45.3724854" lon="-75.8550349"><speed>2.010</speed><ele>30.1</ele><time>2026-10-04T19:51:10Z</time></trkpt>
<trkpt lat="45.3724293" lon="-75.8551379"><speed>2.030</speed><ele>30.0</ele><time>2026-10-04T19:51:15Z</time></trkpt>
<trkpt lat="45.3723746" lon="-75.8552435"><speed>2.050</speed><ele>30.1</ele><time>2026-10-04T19:51:20Z</time></trkpt>
<trkpt lat="45.3723186" lon="-75.8553434"><speed>1.970</speed><ele>30.2</ele><time>2026-10-04T19:51:25Z</time></trkpt>
<trkpt lat="45.3722693" lon="-75.8554497"><speed>1.990</speed><ele>30.1</ele><time>2026-10-04T19:51:30Z</time></trkpt>
<trkpt lat="45.3722196" lon="-75.8555596"><speed>2.050</speed><ele>30.1</ele><time>2026-10-04T19:51:35Z</time></trkpt>
<trkpt lat="45.3721738" lon="-75.8556702"><speed>1.960</speed><ele>30.2</ele><time>2026-10-04T19:51:40Z</time></trkpt>
<trkpt lat="45.3721179" lon="-75.8557770"><speed>2.160</speed><ele>30.3</ele><time>2026-10-04T19:51:45Z</time></trkpt>
<trkpt lat="45.3720594" lon="-75.8558840"><speed>2.020</speed><ele>30.4</ele><time>2026-10-04T19:51:50Z</time></trkpt>
<trkpt lat="45.3720137" lon="-75.8559938"><speed>2.010</speed><ele>30.5</ele><time>2026-10-04T19:51:55Z</time></trkpt>
<trkpt lat="45.3719682" lon="-75.8561069"><speed>2.080</speed><ele>30.2</ele><time>2026-10-04T19:52:00Z</time></trkpt>
<trkpt lat="45.3719178" lon="-75.8562199"><speed>2.090</speed><ele>30.2</ele><time>2026-10-04T19:52:05Z</time></trkpt>
<trkpt lat="45.3718615" lon="-75.8563282"><speed>2.110</speed><ele>30.3</ele><time>2026-10-04T19:52:10Z</time></trkpt>
<trkpt lat="45.3718020" lon="-75.8564342"><speed>2.100</speed><ele>30.3</ele><time>2026-10-04T19:52:15Z</time></trkpt>
<trkpt lat="45.3717449" lon="-75.8565411"><speed>2.130</speed><ele>30.5</ele><time>2026-10-04T19:52:20Z</time></trkpt>
<trkpt lat="45.3716787" lon="-75.8566441"><speed>2.270</speed><ele>30.4</ele><time>2026-10-04T19:52:25Z</time></trkpt>
<trkpt lat="45.3716074" lon="-75.8567593"><speed>2.370</speed><ele>30.3</ele><time>2026-10-04T19:52:30Z</time></trkpt>
<trkpt lat="45.3715325" lon="-75.8568654"><speed>2.290</speed><ele>30.4</ele><time>2026-10-04T19:52:35Z</time></trkpt>
<trkpt lat="45.3714577" lon="-75.8569590"><speed>2.120</speed><ele>30.4</ele><time>2026-10-04T19:52:40Z</time></trkpt>
<trkpt lat="45.3713863" lon="-75.8570261"><speed>1.670</speed><ele>30.4</ele><time>2026-10-04T19:52:45Z</time></trkpt>
<trkpt lat="45.3713339" lon="-75.8569912"><speed>1.250</speed><ele>30.4</ele><time>2026-10-04T19:52:50Z</time></trkpt>
<trkpt lat="45.3713275" lon="-75.8569087"><speed>1.360</speed><ele>30.3</ele><time>2026-10-04T19:52:55Z</time></trkpt>
<trkpt lat="45.3713346" lon="-75.8568179"><speed>1.500</speed><ele>30.4</ele><time>2026-10-04T19:53:00Z</time></trkpt>
<trkpt lat="45.3713269" lon="-75.8567280"><speed>1.480</speed><ele>30.3</ele><time>2026-10-04T19:53:05Z</time></trkpt>
<trkpt lat="45.3713036" lon="-75.8566383"><speed>1.600</speed><ele>30.4</ele><time>2026-10-04T19:53:10Z</time></trkpt>
<trkpt lat="45.3712668" lon="-75.8565517"><speed>1.620</speed><ele>30.4</ele><time>2026-10-04T19:53:15Z</time></trkpt>
<trkpt lat="45.3712312" lon="-75.8564617"><speed>1.670</speed><ele>30.3</ele><time>2026-10-04T19:53:20Z</time></trkpt>
<trkpt lat="45.3711950" lon="-75.8563623"><speed>1.810</speed><ele>30.3</ele><time>2026-10-04T19:53:25Z</time></trkpt>
<trkpt lat="45.3711522" lon="-75.8562600"><speed>1.890</speed><ele>30.3</ele><time>2026-10-04T19:53:30Z</time></trkpt>
<trkpt lat="45.3711132" lon="-75.8561511"><speed>1.920</speed><ele>30.4</ele><time>2026-10-04T19:53:35Z</time></trkpt>
<trkpt lat="45.3710641" lon="-75.8560529"><speed>1.840</speed><ele>30.1</ele><time>2026-10-04T19:53:40Z</time></trkpt>
<trkpt lat="45.3710193" lon="-75.8559553"><speed>1.790</speed><ele>30.1</ele><time>2026-10-04T19:53:45Z</time></trkpt>
<trkpt lat="45.3709808" lon="-75.8558577"><speed>1.770</speed><ele>30.3</ele><time>2026-10-04T19:53:50Z</time></trkpt>
<trkpt lat="45.3709384" lon="-75.8557661"><speed>1.660</speed><ele>30.3</ele><time>2026-10-04T19:53:55Z</time></trkpt>
<trkpt lat="45.3708944" lon="-75.8556838"><speed>1.560</speed><ele>30.3</ele><time>2026-10-04T19:54:00Z</time></trkpt>
<trkpt lat="45.3708563" lon="-75.8556080"><speed>1.380</speed><ele>30.3</ele><time>2026-10-04T19:54:05Z</time></trkpt>
<trkpt lat="45.3708290" lon="-75.8555315"><speed>1.310</speed><ele>30.1</ele><time>2026-10-04T19:54:10Z</time></trkpt>
<trkpt lat="45.3708072" lon="-75.8554516"><speed>1.350</speed><ele>30.0</ele><time>2026-10-04T19:54:15Z</time></trkpt>
<trkpt lat="45.3707898" lon="-75.8553637"><speed>1.490</speed><ele>30.4</ele><time>2026-10-04T19:54:20Z</time></trkpt>
<trkpt lat="45.3707683" lon="-75.8552661"><speed>1.670</speed><ele>30.1</ele><time>2026-10-04T19:54:25Z</time></trkpt>
<trkpt lat="45.3707391" lon="-75.8551651"><speed>1.760</speed><ele>30.2</ele><time>2026-10-04T19:54:30Z</time></trkpt>
<trkpt lat="45.3707063" lon="-75.8550675"><speed>1.690</speed><ele>30.3</ele><time>2026-10-04T19:54:35Z</time></trkpt>
<trkpt lat="45.3706770" lon="-75.8549697"><speed>1.690</speed><ele>30.1</ele><time>2026-10-04T19:54:40Z</time></trkpt>
<trkpt lat="45.3706514" lon="-75.8548654"><speed>1.740</speed><ele>30.1</ele><time>2026-10-04T19:54:45Z</time></trkpt>
<trkpt lat="45.3706252" lon="-75.8547561"><speed>1.870</speed><ele>30.4</ele><time>2026-10-04T19:54:50Z</time></trkpt>
<trkpt lat="45.3705944" lon="-75.8546462"><speed>1.870</speed><ele>30.1</ele><time>2026-10-04T19:54:55Z</time></trkpt>
<trkpt lat="45.3705623" lon="-75.8545363"><speed>1.840</speed><ele>30.2</ele><time>2026-10-04T19:55:00Z</time></trkpt>
<trkpt lat="45.3705266" lon="-75.8544311"><speed>1.860</speed><ele>30.1</ele><time>2026-10-04T19:55:05Z</time></trkpt>
<trkpt lat="45.3704920" lon="-75.8543252"><speed>1.830</speed><ele>30.1</ele><time>2026-10-04T19:55:10Z</time></trkpt>
<trkpt lat="45.3704557" lon="-75.8542186"><speed>1.900</speed><ele>30.1</ele><time>2026-10-04T19:55:15Z</time></trkpt>
<trkpt lat="45.3704165" lon="-75.8541069"><speed>2.010</speed><ele>30.1</ele><time>2026-10-04T19:55:20Z</time></trkpt>
<trkpt lat="45.3703680" lon="-75.8539946"><speed>2.010</speed><ele>30.1</ele><time>2026-10-04T19:55:25Z</time></trkpt>
<trkpt lat="45.3703194" lon="-75.8538840"><speed>2.020</speed><ele>30.0</ele><time>2026-10-04T19:55:30Z</time></trkpt>
<trkpt lat="45.3702709" lon="-75.8537772"><speed>1.810</speed><ele>30.1</ele><time>2026-10-04T19:55:35Z</time></trkpt>
<trkpt lat="45.3702204" lon="-75.8536827"><speed>1.840</speed><ele>30.0</ele><time>2026-10-04T19:55:40Z</time></trkpt>
<trkpt lat="45.3701671" lon="-75.8535938"><speed>1.720</speed><ele>30.1</ele><time>2026-10-04T19:55:45Z</time></trkpt>
<trkpt lat="45.3701132" lon="-75.8535124"><speed>1.570</speed><ele>30.2</ele><time>2026-10-04T19:55:50Z</time></trkpt>
<trkpt lat="45.3700627" lon="-75.8534419"><speed>1.570</speed><ele>30.1</ele><time>2026-10-04T19:55:55Z</time></trkpt>
<trkpt lat="45.3700106" lon="-75.8533755"><speed>1.510</speed><ele>30.0</ele><time>2026-10-04T19:56:00Z</time></trkpt>
<trkpt lat="45.3699532" lon="-75.8533596"><speed>1.340</speed><ele>30.2</ele><time>2026-10-04T19:56:05Z</time></trkpt>
<trkpt lat="45.3699039" lon="-75.8533734"><speed>0.980</speed><ele>30.2</ele><time>2026-10-04T19:56:10Z</time></trkpt>
<trkpt lat="45.3698685" lon="-75.8533947"><speed>0.790</speed><ele>30.2</ele><time>2026-10-04T19:56:15Z</time></trkpt>
<trkpt lat="45.3698503" lon="-75.8534372"><speed>0.810</speed><ele>30.2</ele><time>2026-10-04T19:56:20Z</time></trkpt>
<trkpt lat="45.3698253" lon="-75.8534706"><speed>0.770</speed><ele>30.2</ele><time>2026-10-04T19:56:25Z</time></trkpt>
<trkpt lat="45.3697959" lon="-75.8534838"><speed>0.610</speed><ele>30.2</ele><time>2026-10-04T19:56:30Z</time></trkpt>
<trkpt lat="45.3697915" lon="-75.8534983"><speed>0.350</speed><ele>30.2</ele><time>2026-10-04T19:56:35Z</time></trkpt>
<trkpt lat="45.3697732" lon="-75.8534477"><speed>0.470</speed><ele>30.0</ele><time>2026-10-04T19:56:40Z</time></trkpt>
<trkpt lat="45.3697684" lon="-75.8534017"><speed>0.760</speed><ele>30.0</ele><time>2026-10-04T19:56:45Z</time></trkpt>
<trkpt lat="45.3697762" lon="-75.8533486"><speed>1.060</speed><ele>30.1</ele><time>2026-10-04T19:56:50Z</time></trkpt>
<trkpt lat="45.3697938" lon="-75.8532724"><speed>1.400</speed><ele>30.1</ele><time>2026-10-04T19:56:55Z</time></trkpt>
<trkpt lat="45.3698229" lon="-75.8531810"><speed>1.730</speed><ele>30.2</ele><time>2026-10-04T19:57:00Z</time></trkpt>
<trkpt lat="45.3698655" lon="-75.8530998"><speed>1.700</speed><ele>30.1</ele><time>2026-10-04T19:57:05Z</time></trkpt>
<trkpt lat="45.3699231" lon="-75.8530242"><speed>1.870</speed><ele>30.1</ele><time>2026-10-04T19:57:10Z</time></trkpt>
<trkpt lat="45.3699859" lon="-75.8529471"><speed>1.890</speed><ele>30.0</ele><time>2026-10-04T19:57:15Z</time></trkpt>
<trkpt lat="45.3700520" lon="-75.8528702"><speed>1.910</speed><ele>29.8</ele><time>2026-10-04T19:57:20Z</time></trkpt>
<trkpt lat="45.3701191" lon="-75.8528054"><speed>1.800</speed><ele>29.9</ele><time>2026-10-04T19:57:25Z</time></trkpt>
<trkpt lat="45.3701826" lon="-75.8527396"><speed>1.730</speed><ele>29.9</ele><time>2026-10-04T19:57:30Z</time></trkpt>
<trkpt lat="45.3702434" lon="-75.8526656"><speed>1.750</speed><ele>30.0</ele><time>2026-10-04T19:57:35Z</time></trkpt>
<trkpt lat="45.3703079" lon="-75.8526026"><speed>1.700</speed><ele>30.1</ele><time>2026-10-04T19:57:40Z</time></trkpt>
<trkpt lat="45.3703740" lon="-75.8525444"><speed>1.760</speed><ele>30.0</ele><time>2026-10-04T19:57:45Z</time></trkpt>
<trkpt lat="45.3704413" lon="-75.8524814"><speed>1.830</speed><ele>30.0</ele><time>2026-10-04T19:57:50Z</time></trkpt>
<trkpt lat="45.3705080" lon="-75.8524189"><speed>1.760</speed><ele>30.0</ele><time>2026-10-04T19:57:55Z</time></trkpt>
<trkpt lat="45.3705738" lon="-75.8523553"><speed>1.770</speed><ele>30.0</ele><time>2026-10-04T19:58:00Z</time></trkpt>
<trkpt lat="45.3706424" lon="-75.8523033"><speed>1.700</speed><ele>30.0</ele><time>2026-10-04T19:58:05Z</time></trkpt>
<trkpt lat="45.3707076" lon="-75.8522479"><speed>1.720</speed><ele>30.1</ele><time>2026-10-04T19:58:10Z</time></trkpt>
<trkpt lat="45.3707599" lon="-75.8521681"><speed>1.700</speed><ele>30.0</ele><time>2026-10-04T19:58:15Z</time></trkpt>
<trkpt lat="45.3708211" lon="-75.8520973"><speed>1.730</speed><ele>30.0</ele><time>2026-10-04T19:58:20Z</time></trkpt>
<trkpt lat="45.3708863" lon="-75.8520347"><speed>1.720</speed><ele>30.1</ele><time>2026-10-04T19:58:25Z</time></trkpt>
<trkpt lat="45.3709523" lon="-75.8519792"><speed>1.730</speed><ele>30.1</ele><time>2026-10-04T19:58:30Z</time></trkpt>
<trkpt lat="45.3710161" lon="-75.8519237"><speed>1.670</speed><ele>30.0</ele><time>2026-10-04T19:58:35Z</time></trkpt>
<trkpt lat="45.3710812" lon="-75.8518730"><speed>1.580</speed><ele>30.1</ele><time>2026-10-04T19:58:40Z</time></trkpt>
<trkpt lat="45.3711449" lon="-75.8518243"><speed>1.540</speed><ele>30.1</ele><time>2026-10-04T19:58:45Z</time></trkpt>
<trkpt lat="45.3712049" lon="-75.8517806"><speed>1.470</speed><ele>30.2</ele><time>2026-10-04T19:58:50Z</time></trkpt>
<trkpt lat="45.3712585" lon="-75.8517351"><speed>1.380</speed><ele>30.2</ele><time>2026-10-04T19:58:55Z</time></trkpt>
<trkpt lat="45.3713088" lon="-75.8516816"><speed>1.440</speed><ele>30.3</ele><time>2026-10-04T19:59:00Z</time></trkpt>
<trkpt lat="45.3713608" lon="-75.8516262"><speed>1.490</speed><ele>30.3</ele><time>2026-10-04T19:59:05Z</time></trkpt>
<trkpt lat="45.3714168" lon="-75.8515718"><speed>1.590</speed><ele>30.3</ele><time>2026-10-04T19:59:10Z</time></trkpt>
<trkpt lat="45.3714742" lon="-75.8515138"><speed>1.560</speed><ele>30.2</ele><time>2026-10-04T19:59:15Z</time></trkpt>
<trkpt lat="45.3715316" lon="-75.8514564"><speed>1.570</speed><ele>30.4</ele><time>2026-10-04T19:59:20Z</time></trkpt>
<trkpt lat="45.3715876" lon="-75.8513999"><speed>1.490</speed><ele>30.3</ele><time>2026-10-04T19:59:25Z</time></trkpt>
<trkpt lat="45.3716422" lon="-75.8513449"><speed>1.490</speed><ele>30.3</ele><time>2026-10-04T19:59:30Z</time></trkpt>
<trkpt lat="45.3717008" lon="-75.8512828"><speed>1.580</speed><ele>30.4</ele><time>2026-10-04T19:59:35Z</time></trkpt>
<trkpt lat="45.3717590" lon="-75.8512133"><speed>1.670</speed><ele>30.4</ele><time>2026-10-04T19:59:40Z</time></trkpt>
<trkpt lat="45.3718199" lon="-75.8511474"><speed>1.690</speed><ele>30.4</ele><time>2026-10-04T19:59:45Z</time></trkpt>
<trkpt lat="45.3718786" lon="-75.8510871"><speed>1.630</speed><ele>30.4</ele><time>2026-10-04T19:59:50Z</time></trkpt>
<trkpt lat="45.3719377" lon="-75.8510274"><speed>1.630</speed><ele>30.4</ele><time>2026-10-04T19:59:55Z</time></trkpt>
<trkpt lat="45.3719994" lon="-75.8509706"><speed>1.640</speed><ele>30.3</ele><time>2026-10-04T20:00:00Z</time></trkpt>
<trkpt lat="45.3720604" lon="-75.8509126"><speed>1.610</speed><ele>30.3</ele><time>2026-10-04T20:00:05Z</time></trkpt>
<trkpt lat="45.3721220" lon="-75.8508597"><speed>1.570</speed><ele>30.2</ele><time>2026-10-04T20:00:10Z</time></trkpt>
<trkpt lat="45.3721839" lon="-75.8508105"><speed>1.610</speed><ele>30.1</ele><time>2026-10-04T20:00:15Z</time></trkpt>
<trkpt lat="45.3722452" lon="-75.8507588"><speed>1.550</speed><ele>30.2</ele><time>2026-10-04T20:00:20Z</time></trkpt>
<trkpt lat="45.3723075" lon="-75.8507117"><speed>1.520</speed><ele>30.2</ele><time>2026-10-04T20:00:25Z</time></trkpt>
<trkpt lat="45.3723703" lon="-75.8506665"><speed>1.510</speed><ele>30.3</ele><time>2026-10-04T20:00:30Z</time></trkpt>
<trkpt lat="45.3724312" lon="-75.8506246"><speed>1.500</speed><ele>30.3</ele><time>2026-10-04T20:00:35Z</time></trkpt>
<trkpt lat="45.3724900" lon="-75.8505817"><speed>1.520</speed><ele>30.2</ele><time>2026-10-04T20:00:40Z</time></trkpt>
<trkpt lat="45.3725478" lon="-75.8505316"><speed>1.580</speed><ele>30.2</ele><time>2026-10-04T20:00:45Z</time></trkpt>
<trkpt lat="45.3726065" lon="-75.8504777"><speed>1.590</speed><ele>30.3</ele><time>2026-10-04T20:00:50Z</time></trkpt>
<trkpt lat="45.3726675" lon="-75.8504258"><speed>1.610</speed><ele>30.1</ele><time>2026-10-04T20:00:55Z</time></trkpt>
<trkpt lat="45.3727292" lon="-75.8503718"><speed>1.690</speed><ele>30.3</ele><time>2026-10-04T20:01:00Z</time></trkpt>
<trkpt lat="45.3727979" lon="-75.8503141"><speed>1.840</speed><ele>30.1</ele><time>2026-10-04T20:01:05Z</time></trkpt>
<trkpt lat="45.3728716" lon="-75.8502569"><speed>1.870</speed><ele>30.1</ele><time>2026-10-04T20:01:10Z</time></trkpt>
<trkpt lat="45.3729443" lon="-75.8501981"><speed>1.820</speed><ele>29.6</ele><time>2026-10-04T20:01:15Z</time></trkpt>
<trkpt lat="45.3730163" lon="-75.8501407"><speed>1.780</speed><ele>29.8</ele><time>2026-10-04T20:01:20Z</time></trkpt>
<trkpt lat="45.3730876" lon="-75.8500812"><speed>1.860</speed><ele>29.8</ele><time>2026-10-04T20:01:25Z</time></trkpt>
<trkpt lat="45.3731617" lon="-75.8500184"><speed>1.960</speed><ele>30.3</ele><time>2026-10-04T20:01:30Z</time></trkpt>
<trkpt lat="45.3732358" lon="-75.8499530"><speed>1.900</speed><ele>29.7</ele><time>2026-10-04T20:01:35Z</time></trkpt>
<trkpt lat="45.3733129" lon="-75.8498985"><speed>1.870</speed><ele>29.7</ele><time>2026-10-04T20:01:40Z</time></trkpt>
<trkpt lat="45.3733877" lon="-75.8498457"><speed>1.840</speed><ele>29.4</ele><time>2026-10-04T20:01:45Z</time></trkpt>
<trkpt lat="45.3734580" lon="-75.8497872"><speed>1.790</speed><ele>29.7</ele><time>2026-10-04T20:01:50Z</time></trkpt>
<trkpt lat="45.3735299" lon="-75.8497429"><speed>1.730</speed><ele>29.7</ele><time>2026-10-04T20:01:55Z</time></trkpt>
<trkpt lat="45.3736026" lon="-75.8497178"><speed>1.590</speed><ele>29.7</ele><time>2026-10-04T20:02:00Z</time></trkpt>
<trkpt lat="45.3736674" lon="-75.8496777"><speed>1.520</speed><ele>29.7</ele><time>2026-10-04T20:02:05Z</time></trkpt>
<trkpt lat="45.3737289" lon="-75.8496381"><speed>1.460</speed><ele>29.7</ele><time>2026-10-04T20:02:10Z</time></trkpt>
<trkpt lat="45.3737912" lon="-75.8496039"><speed>1.490</speed><ele>29.4</ele><time>2026-10-04T20:02:15Z</time></trkpt>
<trkpt lat="45.3738515" lon="-75.8495559"><speed>1.520</speed><ele>29.6</ele><time>2026-10-04T20:02:20Z</time></trkpt>
<trkpt lat="45.3739110" lon="-75.8495077"><speed>1.480</speed><ele>29.7</ele><time>2026-10-04T20:02:25Z</time></trkpt>
<trkpt lat="45.3739746" lon="-75.8494697"><speed>1.550</speed><ele>29.5</ele><time>2026-10-04T20:02:30Z</time></trkpt>
<trkpt lat="45.3740363" lon="-75.8494214"><speed>1.600</speed><ele>29.6</ele><time>2026-10-04T20:02:35Z</time></trkpt>
<trkpt lat="45.3740925" lon="-75.8493535"><speed>1.580</speed><ele>29.1</ele><time>2026-10-04T20:02:40Z</time></trkpt>
<trkpt lat="45.3741523" lon="-75.8492974"><speed>1.570</speed><ele>29.4</ele><time>2026-10-04T20:02:45Z</time></trkpt>
<trkpt lat="45.3742141" lon="-75.8492488"><speed>1.520</speed><ele>29.5</ele><time>2026-10-04T20:02:50Z</time></trkpt>
<trkpt lat="45.3742743" lon="-75.8491995"><speed>1.460</speed><ele>29.4</ele><time>2026-10-04T20:02:55Z</time></trkpt>
<trkpt lat="45.3743333" lon="-75.8491514"><speed>1.530</speed><ele>29.2</ele><time>2026-10-04T20:03:00Z</time></trkpt>
<trkpt lat="45.3743892" lon="-75.8490984"><speed>1.500</speed><ele>29.5</ele><time>2026-10-04T20:03:05Z</time></trkpt>
<trkpt lat="45.3744480" lon="-75.8490430"><speed>1.670</speed><ele>29.3</ele><time>2026-10-04T20:03:10Z</time></trkpt>
<trkpt lat="45.3745092" lon="-75.8489738"><speed>1.730</speed><ele>29.5</ele><time>2026-10-04T20:03:15Z</time></trkpt>
<trkpt lat="45.3745739" lon="-75.8489010"><speed>1.840</speed><ele>29.4</ele><time>2026-10-04T20:03:20Z</time></trkpt>
<trkpt lat="45.3746396" lon="-75.8488275"><speed>1.880</speed><ele>29.3</ele><time>2026-10-04T20:03:25Z</time></trkpt>
<trkpt lat="45.3747076" lon="-75.8487585"><speed>1.880</speed><ele>29.3</ele><time>2026-10-04T20:03:30Z</time></trkpt>
<trkpt lat="45.3747735" lon="-75.8486887"><speed>1.830</speed><ele>29.3</ele><time>2026-10-04T20:03:35Z</time></trkpt>
<trkpt lat="45.3748383" lon="-75.8486265"><speed>1.720</speed><ele>29.3</ele><time>2026-10-04T20:03:40Z</time></trkpt>
<trkpt lat="45.3749064" lon="-75.8485685"><speed>1.467</speed><ele>29.3</ele><time>2026-10-04T20:03:45Z</time></trkpt>
<trkpt lat="45.3749684" lon="-75.8485151"><speed>1.402</speed><ele>28.7</ele><time>2026-10-04T20:03:50Z</time></trkpt>
<trkpt lat="45.3750243" lon="-75.8484631"><speed>1.300</speed><ele>28.7</ele><time>2026-10-04T20:03:55Z</time></trkpt>
<trkpt lat="45.3750758" lon="-75.8484127"><speed>1.221</speed><ele>28.5</ele><time>2026-10-04T20:04:00Z</time></trkpt>
<trkpt lat="45.3751314" lon="-75.8483918"><speed>1.130</speed><ele>29.3</ele><time>2026-10-04T20:04:05Z</time></trkpt>
<trkpt lat="45.3751876" lon="-75.8483860"><speed>1.086</speed><ele>29.3</ele><time>2026-10-04T20:04:10Z</time></trkpt>
<trkpt lat="45.3752423" lon="-75.8483845"><speed>1.077</speed><ele>28.8</ele><time>2026-10-04T20:04:15Z</time></trkpt>
<trkpt lat="45.3752990" lon="-75.8483847"><speed>1.177</speed><ele>28.6</ele><time>2026-10-04T20:04:20Z</time></trkpt>
<trkpt lat="45.3753594" lon="-75.8483827"><speed>1.245</speed><ele>28.5</ele><time>2026-10-04T20:04:25Z</time></trkpt>
<trkpt lat="45.3754215" lon="-75.8483781"><speed>1.330</speed><ele>28.4</ele><time>2026-10-04T20:04:30Z</time></trkpt>
<trkpt lat="45.3754857" lon="-75.8483717"><speed>1.370</speed><ele>28.7</ele><time>2026-10-04T20:04:35Z</time></trkpt>
<trkpt lat="45.3755545" lon="-75.8483689"><speed>1.340</speed><ele>29.1</ele><time>2026-10-04T20:04:40Z</time></trkpt>
<trkpt lat="45.3756148" lon="-75.8483583"><speed>1.290</speed><ele>28.5</ele><time>2026-10-04T20:04:45Z</time></trkpt>
<trkpt lat="45.3756772" lon="-75.8483551"><speed>1.270</speed><ele>28.2</ele><time>2026-10-04T20:04:50Z</time></trkpt>
<trkpt lat="45.3757311" lon="-75.8483536"><speed>0.670</speed><ele>28.5</ele><time>2026-10-04T20:04:55Z</time></trkpt>
<trkpt lat="45.3757848" lon="-75.8483527"><speed>1.260</speed><ele>28.4</ele><time>2026-10-04T20:05:00Z</time></trkpt>
<trkpt lat="45.3758405" lon="-75.8483400"><speed>1.260</speed><ele>28.6</ele><time>2026-10-04T20:05:05Z</time></trkpt>
<trkpt lat="45.3758969" lon="-75.8483257"><speed>1.280</speed><ele>28.8</ele><time>2026-10-04T20:05:10Z</time></trkpt>
<trkpt lat="45.3759549" lon="-75.8483104"><speed>1.330</speed><ele>28.5</ele><time>2026-10-04T20:05:15Z</time></trkpt>
<trkpt lat="45.3760130" lon="-75.8482944"><speed>1.280</speed><ele>28.3</ele><time>2026-10-04T20:05:20Z</time></trkpt>
<trkpt lat="45.3760701" lon="-75.8482728"><speed>1.270</speed><ele>28.3</ele><time>2026-10-04T20:05:25Z</time></trkpt>
<trkpt lat="45.3761236" lon="-75.8482508"><speed>1.130</speed><ele>28.4</ele><time>2026-10-04T20:05:30Z</time></trkpt>
<trkpt lat="45.3761728" lon="-75.8482546"><speed>1.090</speed><ele>28.5</ele><time>2026-10-04T20:05:35Z</time></trkpt>
<trkpt lat="45.3762198" lon="-75.8482534"><speed>1.040</speed><ele>28.7</ele><time>2026-10-04T20:05:40Z</time></trkpt>
<trkpt lat="45.3762660" lon="-75.8482455"><speed>1.080</speed><ele>28.5</ele><time>2026-10-04T20:05:45Z</time></trkpt>
<trkpt lat="45.3763137" lon="-75.8482332"><speed>1.130</speed><ele>28.3</ele><time>2026-10-04T20:05:50Z</time></trkpt>
<trkpt lat="45.3763642" lon="-75.8482223"><speed>1.200</speed><ele>28.3</ele><time>2026-10-04T20:05:55Z</time></trkpt>
<trkpt lat="45.3764177" lon="-75.8482171"><speed>1.160</speed><ele>28.5</ele><time>2026-10-04T20:06:00Z</time></trkpt>
<trkpt lat="45.3764629" lon="-75.8481930"><speed>1.150</speed><ele>28.4</ele><time>2026-10-04T20:06:05Z</time></trkpt>
<trkpt lat="45.3765030" lon="-75.8481403"><speed>1.390</speed><ele>28.8</ele><time>2026-10-04T20:06:10Z</time></trkpt>
<trkpt lat="45.3765553" lon="-75.8480796"><speed>1.490</speed><ele>28.2</ele><time>2026-10-04T20:06:15Z</time></trkpt>
<trkpt lat="45.3766089" lon="-75.8480251"><speed>1.520</speed><ele>28.2</ele><time>2026-10-04T20:06:20Z</time></trkpt>
<trkpt lat="45.3766657" lon="-75.8479782"><speed>1.460</speed><ele>28.4</ele><time>2026-10-04T20:06:25Z</time></trkpt>
<trkpt lat="45.3767249" lon="-75.8479423"><speed>1.400</speed><ele>28.2</ele><time>2026-10-04T20:06:30Z</time></trkpt>
<trkpt lat="45.3767837" lon="-75.8479091"><speed>1.370</speed><ele>28.1</ele><time>2026-10-04T20:06:35Z</time></trkpt>
<trkpt lat="45.3768423" lon="-75.8478755"><speed>1.370</speed><ele>28.4</ele><time>2026-10-04T20:06:40Z</time></trkpt>
<trkpt lat="45.3769014" lon="-75.8478437"><speed>1.390</speed><ele>28.3</ele><time>2026-10-04T20:06:45Z</time></trkpt>
<trkpt lat="45.3769602" lon="-75.8478069"><speed>1.480</speed><ele>28.2</ele><time>2026-10-04T20:06:50Z</time></trkpt>
<trkpt lat="45.3770164" lon="-75.8477618"><speed>1.450</speed><ele>28.1</ele><time>2026-10-04T20:06:55Z</time></trkpt>
<trkpt lat="45.3770712" lon="-75.8477148"><speed>1.440</speed><ele>28.1</ele><time>2026-10-04T20:07:00Z</time></trkpt>
<trkpt lat="45.3771235" lon="-75.8476657"><speed>1.370</speed><ele>28.0</ele><time>2026-10-04T20:07:05Z</time></trkpt>
<trkpt lat="45.3771768" lon="-75.8476197"><speed>1.360</speed><ele>28.2</ele><time>2026-10-04T20:07:10Z</time></trkpt>
<trkpt lat="45.3772318" lon="-75.8475865"><speed>1.290</speed><ele>28.0</ele><time>2026-10-04T20:07:15Z</time></trkpt>
<trkpt lat="45.3772834" lon="-75.8475615"><speed>1.110</speed><ele>28.2</ele><time>2026-10-04T20:07:20Z</time></trkpt>
<trkpt lat="45.3773322" lon="-75.8475602"><speed>1.040</speed><ele>28.2</ele><time>2026-10-04T20:07:25Z</time></trkpt>
<trkpt lat="45.3773804" lon="-75.8475542"><speed>1.020</speed><ele>28.2</ele><time>2026-10-04T20:07:30Z</time></trkpt>
<trkpt lat="45.3774275" lon="-75.8475337"><speed>1.080</speed><ele>28.1</ele><time>2026-10-04T20:07:35Z</time></trkpt>
<trkpt lat="45.3774763" lon="-75.8475180"><speed>1.080</speed><ele>28.0</ele><time>2026-10-04T20:07:40Z</time></trkpt>
<trkpt lat="45.3775248" lon="-75.8475005"><speed>1.060</speed><ele>28.0</ele><time>2026-10-04T20:07:45Z</time></trkpt>
<trkpt lat="45.3775734" lon="-75.8474762"><speed>1.150</speed><ele>27.9</ele><time>2026-10-04T20:07:50Z</time></trkpt>
<trkpt lat="45.3776256" lon="-75.8474496"><speed>1.070</speed><ele>28.1</ele><time>2026-10-04T20:07:55Z</time></trkpt>
<trkpt lat="45.3776756" lon="-75.8474420"><speed>1.160</speed><ele>28.0</ele><time>2026-10-04T20:08:00Z</time></trkpt>
<trkpt lat="45.3777242" lon="-75.8474327"><speed>1.140</speed><ele>28.0</ele><time>2026-10-04T20:08:05Z</time></trkpt>
<trkpt lat="45.3777740" lon="-75.8474129"><speed>1.170</speed><ele>28.0</ele><time>2026-10-04T20:08:10Z</time></trkpt>
<trkpt lat="45.3778241" lon="-75.8473920"><speed>1.140</speed><ele>28.1</ele><time>2026-10-04T20:08:15Z</time></trkpt>
<trkpt lat="45.3778731" lon="-75.8473705"><speed>1.120</speed><ele>28.0</ele><time>2026-10-04T20:08:20Z</time></trkpt>
<trkpt lat="45.3779207" lon="-75.8473441"><speed>1.170</speed><ele>27.9</ele><time>2026-10-04T20:08:25Z</time></trkpt>
<trkpt lat="45.3779691" lon="-75.8473188"><speed>1.160</speed><ele>28.0</ele><time>2026-10-04T20:08:30Z</time></trkpt>
<trkpt lat="45.3780180" lon="-75.8473044"><speed>1.120</speed><ele>27.9</ele><time>2026-10-04T20:08:35Z</time></trkpt>
<trkpt lat="45.3780609" lon="-75.8472794"><speed>0.900</speed><ele>27.8</ele><time>2026-10-04T20:08:40Z</time></trkpt>
<trkpt lat="45.3781083" lon="-75.8472534"><speed>1.160</speed><ele>28.2</ele><time>2026-10-04T20:08:45Z</time></trkpt>
<trkpt lat="45.3781592" lon="-75.8472241"><speed>1.210</speed><ele>28.1</ele><time>2026-10-04T20:08:50Z</time></trkpt>
<trkpt lat="45.3782103" lon="-75.8472000"><speed>1.140</speed><ele>28.1</ele><time>2026-10-04T20:08:55Z</time></trkpt>
<trkpt lat="45.3782613" lon="-75.8471813"><speed>1.110</speed><ele>28.0</ele><time>2026-10-04T20:09:00Z</time></trkpt>
<trkpt lat="45.3783007" lon="-75.8471451"><speed>1.030</speed><ele>28.0</ele><time>2026-10-04T20:09:05Z</time></trkpt>
<trkpt lat="45.3783226" lon="-75.8470827"><speed>1.090</speed><ele>27.9</ele><time>2026-10-04T20:09:10Z</time></trkpt>
<trkpt lat="45.3783290" lon="-75.8470098"><speed>1.170</speed><ele>28.2</ele><time>2026-10-04T20:09:15Z</time></trkpt>
<trkpt lat="45.3783065" lon="-75.8469390"><speed>1.340</speed><ele>28.2</ele><time>2026-10-04T20:09:20Z</time></trkpt>
<trkpt lat="45.3782746" lon="-75.8468563"><speed>1.530</speed><ele>28.2</ele><time>2026-10-04T20:09:25Z</time></trkpt>
<trkpt lat="45.3782325" lon="-75.8467921"><speed>1.260</speed><ele>28.4</ele><time>2026-10-04T20:09:30Z</time></trkpt>
<trkpt lat="45.3781957" lon="-75.8467378"><speed>1.130</speed><ele>28.3</ele><time>2026-10-04T20:09:35Z</time></trkpt>
<trkpt lat="45.3781620" lon="-75.8466842"><speed>1.170</speed><ele>28.4</ele><time>2026-10-04T20:09:40Z</time></trkpt>
<trkpt lat="45.3781331" lon="-75.8466157"><speed>1.320</speed><ele>28.4</ele><time>2026-10-04T20:09:45Z</time></trkpt>
<trkpt lat="45.3780976" lon="-75.8465378"><speed>1.590</speed><ele>28.2</ele><time>2026-10-04T20:09:50Z</time></trkpt>
<trkpt lat="45.3780545" lon="-75.8464516"><speed>1.630</speed><ele>28.4</ele><time>2026-10-04T20:09:55Z</time></trkpt>
<trkpt lat="45.3780048" lon="-75.8463833"><speed>1.460</speed><ele>28.4</ele><time>2026-10-04T20:10:00Z</time></trkpt>
<trkpt lat="45.3779609" lon="-75.8463204"><speed>1.340</speed><ele>28.2</ele><time>2026-10-04T20:10:05Z</time></trkpt>
<trkpt lat="45.3779281" lon="-75.8462447"><speed>1.440</speed><ele>28.5</ele><time>2026-10-04T20:10:10Z</time></trkpt>
<trkpt lat="45.3778998" lon="-75.8461566"><speed>1.470</speed><ele>28.4</ele><time>2026-10-04T20:10:15Z</time></trkpt>
</trkseg></trk></gpx>