<?xml version="1.0" encoding="UTF-8" standalone="no" ?>
<gpx xmlns="http://www.topografix.com/GPX/1/1" creator="SailFreeGPS" xmlns:xsi="http://www.w3.org/2001/XMLSchema-instance"  xsi:schemaLocation="http://www.topografix.com/GPX/1/1 http://www.topografix.com/GPX/1/1/gpx.xsd">
<trk>
<metadata><name>SailFreeGps_2026-08-07_09-36-51.gpx</name></metadata>
<trkseg>
<trkpt lat="48.9154184" lon="-123.2603786"><speed>8.055</speed><ele>-11.4</ele><time>2026-08-07T15:35:44Z</time></trkpt>
<trkpt lat="48.9143673" lon="-123.2623020"><speed>9.696</speed><ele>-15.3</ele><time>2026-08-07T15:36:01Z</time></trkpt>
<trkpt lat="48.9141753" lon="-123.2628023"><speed>10.819</speed><ele>-18.7</ele><time>2026-08-07T15:36:06Z</time></trkpt>
<trkpt lat="48.9138600" lon="-123.2634032"><speed>10.814</speed><ele>-13.5</ele><time>2026-08-07T15:36:11Z</time></trkpt>
<trkpt lat="48.9136310" lon="-123.2638328"><speed>8.908</speed><ele>-12.1</ele><time>2026-08-07T15:36:16Z</time></trkpt>
<trkpt lat="48.9134039" lon="-123.2643644"><speed>8.849</speed><ele>-5.2</ele><time>2026-08-07T15:36:21Z</time></trkpt>
<trkpt lat="48.9131993" lon="-123.2648265"><speed>8.648</speed><ele>-9.5</ele><time>2026-08-07T15:36:26Z</time></trkpt>
<trkpt lat="48.9129389" lon="-123.2652636"><speed>8.727</speed><ele>-11.4</ele><time>2026-08-07T15:36:31Z</time></trkpt>
<trkpt lat="48.9127155" lon="-123.2657523"><speed>8.677</speed><ele>-14.0</ele><time>2026-08-07T15:36:36Z</time></trkpt>
<trkpt lat="48.9124750" lon="-123.2662372"><speed>8.607</speed><ele>-11.5</ele><time>2026-08-07T15:36:41Z</time></trkpt>
<trkpt lat="48.9121779" lon="-123.2667683"><speed>9.739</speed><ele>-15.3</ele><time>2026-08-07T15:36:46Z</time></trkpt>
<trkpt lat="48.9113313" lon="-123.2686659"><speed>8.756</speed><ele>-6.0</ele><time>2026-08-07T15:37:07Z</time></trkpt>
<trkpt lat="48.9111255" lon="-123.2690006"><speed>6.396</speed><ele>-10.6</ele><time>2026-08-07T15:37:12Z</time></trkpt>
<trkpt lat="48.9108793" lon="-123.2694436"><speed>7.489</speed><ele>-12.7</ele><time>2026-08-07T15:37:17Z</time></trkpt>
<trkpt lat="48.9105931" lon="-123.2699256"><speed>8.791</speed><ele>-13.5</ele><time>2026-08-07T15:37:22Z</time></trkpt>
<trkpt lat="48.9099793" lon="-123.2706918"><speed>9.206</speed><ele>-15.4</ele><time>2026-08-07T15:37:31Z</time></trkpt>
<trkpt lat="48.9091780" lon="-123.2719908"><speed>5.952</speed><ele>-6.7</ele><time>2026-08-07T15:37:53Z</time></trkpt>
<trkpt lat="48.9077032" lon="-123.2736737"><speed>7.269</speed><ele>-6.5</ele><time>2026-08-07T15:38:20Z</time></trkpt>
<trkpt lat="48.9073998" lon="-123.2739891"><speed>5.512</speed><ele>-10.6</ele><time>2026-08-07T15:38:25Z</time></trkpt>
<trkpt lat="48.9070304" lon="-123.2742670"><speed>7.489</speed><ele>-12.8</ele><time>2026-08-07T15:38:30Z</time></trkpt>
<trkpt lat="48.9067403" lon="-123.2746050"><speed>7.891</speed><ele>-4.3</ele><time>2026-08-07T15:38:35Z</time></trkpt>
<trkpt lat="48.9064693" lon="-123.2749369"><speed>7.518</speed><ele>-11.7</ele><time>2026-08-07T15:38:40Z</time></trkpt>
<trkpt lat="48.9061404" lon="-123.2752281"><speed>8.057</speed><ele>-8.6</ele><time>2026-08-07T15:38:45Z</time></trkpt>
<trkpt lat="48.9058287" lon="-123.2755223"><speed>7.729</speed><ele>-6.2</ele><time>2026-08-07T15:38:50Z</time></trkpt>
<trkpt lat="48.9055336" lon="-123.2758430"><speed>7.711</speed><ele>-12.9</ele><time>2026-08-07T15:38:55Z</time></trkpt>
<trkpt lat="48.9052679" lon="-123.2761372"><speed>7.718</speed><ele>-4.1</ele><time>2026-08-07T15:39:00Z</time></trkpt>
<trkpt lat="48.9049622" lon="-123.2764291"><speed>7.599</speed><ele>-3.4</ele><time>2026-08-07T15:39:05Z</time></trkpt>
<trkpt lat="48.9047188" lon="-123.2767302"><speed>7.308</speed><ele>-6.7</ele><time>2026-08-07T15:39:10Z</time></trkpt>
<trkpt lat="48.9044544" lon="-123.2770860"><speed>8.369</speed><ele>-6.7</ele><time>2026-08-07T15:39:15Z</time></trkpt>
<trkpt lat="48.9041912" lon="-123.2773382"><speed>7.352</speed><ele>-7.4</ele><time>2026-08-07T15:39:20Z</time></trkpt>
<trkpt lat="48.9038701" lon="-123.2775949"><speed>7.991</speed><ele>-4.1</ele><time>2026-08-07T15:39:25Z</time></trkpt>
<trkpt lat="48.9035482" lon="-123.2779040"><speed>7.890</speed><ele>-2.6</ele><time>2026-08-07T15:39:30Z</time></trkpt>
<trkpt lat="48.9032792" lon="-123.2781992"><speed>8.081</speed><ele>-3.2</ele><time>2026-08-07T15:39:35Z</time></trkpt>
<trkpt lat="48.9029756" lon="-123.2785005"><speed>7.972</speed><ele>-4.1</ele><time>2026-08-07T15:39:40Z</time></trkpt>
<trkpt lat="48.9026711" lon="-123.2787914"><speed>7.636</speed><ele>-2.8</ele><time>2026-08-07T15:39:45Z</time></trkpt>
<trkpt lat="48.9023821" lon="-123.2791045"><speed>8.016</speed><ele>-3.8</ele><time>2026-08-07T15:39:50Z</time></trkpt>
<trkpt lat="48.9018074" lon="-123.2794846"><speed>7.310</speed><ele>-4.3</ele><time>2026-08-07T15:39:59Z</time></trkpt>
<trkpt lat="48.9004454" lon="-123.2808839"><speed>6.902</speed><ele>-2.4</ele><time>2026-08-07T15:40:22Z</time></trkpt>
<trkpt lat="48.9000585" lon="-123.2812847"><speed>7.701</speed><ele>-4.1</ele><time>2026-08-07T15:40:27Z</time></trkpt>
<trkpt lat="48.8997894" lon="-123.2816005"><speed>7.893</speed><ele>-4.1</ele><time>2026-08-07T15:40:32Z</time></trkpt>
<trkpt lat="48.8995483" lon="-123.2818528"><speed>8.221</speed><ele>-2.7</ele><time>2026-08-07T15:40:37Z</time></trkpt>
<trkpt lat="48.8992788" lon="-123.2821501"><speed>7.812</speed><ele>-3.7</ele><time>2026-08-07T15:40:42Z</time></trkpt>
<trkpt lat="48.8990514" lon="-123.2825050"><speed>7.550</speed><ele>-3.4</ele><time>2026-08-07T15:40:47Z</time></trkpt>
<trkpt lat="48.8987662" lon="-123.2828599"><speed>8.175</speed><ele>-1.5</ele><time>2026-08-07T15:40:52Z</time></trkpt>
<trkpt lat="48.8983686" lon="-123.2828592"><speed>7.883</speed><ele>-4.4</ele><time>2026-08-07T15:40:57Z</time></trkpt>
<trkpt lat="48.8981207" lon="-123.2832223"><speed>8.265</speed><ele>0.8</ele><time>2026-08-07T15:41:02Z</time></trkpt>
<trkpt lat="48.8978607" lon="-123.2837375"><speed>9.204</speed><ele>1.9</ele><time>2026-08-07T15:41:07Z</time></trkpt>
<trkpt lat="48.8975907" lon="-123.2841156"><speed>8.075</speed><ele>-0.3</ele><time>2026-08-07T15:41:12Z</time></trkpt>
<trkpt lat="48.8973109" lon="-123.2844213"><speed>8.099</speed><ele>0.8</ele><time>2026-08-07T15:41:17Z</time></trkpt>
<trkpt lat="48.8970487" lon="-123.2846459"><speed>7.596</speed><ele>-3.8</ele><time>2026-08-07T15:41:22Z</time></trkpt>
<trkpt lat="48.8967726" lon="-123.2848856"><speed>7.804</speed><ele>1.3</ele><time>2026-08-07T15:41:27Z</time></trkpt>
<trkpt lat="48.8964905" lon="-123.2851776"><speed>8.077</speed><ele>1.2</ele><time>2026-08-07T15:41:32Z</time></trkpt>
<trkpt lat="48.8962196" lon="-123.2855051"><speed>7.629</speed><ele>1.3</ele><time>2026-08-07T15:41:37Z</time></trkpt>
<trkpt lat="48.8959635" lon="-123.2857931"><speed>7.750</speed><ele>0.5</ele><time>2026-08-07T15:41:42Z</time></trkpt>
<trkpt lat="48.8956532" lon="-123.2861602"><speed>8.235</speed><ele>-3.3</ele><time>2026-08-07T15:41:47Z</time></trkpt>
<trkpt lat="48.8953575" lon="-123.2863726"><speed>7.308</speed><ele>0.4</ele><time>2026-08-07T15:41:52Z</time></trkpt>
<trkpt lat="48.8950651" lon="-123.2866390"><speed>8.073</speed><ele>1.4</ele><time>2026-08-07T15:41:57Z</time></trkpt>
<trkpt lat="48.8947792" lon="-123.2868833"><speed>7.526</speed><ele>1.4</ele><time>2026-08-07T15:42:02Z</time></trkpt>
<trkpt lat="48.8944653" lon="-123.2871659"><speed>7.794</speed><ele>2.3</ele><time>2026-08-07T15:42:07Z</time></trkpt>
<trkpt lat="48.8941689" lon="-123.2874230"><speed>7.935</speed><ele>1.6</ele><time>2026-08-07T15:42:12Z</time></trkpt>
<trkpt lat="48.8939172" lon="-123.2876713"><speed>7.231</speed><ele>2.0</ele><time>2026-08-07T15:42:17Z</time></trkpt>
<trkpt lat="48.8936153" lon="-123.2879339"><speed>7.349</speed><ele>2.8</ele><time>2026-08-07T15:42:22Z</time></trkpt>
<trkpt lat="48.8933309" lon="-123.2881630"><speed>7.324</speed><ele>1.1</ele><time>2026-08-07T15:42:27Z</time></trkpt>
<trkpt lat="48.8929611" lon="-123.2884810"><speed>7.240</speed><ele>0.7</ele><time>2026-08-07T15:42:33Z</time></trkpt>
<trkpt lat="48.8927064" lon="-123.2887239"><speed>6.926</speed><ele>1.5</ele><time>2026-08-07T15:42:38Z</time></trkpt>
<trkpt lat="48.8924318" lon="-123.2889444"><speed>6.718</speed><ele>1.7</ele><time>2026-08-07T15:42:43Z</time></trkpt>
<trkpt lat="48.8921310" lon="-123.2891975"><speed>7.423</speed><ele>1.5</ele><time>2026-08-07T15:42:48Z</time></trkpt>
<trkpt lat="48.8918415" lon="-123.2894982"><speed>7.139</speed><ele>3.2</ele><time>2026-08-07T15:42:53Z</time></trkpt>
<trkpt lat="48.8915313" lon="-123.2897706"><speed>7.318</speed><ele>1.6</ele><time>2026-08-07T15:42:58Z</time></trkpt>
<trkpt lat="48.8912458" lon="-123.2899713"><speed>7.156</speed><ele>0.4</ele><time>2026-08-07T15:43:03Z</time></trkpt>
<trkpt lat="48.8909583" lon="-123.2902147"><speed>7.130</speed><ele>3.2</ele><time>2026-08-07T15:43:08Z</time></trkpt>
<trkpt lat="48.8906714" lon="-123.2904378"><speed>7.101</speed><ele>1.4</ele><time>2026-08-07T15:43:13Z</time></trkpt>
<trkpt lat="48.8903831" lon="-123.2906923"><speed>7.199</speed><ele>2.3</ele><time>2026-08-07T15:43:18Z</time></trkpt>
<trkpt lat="48.8901115" lon="-123.2909496"><speed>7.020</speed><ele>1.8</ele><time>2026-08-07T15:43:23Z</time></trkpt>
<trkpt lat="48.8898407" lon="-123.2911801"><speed>6.915</speed><ele>1.9</ele><time>2026-08-07T15:43:28Z</time></trkpt>
<trkpt lat="48.8895792" lon="-123.2914295"><speed>7.139</speed><ele>1.5</ele><time>2026-08-07T15:43:33Z</time></trkpt>
<trkpt lat="48.8893144" lon="-123.2916857"><speed>7.170</speed><ele>1.3</ele><time>2026-08-07T15:43:38Z</time></trkpt>
<trkpt lat="48.8890318" lon="-123.2918855"><speed>7.214</speed><ele>1.7</ele><time>2026-08-07T15:43:43Z</time></trkpt>
<trkpt lat="48.8887617" lon="-123.2921048"><speed>6.537</speed><ele>1.5</ele><time>2026-08-07T15:43:48Z</time></trkpt>
<trkpt lat="48.8884820" lon="-123.2923511"><speed>7.010</speed><ele>2.0</ele><time>2026-08-07T15:43:53Z</time></trkpt>
<trkpt lat="48.8882048" lon="-123.2926184"><speed>7.069</speed><ele>0.6</ele><time>2026-08-07T15:43:58Z</time></trkpt>
<trkpt lat="48.8879306" lon="-123.2928796"><speed>6.852</speed><ele>1.3</ele><time>2026-08-07T15:44:03Z</time></trkpt>
<trkpt lat="48.8876666" lon="-123.2931141"><speed>6.813</speed><ele>1.8</ele><time>2026-08-07T15:44:08Z</time></trkpt>
<trkpt lat="48.8873998" lon="-123.2933394"><speed>6.902</speed><ele>0.6</ele><time>2026-08-07T15:44:13Z</time></trkpt>
<trkpt lat="48.8871396" lon="-123.2936362"><speed>6.961</speed><ele>1.8</ele><time>2026-08-07T15:44:18Z</time></trkpt>
<trkpt lat="48.8868909" lon="-123.2938884"><speed>6.950</speed><ele>1.5</ele><time>2026-08-07T15:44:23Z</time></trkpt>
<trkpt lat="48.8866232" lon="-123.2941388"><speed>6.743</speed><ele>1.7</ele><time>2026-08-07T15:44:28Z</time></trkpt>
<trkpt lat="48.8863456" lon="-123.2943811"><speed>6.999</speed><ele>2.4</ele><time>2026-08-07T15:44:33Z</time></trkpt>
<trkpt lat="48.8860623" lon="-123.2946177"><speed>7.246</speed><ele>1.3</ele><time>2026-08-07T15:44:38Z</time></trkpt>
<trkpt lat="48.8858018" lon="-123.2948887"><speed>7.076</speed><ele>1.9</ele><time>2026-08-07T15:44:43Z</time></trkpt>
<trkpt lat="48.8855324" lon="-123.2951363"><speed>6.821</speed><ele>1.3</ele><time>2026-08-07T15:44:48Z</time></trkpt>
<trkpt lat="48.8852574" lon="-123.2953989"><speed>6.974</speed><ele>1.7</ele><time>2026-08-07T15:44:53Z</time></trkpt>
<trkpt lat="48.8849981" lon="-123.2956667"><speed>7.018</speed><ele>2.7</ele><time>2026-08-07T15:44:58Z</time></trkpt>
<trkpt lat="48.8847323" lon="-123.2959262"><speed>7.059</speed><ele>1.5</ele><time>2026-08-07T15:45:03Z</time></trkpt>
<trkpt lat="48.8844747" lon="-123.2961879"><speed>6.829</speed><ele>1.1</ele><time>2026-08-07T15:45:08Z</time></trkpt>
<trkpt lat="48.8842152" lon="-123.2964749"><speed>7.089</speed><ele>1.5</ele><time>2026-08-07T15:45:13Z</time></trkpt>
<trkpt lat="48.8839688" lon="-123.2967534"><speed>6.970</speed><ele>1.5</ele><time>2026-08-07T15:45:18Z</time></trkpt>
<trkpt lat="48.8837126" lon="-123.2970404"><speed>7.061</speed><ele>1.2</ele><time>2026-08-07T15:45:23Z</time></trkpt>
<trkpt lat="48.8834677" lon="-123.2972717"><speed>6.799</speed><ele>1.3</ele><time>2026-08-07T15:45:28Z</time></trkpt>
<trkpt lat="48.8832078" lon="-123.2974899"><speed>6.723</speed><ele>0.7</ele><time>2026-08-07T15:45:33Z</time></trkpt>
<trkpt lat="48.8829300" lon="-123.2976724"><speed>6.603</speed><ele>1.6</ele><time>2026-08-07T15:45:38Z</time></trkpt>
<trkpt lat="48.8826426" lon="-123.2979130"><speed>7.135</speed><ele>2.0</ele><time>2026-08-07T15:45:43Z</time></trkpt>
<trkpt lat="48.8823865" lon="-123.2981378"><speed>6.849</speed><ele>1.7</ele><time>2026-08-07T15:45:48Z</time></trkpt>
<trkpt lat="48.8821193" lon="-123.2983637"><speed>7.293</speed><ele>1.0</ele><time>2026-08-07T15:45:53Z</time></trkpt>
<trkpt lat="48.8818424" lon="-123.2985864"><speed>6.941</speed><ele>0.8</ele><time>2026-08-07T15:45:58Z</time></trkpt>
<trkpt lat="48.8815948" lon="-123.2987633"><speed>6.675</speed><ele>1.3</ele><time>2026-08-07T15:46:03Z</time></trkpt>
<trkpt lat="48.8813092" lon="-123.2990098"><speed>7.041</speed><ele>1.3</ele><time>2026-08-07T15:46:08Z</time></trkpt>
<trkpt lat="48.8810273" lon="-123.2992274"><speed>6.800</speed><ele>1.6</ele><time>2026-08-07T15:46:13Z</time></trkpt>
<trkpt lat="48.8807487" lon="-123.2994453"><speed>6.535</speed><ele>1.1</ele><time>2026-08-07T15:46:18Z</time></trkpt>
<trkpt lat="48.8804802" lon="-123.2997022"><speed>6.992</speed><ele>0.1</ele><time>2026-08-07T15:46:23Z</time></trkpt>
<trkpt lat="48.8801955" lon="-123.2998953"><speed>6.891</speed><ele>-0.9</ele><time>2026-08-07T15:46:28Z</time></trkpt>
<trkpt lat="48.8799057" lon="-123.3001273"><speed>6.910</speed><ele>-0.2</ele><time>2026-08-07T15:46:33Z</time></trkpt>
<trkpt lat="48.8796297" lon="-123.3003392"><speed>6.921</speed><ele>1.2</ele><time>2026-08-07T15:46:38Z</time></trkpt>
<trkpt lat="48.8793391" lon="-123.3005357"><speed>6.989</speed><ele>-0.8</ele><time>2026-08-07T15:46:43Z</time></trkpt>
<trkpt lat="48.8790659" lon="-123.3007754"><speed>7.107</speed><ele>0.0</ele><time>2026-08-07T15:46:48Z</time></trkpt>
<trkpt lat="48.8788081" lon="-123.3009914"><speed>6.764</speed><ele>-1.0</ele><time>2026-08-07T15:46:53Z</time></trkpt>
<trkpt lat="48.8785230" lon="-123.3012172"><speed>7.271</speed><ele>0.3</ele><time>2026-08-07T15:46:58Z</time></trkpt>
<trkpt lat="48.8782776" lon="-123.3014704"><speed>6.967</speed><ele>-0.0</ele><time>2026-08-07T15:47:03Z</time></trkpt>
<trkpt lat="48.8780210" lon="-123.3017384"><speed>6.442</speed><ele>1.2</ele><time>2026-08-07T15:47:08Z</time></trkpt>
<trkpt lat="48.8777660" lon="-123.3019935"><speed>6.211</speed><ele>-0.0</ele><time>2026-08-07T15:47:13Z</time></trkpt>
<trkpt lat="48.8775297" lon="-123.3022005"><speed>6.430</speed><ele>0.8</ele><time>2026-08-07T15:47:18Z</time></trkpt>
<trkpt lat="48.8772825" lon="-123.3024334"><speed>6.569</speed><ele>0.9</ele><time>2026-08-07T15:47:23Z</time></trkpt>
<trkpt lat="48.8770345" lon="-123.3026460"><speed>6.262</speed><ele>1.1</ele><time>2026-08-07T15:47:28Z</time></trkpt>
<trkpt lat="48.8767862" lon="-123.3029091"><speed>6.726</speed><ele>1.0</ele><time>2026-08-07T15:47:33Z</time></trkpt>
<trkpt lat="48.8765613" lon="-123.3031180"><speed>6.349</speed><ele>1.1</ele><time>2026-08-07T15:47:38Z</time></trkpt>
<trkpt lat="48.8763469" lon="-123.3033249"><speed>6.179</speed><ele>1.4</ele><time>2026-08-07T15:47:43Z</time></trkpt>
<trkpt lat="48.8761076" lon="-123.3035351"><speed>6.001</speed><ele>1.4</ele><time>2026-08-07T15:47:48Z</time></trkpt>
<trkpt lat="48.8758683" lon="-123.3037687"><speed>6.014</speed><ele>0.4</ele><time>2026-08-07T15:47:53Z</time></trkpt>
<trkpt lat="48.8756439" lon="-123.3040138"><speed>6.232</speed><ele>0.5</ele><time>2026-08-07T15:47:58Z</time></trkpt>
<trkpt lat="48.8754174" lon="-123.3042544"><speed>5.832</speed><ele>-0.3</ele><time>2026-08-07T15:48:03Z</time></trkpt>
<trkpt lat="48.8751896" lon="-123.3044252"><speed>5.688</speed><ele>0.6</ele><time>2026-08-07T15:48:08Z</time></trkpt>
<trkpt lat="48.8748174" lon="-123.3047119"><speed>6.248</speed><ele>0.7</ele><time>2026-08-07T15:48:16Z</time></trkpt>
<trkpt lat="48.8745101" lon="-123.3045612"><speed>5.762</speed><ele>0.9</ele><time>2026-08-07T15:48:21Z</time></trkpt>
<trkpt lat="48.8743156" lon="-123.3046993"><speed>6.346</speed><ele>-0.1</ele><time>2026-08-07T15:48:26Z</time></trkpt>
<trkpt lat="48.8740607" lon="-123.3049142"><speed>6.872</speed><ele>-0.2</ele><time>2026-08-07T15:48:31Z</time></trkpt>
<trkpt lat="48.8737667" lon="-123.3055487"><speed>6.837</speed><ele>-0.3</ele><time>2026-08-07T15:48:36Z</time></trkpt>
<trkpt lat="48.8734350" lon="-123.3059061"><speed>6.207</speed><ele>-0.3</ele><time>2026-08-07T15:48:41Z</time></trkpt>
<trkpt lat="48.8731806" lon="-123.3061445"><speed>6.217</speed><ele>0.2</ele><time>2026-08-07T15:48:46Z</time></trkpt>
<trkpt lat="48.8730020" lon="-123.3061744"><speed>5.532</speed><ele>-0.2</ele><time>2026-08-07T15:48:51Z</time></trkpt>
<trkpt lat="48.8728927" lon="-123.3061692"><speed>5.121</speed><ele>0.6</ele><time>2026-08-07T15:48:56Z</time></trkpt>
<trkpt lat="48.8726188" lon="-123.3062977"><speed>6.306</speed><ele>0.6</ele><time>2026-08-07T15:49:01Z</time></trkpt>
<trkpt lat="48.8723752" lon="-123.3063928"><speed>6.476</speed><ele>0.7</ele><time>2026-08-07T15:49:06Z</time></trkpt>
<trkpt lat="48.8721160" lon="-123.3065438"><speed>6.616</speed><ele>-0.2</ele><time>2026-08-07T15:49:11Z</time></trkpt>
<trkpt lat="48.8718351" lon="-123.3066760"><speed>6.301</speed><ele>0.1</ele><time>2026-08-07T15:49:16Z</time></trkpt>
<trkpt lat="48.8715763" lon="-123.3067848"><speed>6.491</speed><ele>-1.3</ele><time>2026-08-07T15:49:21Z</time></trkpt>
<trkpt lat="48.8712970" lon="-123.3068279"><speed>6.781</speed><ele>-0.0</ele><time>2026-08-07T15:49:26Z</time></trkpt>
<trkpt lat="48.8709157" lon="-123.3068319"><speed>7.301</speed><ele>-0.1</ele><time>2026-08-07T15:49:31Z</time></trkpt>
<trkpt lat="48.8707197" lon="-123.3071487"><speed>6.388</speed><ele>-0.2</ele><time>2026-08-07T15:49:36Z</time></trkpt>
<trkpt lat="48.8705030" lon="-123.3075529"><speed>6.169</speed><ele>0.3</ele><time>2026-08-07T15:49:41Z</time></trkpt>
<trkpt lat="48.8702365" lon="-123.3077751"><speed>6.858</speed><ele>0.3</ele><time>2026-08-07T15:49:46Z</time></trkpt>
<trkpt lat="48.8699788" lon="-123.3080440"><speed>6.443</speed><ele>-0.8</ele><time>2026-08-07T15:49:51Z</time></trkpt>
<trkpt lat="48.8697021" lon="-123.3082272"><speed>7.119</speed><ele>0.0</ele><time>2026-08-07T15:49:56Z</time></trkpt>
<trkpt lat="48.8693865" lon="-123.3083774"><speed>7.481</speed><ele>0.4</ele><time>2026-08-07T15:50:01Z</time></trkpt>
<trkpt lat="48.8691131" lon="-123.3085986"><speed>6.589</speed><ele>0.7</ele><time>2026-08-07T15:50:06Z</time></trkpt>
<trkpt lat="48.8688062" lon="-123.3087761"><speed>7.062</speed><ele>-0.2</ele><time>2026-08-07T15:50:11Z</time></trkpt>
<trkpt lat="48.8685167" lon="-123.3089134"><speed>6.389</speed><ele>0.1</ele><time>2026-08-07T15:50:16Z</time></trkpt>
<trkpt lat="48.8682296" lon="-123.3090606"><speed>7.207</speed><ele>0.2</ele><time>2026-08-07T15:50:21Z</time></trkpt>
<trkpt lat="48.8679119" lon="-123.3091415"><speed>7.088</speed><ele>-0.3</ele><time>2026-08-07T15:50:26Z</time></trkpt>
<trkpt lat="48.8675785" lon="-123.3091285"><speed>7.424</speed><ele>0.4</ele><time>2026-08-07T15:50:31Z</time></trkpt>
<trkpt lat="48.8672569" lon="-123.3092251"><speed>7.364</speed><ele>0.6</ele><time>2026-08-07T15:50:36Z</time></trkpt>
<trkpt lat="48.8669283" lon="-123.3093065"><speed>7.544</speed><ele>0.1</ele><time>2026-08-07T15:50:41Z</time></trkpt>
<trkpt lat="48.8665783" lon="-123.3093009"><speed>7.689</speed><ele>0.4</ele><time>2026-08-07T15:50:46Z</time></trkpt>
<trkpt lat="48.8662361" lon="-123.3094042"><speed>7.826</speed><ele>0.5</ele><time>2026-08-07T15:50:51Z</time></trkpt>
<trkpt lat="48.8659187" lon="-123.3096827"><speed>7.869</speed><ele>0.3</ele><time>2026-08-07T15:50:56Z</time></trkpt>
<trkpt lat="48.8655669" lon="-123.3098583"><speed>8.042</speed><ele>0.3</ele><time>2026-08-07T15:51:01Z</time></trkpt>
<trkpt lat="48.8651822" lon="-123.3099860"><speed>8.294</speed><ele>-0.3</ele><time>2026-08-07T15:51:06Z</time></trkpt>
<trkpt lat="48.8648296" lon="-123.3100350"><speed>8.245</speed><ele>0.3</ele><time>2026-08-07T15:51:11Z</time></trkpt>
<trkpt lat="48.8644906" lon="-123.3101366"><speed>8.208</speed><ele>0.2</ele><time>2026-08-07T15:51:16Z</time></trkpt>
<trkpt lat="48.8641283" lon="-123.3102180"><speed>8.444</speed><ele>0.4</ele><time>2026-08-07T15:51:21Z</time></trkpt>
<trkpt lat="48.8637702" lon="-123.3103625"><speed>8.402</speed><ele>0.5</ele><time>2026-08-07T15:51:26Z</time></trkpt>
<trkpt lat="48.8633740" lon="-123.3104919"><speed>8.945</speed><ele>0.0</ele><time>2026-08-07T15:51:31Z</time></trkpt>
<trkpt lat="48.8630227" lon="-123.3106314"><speed>8.730</speed><ele>-0.1</ele><time>2026-08-07T15:51:36Z</time></trkpt>
<trkpt lat="48.8626318" lon="-123.3107509"><speed>9.070</speed><ele>0.3</ele><time>2026-08-07T15:51:41Z</time></trkpt>
<trkpt lat="48.8615221" lon="-123.3109328"><speed>8.170</speed><ele>0.9</ele><time>2026-08-07T15:51:54Z</time></trkpt>
<trkpt lat="48.8611330" lon="-123.3110918"><speed>8.570</speed><ele>0.8</ele><time>2026-08-07T15:51:59Z</time></trkpt>
<trkpt lat="48.8607266" lon="-123.3112112"><speed>8.100</speed><ele>0.5</ele><time>2026-08-07T15:52:04Z</time></trkpt>
<trkpt lat="48.8604686" lon="-123.3114495"><speed>8.270</speed><ele>0.8</ele><time>2026-08-07T15:52:09Z</time></trkpt>
<trkpt lat="48.8600776" lon="-123.3115060"><speed>8.300</speed><ele>1.2</ele><time>2026-08-07T15:52:14Z</time></trkpt>
<trkpt lat="48.8597797" lon="-123.3116709"><speed>6.660</speed><ele>0.9</ele><time>2026-08-07T15:52:19Z</time></trkpt>
<trkpt lat="48.8595071" lon="-123.3119099"><speed>5.960</speed><ele>1.0</ele><time>2026-08-07T15:52:24Z</time></trkpt>
<trkpt lat="48.8593180" lon="-123.3119579"><speed>5.620</speed><ele>-0.7</ele><time>2026-08-07T15:52:29Z</time></trkpt>
<trkpt lat="48.8591111" lon="-123.3123185"><speed>6.060</speed><ele>-1.1</ele><time>2026-08-07T15:52:34Z</time></trkpt>
<trkpt lat="48.8589157" lon="-123.3126409"><speed>6.050</speed><ele>0.5</ele><time>2026-08-07T15:52:39Z</time></trkpt>
<trkpt lat="48.8587463" lon="-123.3130101"><speed>6.618</speed><ele>0.1</ele><time>2026-08-07T15:52:44Z</time></trkpt>
<trkpt lat="48.8585970" lon="-123.3133144"><speed>4.790</speed><ele>-0.4</ele><time>2026-08-07T15:52:49Z</time></trkpt>
<trkpt lat="48.8584969" lon="-123.3136704"><speed>5.135</speed><ele>-0.6</ele><time>2026-08-07T15:52:54Z</time></trkpt>
<trkpt lat="48.8584530" lon="-123.3140391"><speed>4.966</speed><ele>-0.5</ele><time>2026-08-07T15:52:59Z</time></trkpt>
<trkpt lat="48.8583935" lon="-123.3144593"><speed>4.818</speed><ele>0.1</ele><time>2026-08-07T15:53:04Z</time></trkpt>
<trkpt lat="48.8583199" lon="-123.3149027"><speed>5.874</speed><ele>0.5</ele><time>2026-08-07T15:53:09Z</time></trkpt>
<trkpt lat="48.8583115" lon="-123.3151607"><speed>1.210</speed><ele>0.2</ele><time>2026-08-07T15:53:14Z</time></trkpt>
<trkpt lat="48.8582381" lon="-123.3156237"><speed>4.544</speed><ele>0.2</ele><time>2026-08-07T15:53:19Z</time></trkpt>
<trkpt lat="48.8582088" lon="-123.3159887"><speed>5.257</speed><ele>0.2</ele><time>2026-08-07T15:53:24Z</time></trkpt>
<trkpt lat="48.8582880" lon="-123.3164977"><speed>5.667</speed><ele>0.5</ele><time>2026-08-07T15:53:29Z</time></trkpt>
<trkpt lat="48.8582869" lon="-123.3170364"><speed>5.939</speed><ele>0.7</ele><time>2026-08-07T15:53:34Z</time></trkpt>
<trkpt lat="48.8582567" lon="-123.3175365"><speed>5.767</speed><ele>0.3</ele><time>2026-08-07T15:53:39Z</time></trkpt>
<trkpt lat="48.8582686" lon="-123.3179838"><speed>5.521</speed><ele>0.5</ele><time>2026-08-07T15:53:44Z</time></trkpt>
<trkpt lat="48.8582216" lon="-123.3183422"><speed>5.928</speed><ele>0.3</ele><time>2026-08-07T15:53:49Z</time></trkpt>
<trkpt lat="48.8583334" lon="-123.3188959"><speed>5.780</speed><ele>-0.6</ele><time>2026-08-07T15:53:54Z</time></trkpt>
<trkpt lat="48.8583343" lon="-123.3198038"><speed>6.699</speed><ele>3.3</ele><time>2026-08-07T15:54:03Z</time></trkpt>
<trkpt lat="48.8582504" lon="-123.3202945"><speed>5.729</speed><ele>1.8</ele><time>2026-08-07T15:54:08Z</time></trkpt>
<trkpt lat="48.8582751" lon="-123.3206983"><speed>5.990</speed><ele>3.6</ele><time>2026-08-07T15:54:13Z</time></trkpt>
<trkpt lat="48.8582771" lon="-123.3211203"><speed>6.460</speed><ele>3.8</ele><time>2026-08-07T15:54:18Z</time></trkpt>
<trkpt lat="48.8582712" lon="-123.3215648"><speed>6.330</speed><ele>2.3</ele><time>2026-08-07T15:54:23Z</time></trkpt>
<trkpt lat="48.8582714" lon="-123.3220015"><speed>6.480</speed><ele>3.3</ele><time>2026-08-07T15:54:28Z</time></trkpt>
<trkpt lat="48.8582739" lon="-123.3224451"><speed>6.620</speed><ele>3.4</ele><time>2026-08-07T15:54:33Z</time></trkpt>
<trkpt lat="48.8582779" lon="-123.3228948"><speed>6.550</speed><ele>3.6</ele><time>2026-08-07T15:54:38Z</time></trkpt>
<trkpt lat="48.8582938" lon="-123.3233558"><speed>6.700</speed><ele>2.9</ele><time>2026-08-07T15:54:43Z</time></trkpt>
<trkpt lat="48.8583088" lon="-123.3238257"><speed>6.715</speed><ele>2.4</ele><time>2026-08-07T15:54:48Z</time></trkpt>
<trkpt lat="48.8583273" lon="-123.3242912"><speed>6.760</speed><ele>2.6</ele><time>2026-08-07T15:54:53Z</time></trkpt>
<trkpt lat="48.8583551" lon="-123.3247411"><speed>6.660</speed><ele>3.1</ele><time>2026-08-07T15:54:58Z</time></trkpt>
<trkpt lat="48.8583552" lon="-123.3251744"><speed>5.177</speed><ele>3.7</ele><time>2026-08-07T15:55:03Z</time></trkpt>
<trkpt lat="48.8584123" lon="-123.3255828"><speed>5.125</speed><ele>2.8</ele><time>2026-08-07T15:55:08Z</time></trkpt>
<trkpt lat="48.8584237" lon="-123.3259963"><speed>5.580</speed><ele>2.9</ele><time>2026-08-07T15:55:13Z</time></trkpt>
<trkpt lat="48.8584550" lon="-123.3264159"><speed>6.230</speed><ele>2.7</ele><time>2026-08-07T15:55:18Z</time></trkpt>
<trkpt lat="48.8584828" lon="-123.3268136"><speed>6.437</speed><ele>3.2</ele><time>2026-08-07T15:55:23Z</time></trkpt>
<trkpt lat="48.8585330" lon="-123.3272366"><speed>6.589</speed><ele>3.2</ele><time>2026-08-07T15:55:28Z</time></trkpt>
<trkpt lat="48.8586010" lon="-123.3277051"><speed>6.930</speed><ele>2.4</ele><time>2026-08-07T15:55:33Z</time></trkpt>
<trkpt lat="48.8586494" lon="-123.3281434"><speed>7.188</speed><ele>1.6</ele><time>2026-08-07T15:55:38Z</time></trkpt>
<trkpt lat="48.8587279" lon="-123.3286247"><speed>7.157</speed><ele>1.8</ele><time>2026-08-07T15:55:43Z</time></trkpt>
<trkpt lat="48.8588095" lon="-123.3290996"><speed>7.073</speed><ele>2.4</ele><time>2026-08-07T15:55:48Z</time></trkpt>
<trkpt lat="48.8589249" lon="-123.3295566"><speed>7.157</speed><ele>0.9</ele><time>2026-08-07T15:55:53Z</time></trkpt>
<trkpt lat="48.8590378" lon="-123.3300228"><speed>7.253</speed><ele>2.3</ele><time>2026-08-07T15:55:58Z</time></trkpt>
<trkpt lat="48.8591428" lon="-123.3304861"><speed>7.237</speed><ele>1.5</ele><time>2026-08-07T15:56:03Z</time></trkpt>
<trkpt lat="48.8592443" lon="-123.3309523"><speed>6.961</speed><ele>0.7</ele><time>2026-08-07T15:56:08Z</time></trkpt>
<trkpt lat="48.8593713" lon="-123.3314015"><speed>7.182</speed><ele>1.3</ele><time>2026-08-07T15:56:13Z</time></trkpt>
<trkpt lat="48.8595153" lon="-123.3318810"><speed>7.410</speed><ele>0.4</ele><time>2026-08-07T15:56:18Z</time></trkpt>
<trkpt lat="48.8596471" lon="-123.3323511"><speed>7.624</speed><ele>1.2</ele><time>2026-08-07T15:56:23Z</time></trkpt>
<trkpt lat="48.8597922" lon="-123.3328123"><speed>7.607</speed><ele>1.6</ele><time>2026-08-07T15:56:28Z</time></trkpt>
<trkpt lat="48.8599445" lon="-123.3332904"><speed>7.659</speed><ele>1.2</ele><time>2026-08-07T15:56:33Z</time></trkpt>
<trkpt lat="48.8600804" lon="-123.3337714"><speed>7.410</speed><ele>1.4</ele><time>2026-08-07T15:56:38Z</time></trkpt>
<trkpt lat="48.8602066" lon="-123.3342559"><speed>7.810</speed><ele>0.4</ele><time>2026-08-07T15:56:43Z</time></trkpt>
<trkpt lat="48.8603277" lon="-123.3347425"><speed>7.622</speed><ele>0.2</ele><time>2026-08-07T15:56:48Z</time></trkpt>
<trkpt lat="48.8604398" lon="-123.3352304"><speed>7.598</speed><ele>0.5</ele><time>2026-08-07T15:56:53Z</time></trkpt>
<trkpt lat="48.8605288" lon="-123.3357221"><speed>7.527</speed><ele>0.2</ele><time>2026-08-07T15:56:58Z</time></trkpt>
<trkpt lat="48.8606282" lon="-123.3362066"><speed>7.451</speed><ele>0.8</ele><time>2026-08-07T15:57:03Z</time></trkpt>
<trkpt lat="48.8606996" lon="-123.3367048"><speed>7.279</speed><ele>0.5</ele><time>2026-08-07T15:57:08Z</time></trkpt>
<trkpt lat="48.8607565" lon="-123.3372041"><speed>7.189</speed><ele>-0.5</ele><time>2026-08-07T15:57:13Z</time></trkpt>
<trkpt lat="48.8607986" lon="-123.3377068"><speed>7.185</speed><ele>-0.1</ele><time>2026-08-07T15:57:18Z</time></trkpt>
<trkpt lat="48.8608305" lon="-123.3381931"><speed>7.023</speed><ele>0.0</ele><time>2026-08-07T15:57:23Z</time></trkpt>
<trkpt lat="48.8608514" lon="-123.3387120"><speed>6.950</speed><ele>0.5</ele><time>2026-08-07T15:57:28Z</time></trkpt>
<trkpt lat="48.8608560" lon="-123.3392110"><speed>6.950</speed><ele>0.5</ele><time>2026-08-07T15:57:33Z</time></trkpt>
<trkpt lat="48.8608566" lon="-123.3397063"><speed>6.890</speed><ele>-0.4</ele><time>2026-08-07T15:57:38Z</time></trkpt>
<trkpt lat="48.8608480" lon="-123.3402125"><speed>6.940</speed><ele>-0.4</ele><time>2026-08-07T15:57:43Z</time></trkpt>
<trkpt lat="48.8608371" lon="-123.3407055"><speed>6.875</speed><ele>-0.2</ele><time>2026-08-07T15:57:48Z</time></trkpt>
<trkpt lat="48.8607973" lon="-123.3412171"><speed>7.016</speed><ele>0.2</ele><time>2026-08-07T15:57:53Z</time></trkpt>
<trkpt lat="48.8607467" lon="-123.3417147"><speed>7.350</speed><ele>0.6</ele><time>2026-08-07T15:57:58Z</time></trkpt>
<trkpt lat="48.8607134" lon="-123.3421791"><speed>7.295</speed><ele>-0.3</ele><time>2026-08-07T15:58:03Z</time></trkpt>
<trkpt lat="48.8606465" lon="-123.3426891"><speed>7.170</speed><ele>0.6</ele><time>2026-08-07T15:58:08Z</time></trkpt>
<trkpt lat="48.8605685" lon="-123.3431646"><speed>7.202</speed><ele>0.4</ele><time>2026-08-07T15:58:13Z</time></trkpt>
<trkpt lat="48.8604880" lon="-123.3436353"><speed>7.024</speed><ele>0.1</ele><time>2026-08-07T15:58:18Z</time></trkpt>
<trkpt lat="48.8603989" lon="-123.3440813"><speed>6.823</speed><ele>-0.8</ele><time>2026-08-07T15:58:23Z</time></trkpt>
<trkpt lat="48.8602982" lon="-123.3445159"><speed>6.733</speed><ele>0.1</ele><time>2026-08-07T15:58:28Z</time></trkpt>
<trkpt lat="48.8601812" lon="-123.3449458"><speed>6.706</speed><ele>0.2</ele><time>2026-08-07T15:58:33Z</time></trkpt>
<trkpt lat="48.8600370" lon="-123.3453657"><speed>6.780</speed><ele>-0.5</ele><time>2026-08-07T15:58:38Z</time></trkpt>
<trkpt lat="48.8598883" lon="-123.3457813"><speed>6.830</speed><ele>0.2</ele><time>2026-08-07T15:58:43Z</time></trkpt>
<trkpt lat="48.8597314" lon="-123.3461839"><speed>6.877</speed><ele>0.8</ele><time>2026-08-07T15:58:48Z</time></trkpt>
<trkpt lat="48.8595627" lon="-123.3465843"><speed>6.850</speed><ele>0.4</ele><time>2026-08-07T15:58:53Z</time></trkpt>
<trkpt lat="48.8593827" lon="-123.3469791"><speed>6.928</speed><ele>-0.2</ele><time>2026-08-07T15:58:58Z</time></trkpt>
<trkpt lat="48.8591926" lon="-123.3473613"><speed>6.985</speed><ele>-0.4</ele><time>2026-08-07T15:59:03Z</time></trkpt>
<trkpt lat="48.8590165" lon="-123.3477387"><speed>6.460</speed><ele>0.0</ele><time>2026-08-07T15:59:08Z</time></trkpt>
<trkpt lat="48.8588047" lon="-123.3481001"><speed>7.071</speed><ele>0.7</ele><time>2026-08-07T15:59:13Z</time></trkpt>
<trkpt lat="48.8585983" lon="-123.3484677"><speed>6.978</speed><ele>-0.1</ele><time>2026-08-07T15:59:18Z</time></trkpt>
<trkpt lat="48.8583668" lon="-123.3488127"><speed>7.079</speed><ele>-0.6</ele><time>2026-08-07T15:59:23Z</time></trkpt>
<trkpt lat="48.8581116" lon="-123.3491385"><speed>6.488</speed><ele>0.7</ele><time>2026-08-07T15:59:28Z</time></trkpt>
<trkpt lat="48.8578667" lon="-123.3494649"><speed>7.395</speed><ele>0.7</ele><time>2026-08-07T15:59:33Z</time></trkpt>
<trkpt lat="48.8576146" lon="-123.3497389"><speed>6.693</speed><ele>1.2</ele><time>2026-08-07T15:59:38Z</time></trkpt>
<trkpt lat="48.8573603" lon="-123.3500260"><speed>6.823</speed><ele>2.3</ele><time>2026-08-07T15:59:43Z</time></trkpt>
<trkpt lat="48.8570486" lon="-123.3503035"><speed>7.388</speed><ele>1.5</ele><time>2026-08-07T15:59:48Z</time></trkpt>
<trkpt lat="48.8567153" lon="-123.3505875"><speed>8.558</speed><ele>1.3</ele><time>2026-08-07T15:59:53Z</time></trkpt>
<trkpt lat="48.8563592" lon="-123.3508746"><speed>8.685</speed><ele>1.7</ele><time>2026-08-07T15:59:58Z</time></trkpt>
<trkpt lat="48.8560097" lon="-123.3511371"><speed>8.139</speed><ele>1.8</ele><time>2026-08-07T16:00:03Z</time></trkpt>
<trkpt lat="48.8556721" lon="-123.3513413"><speed>7.820</speed><ele>2.1</ele><time>2026-08-07T16:00:08Z</time></trkpt>
<trkpt lat="48.8553629" lon="-123.3516037"><speed>7.801</speed><ele>2.4</ele><time>2026-08-07T16:00:13Z</time></trkpt>
<trkpt lat="48.8550448" lon="-123.3518074"><speed>8.038</speed><ele>1.7</ele><time>2026-08-07T16:00:18Z</time></trkpt>
<trkpt lat="48.8547088" lon="-123.3520229"><speed>8.109</speed><ele>2.1</ele><time>2026-08-07T16:00:23Z</time></trkpt>
<trkpt lat="48.8543884" lon="-123.3522748"><speed>7.345</speed><ele>2.3</ele><time>2026-08-07T16:00:28Z</time></trkpt>
<trkpt lat="48.8540419" lon="-123.3524553"><speed>8.339</speed><ele>2.0</ele><time>2026-08-07T16:00:33Z</time></trkpt>
<trkpt lat="48.8536870" lon="-123.3527044"><speed>8.537</speed><ele>1.8</ele><time>2026-08-07T16:00:38Z</time></trkpt>
<trkpt lat="48.8533481" lon="-123.3529381"><speed>8.640</speed><ele>1.7</ele><time>2026-08-07T16:00:43Z</time></trkpt>
<trkpt lat="48.8529816" lon="-123.3531340"><speed>8.638</speed><ele>1.7</ele><time>2026-08-07T16:00:48Z</time></trkpt>
<trkpt lat="48.8526158" lon="-123.3533434"><speed>8.650</speed><ele>1.5</ele><time>2026-08-07T16:00:53Z</time></trkpt>
<trkpt lat="48.8522403" lon="-123.3535625"><speed>8.710</speed><ele>1.6</ele><time>2026-08-07T16:00:58Z</time></trkpt>
<trkpt lat="48.8518694" lon="-123.3537886"><speed>8.819</speed><ele>2.2</ele><time>2026-08-07T16:01:03Z</time></trkpt>
<trkpt lat="48.8515055" lon="-123.3540344"><speed>8.751</speed><ele>2.3</ele><time>2026-08-07T16:01:08Z</time></trkpt>
<trkpt lat="48.8511562" lon="-123.3543027"><speed>8.475</speed><ele>1.3</ele><time>2026-08-07T16:01:13Z</time></trkpt>
<trkpt lat="48.8507962" lon="-123.3544898"><speed>8.266</speed><ele>2.2</ele><time>2026-08-07T16:01:18Z</time></trkpt>
<trkpt lat="48.8504335" lon="-123.3547576"><speed>7.975</speed><ele>1.8</ele><time>2026-08-07T16:01:23Z</time></trkpt>
<trkpt lat="48.8500490" lon="-123.3549549"><speed>8.451</speed><ele>2.9</ele><time>2026-08-07T16:01:28Z</time></trkpt>
<trkpt lat="48.8496768" lon="-123.3551604"><speed>8.622</speed><ele>3.4</ele><time>2026-08-07T16:01:33Z</time></trkpt>
<trkpt lat="48.8493061" lon="-123.3553468"><speed>8.494</speed><ele>2.4</ele><time>2026-08-07T16:01:38Z</time></trkpt>
<trkpt lat="48.8489307" lon="-123.3555007"><speed>8.520</speed><ele>2.4</ele><time>2026-08-07T16:01:43Z</time></trkpt>
<trkpt lat="48.8485518" lon="-123.3556297"><speed>8.488</speed><ele>2.4</ele><time>2026-08-07T16:01:48Z</time></trkpt>
<trkpt lat="48.8481443" lon="-123.3557398"><speed>7.258</speed><ele>2.7</ele><time>2026-08-07T16:01:53Z</time></trkpt>
<trkpt lat="48.8477999" lon="-123.3558332"><speed>8.864</speed><ele>2.0</ele><time>2026-08-07T16:01:58Z</time></trkpt>
<trkpt lat="48.8474255" lon="-123.3559014"><speed>8.510</speed><ele>2.2</ele><time>2026-08-07T16:02:03Z</time></trkpt>
<trkpt lat="48.8470458" lon="-123.3559343"><speed>8.411</speed><ele>2.2</ele><time>2026-08-07T16:02:08Z</time></trkpt>
<trkpt lat="48.8466656" lon="-123.3559749"><speed>8.527</speed><ele>2.3</ele><time>2026-08-07T16:02:13Z</time></trkpt>
<trkpt lat="48.8462730" lon="-123.3559911"><speed>8.550</speed><ele>1.6</ele><time>2026-08-07T16:02:18Z</time></trkpt>
<trkpt lat="48.8458854" lon="-123.3559858"><speed>8.560</speed><ele>2.2</ele><time>2026-08-07T16:02:23Z</time></trkpt>
<trkpt lat="48.8454947" lon="-123.3559504"><speed>8.531</speed><ele>3.0</ele><time>2026-08-07T16:02:28Z</time></trkpt>
<trkpt lat="48.8451077" lon="-123.3558763"><speed>8.335</speed><ele>2.2</ele><time>2026-08-07T16:02:33Z</time></trkpt>
<trkpt lat="48.8447535" lon="-123.3557574"><speed>8.366</speed><ele>2.3</ele><time>2026-08-07T16:02:38Z</time></trkpt>
<trkpt lat="48.8443999" lon="-123.3556082"><speed>8.440</speed><ele>2.3</ele><time>2026-08-07T16:02:43Z</time></trkpt>
<trkpt lat="48.8440433" lon="-123.3554347"><speed>7.920</speed><ele>1.7</ele><time>2026-08-07T16:02:48Z</time></trkpt>
<trkpt lat="48.8436777" lon="-123.3552544"><speed>8.395</speed><ele>2.1</ele><time>2026-08-07T16:02:53Z</time></trkpt>
<trkpt lat="48.8433135" lon="-123.3550804"><speed>8.459</speed><ele>1.9</ele><time>2026-08-07T16:02:58Z</time></trkpt>
<trkpt lat="48.8429594" lon="-123.3548761"><speed>8.381</speed><ele>2.5</ele><time>2026-08-07T16:03:03Z</time></trkpt>
<trkpt lat="48.8426074" lon="-123.3546673"><speed>8.511</speed><ele>2.0</ele><time>2026-08-07T16:03:08Z</time></trkpt>
<trkpt lat="48.8422431" lon="-123.3544625"><speed>8.603</speed><ele>2.4</ele><time>2026-08-07T16:03:13Z</time></trkpt>
<trkpt lat="48.8418726" lon="-123.3542602"><speed>8.595</speed><ele>2.2</ele><time>2026-08-07T16:03:18Z</time></trkpt>
<trkpt lat="48.8415125" lon="-123.3540344"><speed>8.726</speed><ele>2.2</ele><time>2026-08-07T16:03:23Z</time></trkpt>
<trkpt lat="48.8411515" lon="-123.3537908"><speed>8.779</speed><ele>1.9</ele><time>2026-08-07T16:03:28Z</time></trkpt>
<trkpt lat="48.8407883" lon="-123.3535422"><speed>8.820</speed><ele>2.3</ele><time>2026-08-07T16:03:33Z</time></trkpt>
<trkpt lat="48.8404305" lon="-123.3532843"><speed>8.247</speed><ele>2.2</ele><time>2026-08-07T16:03:38Z</time></trkpt>
<trkpt lat="48.8400777" lon="-123.3530555"><speed>8.466</speed><ele>1.9</ele><time>2026-08-07T16:03:43Z</time></trkpt>
<trkpt lat="48.8397095" lon="-123.3528098"><speed>8.466</speed><ele>1.8</ele><time>2026-08-07T16:03:48Z</time></trkpt>
<trkpt lat="48.8393357" lon="-123.3525477"><speed>8.706</speed><ele>1.6</ele><time>2026-08-07T16:03:53Z</time></trkpt>
<trkpt lat="48.8389538" lon="-123.3522686"><speed>8.735</speed><ele>2.4</ele><time>2026-08-07T16:03:58Z</time></trkpt>
<trkpt lat="48.8385953" lon="-123.3519984"><speed>8.634</speed><ele>2.4</ele><time>2026-08-07T16:04:03Z</time></trkpt>
<trkpt lat="48.8382448" lon="-123.3517379"><speed>8.827</speed><ele>3.0</ele><time>2026-08-07T16:04:08Z</time></trkpt>
<trkpt lat="48.8378883" lon="-123.3514880"><speed>8.966</speed><ele>2.3</ele><time>2026-08-07T16:04:13Z</time></trkpt>
<trkpt lat="48.8375169" lon="-123.3512312"><speed>9.039</speed><ele>2.4</ele><time>2026-08-07T16:04:18Z</time></trkpt>
<trkpt lat="48.8371462" lon="-123.3509653"><speed>9.040</speed><ele>2.2</ele><time>2026-08-07T16:04:23Z</time></trkpt>
<trkpt lat="48.8368029" lon="-123.3506823"><speed>9.041</speed><ele>2.1</ele><time>2026-08-07T16:04:28Z</time></trkpt>
<trkpt lat="48.8364436" lon="-123.3503989"><speed>9.050</speed><ele>2.0</ele><time>2026-08-07T16:04:33Z</time></trkpt>
<trkpt lat="48.8360703" lon="-123.3501311"><speed>8.672</speed><ele>2.6</ele><time>2026-08-07T16:04:38Z</time></trkpt>
<trkpt lat="48.8356954" lon="-123.3498518"><speed>8.653</speed><ele>2.4</ele><time>2026-08-07T16:04:43Z</time></trkpt>
<trkpt lat="48.8353247" lon="-123.3495726"><speed>8.656</speed><ele>2.2</ele><time>2026-08-07T16:04:48Z</time></trkpt>
<trkpt lat="48.8349626" lon="-123.3492553"><speed>8.728</speed><ele>2.1</ele><time>2026-08-07T16:04:53Z</time></trkpt>
<trkpt lat="48.8346025" lon="-123.3489528"><speed>8.760</speed><ele>2.7</ele><time>2026-08-07T16:04:58Z</time></trkpt>
<trkpt lat="48.8342354" lon="-123.3486705"><speed>9.027</speed><ele>2.5</ele><time>2026-08-07T16:05:03Z</time></trkpt>
<trkpt lat="48.8338764" lon="-123.3483485"><speed>9.135</speed><ele>2.8</ele><time>2026-08-07T16:05:08Z</time></trkpt>
<trkpt lat="48.8335110" lon="-123.3480487"><speed>9.141</speed><ele>2.7</ele><time>2026-08-07T16:05:13Z</time></trkpt>
<trkpt lat="48.8331545" lon="-123.3477603"><speed>9.179</speed><ele>2.6</ele><time>2026-08-07T16:05:18Z</time></trkpt>
<trkpt lat="48.8327935" lon="-123.3474633"><speed>9.150</speed><ele>2.4</ele><time>2026-08-07T16:05:23Z</time></trkpt>
<trkpt lat="48.8324272" lon="-123.3471536"><speed>9.210</speed><ele>2.9</ele><time>2026-08-07T16:05:28Z</time></trkpt>
<trkpt lat="48.8320562" lon="-123.3468668"><speed>9.187</speed><ele>2.7</ele><time>2026-08-07T16:05:33Z</time></trkpt>
<trkpt lat="48.8316842" lon="-123.3465887"><speed>9.158</speed><ele>2.7</ele><time>2026-08-07T16:05:38Z</time></trkpt>
<trkpt lat="48.8313124" lon="-123.3463382"><speed>9.169</speed><ele>2.7</ele><time>2026-08-07T16:05:43Z</time></trkpt>
<trkpt lat="48.8309390" lon="-123.3460992"><speed>9.170</speed><ele>2.1</ele><time>2026-08-07T16:05:48Z</time></trkpt>
<trkpt lat="48.8305540" lon="-123.3458747"><speed>9.160</speed><ele>2.4</ele><time>2026-08-07T16:05:53Z</time></trkpt>
<trkpt lat="48.8301646" lon="-123.3456787"><speed>9.118</speed><ele>2.1</ele><time>2026-08-07T16:05:58Z</time></trkpt>
<trkpt lat="48.8297725" lon="-123.3455061"><speed>9.010</speed><ele>2.8</ele><time>2026-08-07T16:06:03Z</time></trkpt>
<trkpt lat="48.8293760" lon="-123.3453529"><speed>9.019</speed><ele>2.4</ele><time>2026-08-07T16:06:08Z</time></trkpt>
<trkpt lat="48.8289813" lon="-123.3452100"><speed>8.991</speed><ele>2.7</ele><time>2026-08-07T16:06:13Z</time></trkpt>
<trkpt lat="48.8285876" lon="-123.3451040"><speed>8.973</speed><ele>2.6</ele><time>2026-08-07T16:06:18Z</time></trkpt>
<trkpt lat="48.8281887" lon="-123.3450182"><speed>8.974</speed><ele>2.5</ele><time>2026-08-07T16:06:23Z</time></trkpt>
<trkpt lat="48.8277916" lon="-123.3449426"><speed>8.940</speed><ele>2.4</ele><time>2026-08-07T16:06:28Z</time></trkpt>
<trkpt lat="48.8273870" lon="-123.3449008"><speed>8.939</speed><ele>2.4</ele><time>2026-08-07T16:06:33Z</time></trkpt>
<trkpt lat="48.8269782" lon="-123.3448526"><speed>8.953</speed><ele>2.4</ele><time>2026-08-07T16:06:38Z</time></trkpt>
<trkpt lat="48.8265735" lon="-123.3448392"><speed>8.932</speed><ele>2.5</ele><time>2026-08-07T16:06:43Z</time></trkpt>
<trkpt lat="48.8261662" lon="-123.3448257"><speed>8.964</speed><ele>2.0</ele><time>2026-08-07T16:06:48Z</time></trkpt>
<trkpt lat="48.8257644" lon="-123.3448043"><speed>8.972</speed><ele>2.7</ele><time>2026-08-07T16:06:53Z</time></trkpt>
<trkpt lat="48.8253620" lon="-123.3447960"><speed>8.987</speed><ele>2.3</ele><time>2026-08-07T16:06:58Z</time></trkpt>
<trkpt lat="48.8249572" lon="-123.3448016"><speed>9.014</speed><ele>2.5</ele><time>2026-08-07T16:07:03Z</time></trkpt>
<trkpt lat="48.8245472" lon="-123.3447943"><speed>9.031</speed><ele>2.3</ele><time>2026-08-07T16:07:08Z</time></trkpt>
<trkpt lat="48.8241416" lon="-123.3447589"><speed>8.958</speed><ele>2.7</ele><time>2026-08-07T16:07:13Z</time></trkpt>
<trkpt lat="48.8237298" lon="-123.3447627"><speed>9.023</speed><ele>3.3</ele><time>2026-08-07T16:07:18Z</time></trkpt>
<trkpt lat="48.8233326" lon="-123.3447374"><speed>9.229</speed><ele>2.7</ele><time>2026-08-07T16:07:23Z</time></trkpt>
<trkpt lat="48.8229213" lon="-123.3447179"><speed>9.659</speed><ele>3.0</ele><time>2026-08-07T16:07:28Z</time></trkpt>
<trkpt lat="48.8224800" lon="-123.3447107"><speed>10.231</speed><ele>2.4</ele><time>2026-08-07T16:07:33Z</time></trkpt>
<trkpt lat="48.8220321" lon="-123.3446874"><speed>10.585</speed><ele>3.0</ele><time>2026-08-07T16:07:38Z</time></trkpt>
<trkpt lat="48.8215741" lon="-123.3446981"><speed>10.198</speed><ele>3.0</ele><time>2026-08-07T16:07:43Z</time></trkpt>
<trkpt lat="48.8211405" lon="-123.3447332"><speed>9.487</speed><ele>3.9</ele><time>2026-08-07T16:07:48Z</time></trkpt>
<trkpt lat="48.8206878" lon="-123.3447427"><speed>10.199</speed><ele>3.5</ele><time>2026-08-07T16:07:53Z</time></trkpt>
<trkpt lat="48.8202350" lon="-123.3447355"><speed>9.719</speed><ele>4.3</ele><time>2026-08-07T16:07:58Z</time></trkpt>
<trkpt lat="48.8198186" lon="-123.3447785"><speed>9.263</speed><ele>4.2</ele><time>2026-08-07T16:08:03Z</time></trkpt>
<trkpt lat="48.8194146" lon="-123.3448192"><speed>8.937</speed><ele>4.1</ele><time>2026-08-07T16:08:08Z</time></trkpt>
<trkpt lat="48.8190034" lon="-123.3448417"><speed>9.210</speed><ele>3.7</ele><time>2026-08-07T16:08:13Z</time></trkpt>
<trkpt lat="48.8185908" lon="-123.3448465"><speed>9.221</speed><ele>4.2</ele><time>2026-08-07T16:08:18Z</time></trkpt>
<trkpt lat="48.8181853" lon="-123.3448430"><speed>9.241</speed><ele>3.8</ele><time>2026-08-07T16:08:23Z</time></trkpt>
<trkpt lat="48.8177961" lon="-123.3448380"><speed>9.245</speed><ele>4.4</ele><time>2026-08-07T16:08:28Z</time></trkpt>
<trkpt lat="48.8173902" lon="-123.3448447"><speed>9.239</speed><ele>4.4</ele><time>2026-08-07T16:08:33Z</time></trkpt>
<trkpt lat="48.8169789" lon="-123.3448455"><speed>9.286</speed><ele>4.7</ele><time>2026-08-07T16:08:38Z</time></trkpt>
<trkpt lat="48.8165607" lon="-123.3448366"><speed>9.306</speed><ele>5.1</ele><time>2026-08-07T16:08:43Z</time></trkpt>
<trkpt lat="48.8161367" lon="-123.3448155"><speed>9.349</speed><ele>4.7</ele><time>2026-08-07T16:08:48Z</time></trkpt>
<trkpt lat="48.8157148" lon="-123.3448152"><speed>9.340</speed><ele>4.8</ele><time>2026-08-07T16:08:53Z</time></trkpt>
<trkpt lat="48.8152844" lon="-123.3448098"><speed>9.348</speed><ele>4.6</ele><time>2026-08-07T16:08:58Z</time></trkpt>
<trkpt lat="48.8148740" lon="-123.3448050"><speed>9.250</speed><ele>4.7</ele><time>2026-08-07T16:09:03Z</time></trkpt>
<trkpt lat="48.8144584" lon="-123.3448000"><speed>9.328</speed><ele>4.9</ele><time>2026-08-07T16:09:08Z</time></trkpt>
<trkpt lat="48.8140409" lon="-123.3448040"><speed>9.362</speed><ele>5.4</ele><time>2026-08-07T16:09:13Z</time></trkpt>
<trkpt lat="48.8136259" lon="-123.3448012"><speed>9.321</speed><ele>4.9</ele><time>2026-08-07T16:09:18Z</time></trkpt>
<trkpt lat="48.8132062" lon="-123.3447964"><speed>9.369</speed><ele>5.3</ele><time>2026-08-07T16:09:23Z</time></trkpt>
<trkpt lat="48.8127808" lon="-123.3448059"><speed>9.344</speed><ele>4.8</ele><time>2026-08-07T16:09:28Z</time></trkpt>
<trkpt lat="48.8123529" lon="-123.3448128"><speed>9.376</speed><ele>5.1</ele><time>2026-08-07T16:09:33Z</time></trkpt>
<trkpt lat="48.8119375" lon="-123.3448025"><speed>9.400</speed><ele>4.9</ele><time>2026-08-07T16:09:38Z</time></trkpt>
<trkpt lat="48.8115191" lon="-123.3448082"><speed>9.391</speed><ele>5.0</ele><time>2026-08-07T16:09:43Z</time></trkpt>
<trkpt lat="48.8110949" lon="-123.3448074"><speed>9.430</speed><ele>4.8</ele><time>2026-08-07T16:09:48Z</time></trkpt>
<trkpt lat="48.8106812" lon="-123.3447988"><speed>9.420</speed><ele>5.2</ele><time>2026-08-07T16:09:53Z</time></trkpt>
<trkpt lat="48.8102512" lon="-123.3448042"><speed>9.526</speed><ele>4.8</ele><time>2026-08-07T16:09:58Z</time></trkpt>
<trkpt lat="48.8098304" lon="-123.3448484"><speed>9.469</speed><ele>5.1</ele><time>2026-08-07T16:10:03Z</time></trkpt>
<trkpt lat="48.8093933" lon="-123.3448045"><speed>9.362</speed><ele>4.7</ele><time>2026-08-07T16:10:08Z</time></trkpt>
<trkpt lat="48.8089585" lon="-123.3448093"><speed>9.438</speed><ele>4.9</ele><time>2026-08-07T16:10:13Z</time></trkpt>
<trkpt lat="48.8085343" lon="-123.3448242"><speed>9.460</speed><ele>4.5</ele><time>2026-08-07T16:10:18Z</time></trkpt>
<trkpt lat="48.8081147" lon="-123.3448335"><speed>9.480</speed><ele>5.0</ele><time>2026-08-07T16:10:23Z</time></trkpt>
<trkpt lat="48.8076833" lon="-123.3448418"><speed>9.517</speed><ele>5.3</ele><time>2026-08-07T16:10:28Z</time></trkpt>
<trkpt lat="48.8072635" lon="-123.3448476"><speed>9.486</speed><ele>5.7</ele><time>2026-08-07T16:10:33Z</time></trkpt>
<trkpt lat="48.8068337" lon="-123.3448531"><speed>9.558</speed><ele>5.2</ele><time>2026-08-07T16:10:38Z</time></trkpt>
<trkpt lat="48.8063960" lon="-123.3448888"><speed>9.567</speed><ele>5.1</ele><time>2026-08-07T16:10:43Z</time></trkpt>
<trkpt lat="48.8059589" lon="-123.3449396"><speed>9.632</speed><ele>4.5</ele><time>2026-08-07T16:10:48Z</time></trkpt>
<trkpt lat="48.8055350" lon="-123.3449748"><speed>9.584</speed><ele>5.3</ele><time>2026-08-07T16:10:53Z</time></trkpt>
<trkpt lat="48.8051085" lon="-123.3449985"><speed>9.586</speed><ele>5.1</ele><time>2026-08-07T16:10:58Z</time></trkpt>
<trkpt lat="48.8046816" lon="-123.3450274"><speed>9.564</speed><ele>5.4</ele><time>2026-08-07T16:11:03Z</time></trkpt>
<trkpt lat="48.8042599" lon="-123.3450593"><speed>9.612</speed><ele>5.1</ele><time>2026-08-07T16:11:08Z</time></trkpt>
<trkpt lat="48.8038351" lon="-123.3451022"><speed>9.596</speed><ele>5.1</ele><time>2026-08-07T16:11:13Z</time></trkpt>
<trkpt lat="48.8034099" lon="-123.3451357"><speed>9.600</speed><ele>4.8</ele><time>2026-08-07T16:11:18Z</time></trkpt>
<trkpt lat="48.8029740" lon="-123.3451686"><speed>9.601</speed><ele>5.4</ele><time>2026-08-07T16:11:23Z</time></trkpt>
<trkpt lat="48.8025365" lon="-123.3452025"><speed>9.630</speed><ele>5.3</ele><time>2026-08-07T16:11:28Z</time></trkpt>
<trkpt lat="48.8020985" lon="-123.3452418"><speed>9.630</speed><ele>5.2</ele><time>2026-08-07T16:11:33Z</time></trkpt>
<trkpt lat="48.8016630" lon="-123.3452779"><speed>9.649</speed><ele>5.0</ele><time>2026-08-07T16:11:38Z</time></trkpt>
<trkpt lat="48.8012405" lon="-123.3452998"><speed>8.882</speed><ele>5.0</ele><time>2026-08-07T16:11:43Z</time></trkpt>
<trkpt lat="48.8008031" lon="-123.3453284"><speed>9.543</speed><ele>5.7</ele><time>2026-08-07T16:11:48Z</time></trkpt>
<trkpt lat="48.8003499" lon="-123.3453487"><speed>9.656</speed><ele>5.2</ele><time>2026-08-07T16:11:53Z</time></trkpt>
<trkpt lat="48.7998957" lon="-123.3453669"><speed>9.665</speed><ele>5.1</ele><time>2026-08-07T16:11:58Z</time></trkpt>
<trkpt lat="48.7994517" lon="-123.3453712"><speed>9.674</speed><ele>4.6</ele><time>2026-08-07T16:12:03Z</time></trkpt>
<trkpt lat="48.7990075" lon="-123.3453813"><speed>9.672</speed><ele>5.2</ele><time>2026-08-07T16:12:08Z</time></trkpt>
<trkpt lat="48.7985688" lon="-123.3454065"><speed>9.690</speed><ele>4.8</ele><time>2026-08-07T16:12:13Z</time></trkpt>
<trkpt lat="48.7981388" lon="-123.3454576"><speed>9.690</speed><ele>5.4</ele><time>2026-08-07T16:12:18Z</time></trkpt>
<trkpt lat="48.7977146" lon="-123.3455130"><speed>9.650</speed><ele>5.2</ele><time>2026-08-07T16:12:23Z</time></trkpt>
<trkpt lat="48.7973119" lon="-123.3456724"><speed>10.645</speed><ele>5.5</ele><time>2026-08-07T16:12:28Z</time></trkpt>
<trkpt lat="48.7968697" lon="-123.3457034"><speed>9.710</speed><ele>5.3</ele><time>2026-08-07T16:12:33Z</time></trkpt>
<trkpt lat="48.7964259" lon="-123.3457489"><speed>9.700</speed><ele>4.5</ele><time>2026-08-07T16:12:38Z</time></trkpt>
<trkpt lat="48.7959788" lon="-123.3457902"><speed>9.860</speed><ele>4.5</ele><time>2026-08-07T16:12:43Z</time></trkpt>
<trkpt lat="48.7955137" lon="-123.3458250"><speed>9.645</speed><ele>5.3</ele><time>2026-08-07T16:12:48Z</time></trkpt>
<trkpt lat="48.7950778" lon="-123.3458696"><speed>9.702</speed><ele>5.3</ele><time>2026-08-07T16:12:53Z</time></trkpt>
<trkpt lat="48.7946483" lon="-123.3459215"><speed>9.696</speed><ele>5.2</ele><time>2026-08-07T16:12:58Z</time></trkpt>
<trkpt lat="48.7942138" lon="-123.3459702"><speed>9.709</speed><ele>4.7</ele><time>2026-08-07T16:13:03Z</time></trkpt>
<trkpt lat="48.7937726" lon="-123.3460166"><speed>9.700</speed><ele>4.5</ele><time>2026-08-07T16:13:08Z</time></trkpt>
<trkpt lat="48.7933418" lon="-123.3460716"><speed>9.588</speed><ele>4.6</ele><time>2026-08-07T16:13:13Z</time></trkpt>
<trkpt lat="48.7929726" lon="-123.3461320"><speed>7.939</speed><ele>5.0</ele><time>2026-08-07T16:13:18Z</time></trkpt>
<trkpt lat="48.7925641" lon="-123.3462304"><speed>9.334</speed><ele>5.1</ele><time>2026-08-07T16:13:23Z</time></trkpt>
<trkpt lat="48.7921093" lon="-123.3462797"><speed>9.710</speed><ele>4.9</ele><time>2026-08-07T16:13:28Z</time></trkpt>
<trkpt lat="48.7916626" lon="-123.3463247"><speed>9.698</speed><ele>4.8</ele><time>2026-08-07T16:13:33Z</time></trkpt>
<trkpt lat="48.7912136" lon="-123.3463870"><speed>9.728</speed><ele>4.9</ele><time>2026-08-07T16:13:38Z</time></trkpt>
<trkpt lat="48.7907758" lon="-123.3464658"><speed>9.184</speed><ele>4.9</ele><time>2026-08-07T16:13:43Z</time></trkpt>
<trkpt lat="48.7903246" lon="-123.3465156"><speed>9.744</speed><ele>5.3</ele><time>2026-08-07T16:13:48Z</time></trkpt>
<trkpt lat="48.7899149" lon="-123.3465047"><speed>9.707</speed><ele>5.2</ele><time>2026-08-07T16:13:53Z</time></trkpt>
<trkpt lat="48.7894790" lon="-123.3465631"><speed>9.714</speed><ele>4.5</ele><time>2026-08-07T16:13:58Z</time></trkpt>
<trkpt lat="48.7890390" lon="-123.3466180"><speed>9.696</speed><ele>4.4</ele><time>2026-08-07T16:14:03Z</time></trkpt>
<trkpt lat="48.7885944" lon="-123.3466594"><speed>9.694</speed><ele>4.3</ele><time>2026-08-07T16:14:08Z</time></trkpt>
<trkpt lat="48.7881549" lon="-123.3467056"><speed>9.698</speed><ele>5.1</ele><time>2026-08-07T16:14:13Z</time></trkpt>
<trkpt lat="48.7877290" lon="-123.3467710"><speed>9.672</speed><ele>4.9</ele><time>2026-08-07T16:14:18Z</time></trkpt>
<trkpt lat="48.7872935" lon="-123.3468270"><speed>9.671</speed><ele>5.1</ele><time>2026-08-07T16:14:23Z</time></trkpt>
<trkpt lat="48.7868634" lon="-123.3468678"><speed>9.730</speed><ele>4.9</ele><time>2026-08-07T16:14:28Z</time></trkpt>
<trkpt lat="48.7864391" lon="-123.3468966"><speed>9.730</speed><ele>4.6</ele><time>2026-08-07T16:14:33Z</time></trkpt>
<trkpt lat="48.7860088" lon="-123.3469556"><speed>9.740</speed><ele>4.7</ele><time>2026-08-07T16:14:38Z</time></trkpt>
<trkpt lat="48.7855569" lon="-123.3470379"><speed>9.750</speed><ele>4.5</ele><time>2026-08-07T16:14:43Z</time></trkpt>
<trkpt lat="48.7851170" lon="-123.3470934"><speed>9.760</speed><ele>5.0</ele><time>2026-08-07T16:14:48Z</time></trkpt>
<trkpt lat="48.7846842" lon="-123.3471522"><speed>9.760</speed><ele>4.9</ele><time>2026-08-07T16:14:53Z</time></trkpt>
<trkpt lat="48.7842402" lon="-123.3471976"><speed>9.770</speed><ele>5.1</ele><time>2026-08-07T16:14:58Z</time></trkpt>
<trkpt lat="48.7837973" lon="-123.3472569"><speed>9.760</speed><ele>4.2</ele><time>2026-08-07T16:15:03Z</time></trkpt>
<trkpt lat="48.7833523" lon="-123.3473192"><speed>9.730</speed><ele>4.8</ele><time>2026-08-07T16:15:08Z</time></trkpt>
<trkpt lat="48.7829167" lon="-123.3473477"><speed>9.710</speed><ele>4.5</ele><time>2026-08-07T16:15:13Z</time></trkpt>
<trkpt lat="48.7824764" lon="-123.3473645"><speed>9.660</speed><ele>4.7</ele><time>2026-08-07T16:15:18Z</time></trkpt>
<trkpt lat="48.7820266" lon="-123.3473984"><speed>9.690</speed><ele>4.7</ele><time>2026-08-07T16:15:23Z</time></trkpt>
<trkpt lat="48.7815856" lon="-123.3474259"><speed>9.660</speed><ele>4.8</ele><time>2026-08-07T16:15:28Z</time></trkpt>
<trkpt lat="48.7811561" lon="-123.3474668"><speed>9.670</speed><ele>4.5</ele><time>2026-08-07T16:15:33Z</time></trkpt>
<trkpt lat="48.7807393" lon="-123.3474860"><speed>9.670</speed><ele>4.3</ele><time>2026-08-07T16:15:38Z</time></trkpt>
<trkpt lat="48.7803005" lon="-123.3475160"><speed>9.660</speed><ele>4.6</ele><time>2026-08-07T16:15:43Z</time></trkpt>
<trkpt lat="48.7798729" lon="-123.3475388"><speed>9.690</speed><ele>4.5</ele><time>2026-08-07T16:15:48Z</time></trkpt>
<trkpt lat="48.7794343" lon="-123.3475545"><speed>9.640</speed><ele>4.5</ele><time>2026-08-07T16:15:53Z</time></trkpt>
<trkpt lat="48.7790021" lon="-123.3475704"><speed>9.630</speed><ele>4.1</ele><time>2026-08-07T16:15:58Z</time></trkpt>
<trkpt lat="48.7785667" lon="-123.3475919"><speed>9.630</speed><ele>4.4</ele><time>2026-08-07T16:16:03Z</time></trkpt>
<trkpt lat="48.7781300" lon="-123.3476132"><speed>9.650</speed><ele>3.9</ele><time>2026-08-07T16:16:08Z</time></trkpt>
<trkpt lat="48.7777006" lon="-123.3476311"><speed>9.640</speed><ele>4.2</ele><time>2026-08-07T16:16:13Z</time></trkpt>
<trkpt lat="48.7772652" lon="-123.3476601"><speed>9.680</speed><ele>4.4</ele><time>2026-08-07T16:16:18Z</time></trkpt>
<trkpt lat="48.7768276" lon="-123.3476789"><speed>9.700</speed><ele>4.4</ele><time>2026-08-07T16:16:23Z</time></trkpt>
<trkpt lat="48.7763906" lon="-123.3476912"><speed>9.680</speed><ele>3.8</ele><time>2026-08-07T16:16:28Z</time></trkpt>
<trkpt lat="48.7759527" lon="-123.3477498"><speed>10.260</speed><ele>4.5</ele><time>2026-08-07T16:16:33Z</time></trkpt>
<trkpt lat="48.7755031" lon="-123.3477491"><speed>10.480</speed><ele>3.4</ele><time>2026-08-07T16:16:38Z</time></trkpt>
<trkpt lat="48.7750777" lon="-123.3477779"><speed>9.720</speed><ele>4.1</ele><time>2026-08-07T16:16:43Z</time></trkpt>
<trkpt lat="48.7746349" lon="-123.3477813"><speed>9.730</speed><ele>4.2</ele><time>2026-08-07T16:16:48Z</time></trkpt>
<trkpt lat="48.7741920" lon="-123.3478047"><speed>9.730</speed><ele>4.2</ele><time>2026-08-07T16:16:53Z</time></trkpt>
<trkpt lat="48.7737509" lon="-123.3478431"><speed>9.710</speed><ele>4.0</ele><time>2026-08-07T16:16:58Z</time></trkpt>
<trkpt lat="48.7733066" lon="-123.3478857"><speed>9.730</speed><ele>3.4</ele><time>2026-08-07T16:17:03Z</time></trkpt>
<trkpt lat="48.7728747" lon="-123.3479094"><speed>9.740</speed><ele>3.8</ele><time>2026-08-07T16:17:08Z</time></trkpt>
<trkpt lat="48.7724348" lon="-123.3479429"><speed>9.730</speed><ele>4.0</ele><time>2026-08-07T16:17:13Z</time></trkpt>
<trkpt lat="48.7720035" lon="-123.3479828"><speed>9.740</speed><ele>3.9</ele><time>2026-08-07T16:17:18Z</time></trkpt>
<trkpt lat="48.7715840" lon="-123.3480184"><speed>9.730</speed><ele>4.3</ele><time>2026-08-07T16:17:23Z</time></trkpt>
<trkpt lat="48.7711413" lon="-123.3480449"><speed>9.770</speed><ele>3.5</ele><time>2026-08-07T16:17:28Z</time></trkpt>
<trkpt lat="48.7707067" lon="-123.3480737"><speed>9.740</speed><ele>3.9</ele><time>2026-08-07T16:17:33Z</time></trkpt>
<trkpt lat="48.7702731" lon="-123.3480927"><speed>9.740</speed><ele>3.5</ele><time>2026-08-07T16:17:38Z</time></trkpt>
<trkpt lat="48.7698328" lon="-123.3481216"><speed>9.760</speed><ele>3.8</ele><time>2026-08-07T16:17:43Z</time></trkpt>
<trkpt lat="48.7693874" lon="-123.3481446"><speed>9.750</speed><ele>3.6</ele><time>2026-08-07T16:17:48Z</time></trkpt>
<trkpt lat="48.7689491" lon="-123.3481789"><speed>9.730</speed><ele>3.6</ele><time>2026-08-07T16:17:53Z</time></trkpt>
<trkpt lat="48.7685207" lon="-123.3481909"><speed>9.750</speed><ele>3.0</ele><time>2026-08-07T16:17:58Z</time></trkpt>
<trkpt lat="48.7681009" lon="-123.3482291"><speed>9.770</speed><ele>3.6</ele><time>2026-08-07T16:18:03Z</time></trkpt>
<trkpt lat="48.7676591" lon="-123.3482625"><speed>9.740</speed><ele>3.5</ele><time>2026-08-07T16:18:08Z</time></trkpt>
<trkpt lat="48.7672227" lon="-123.3482673"><speed>9.760</speed><ele>3.6</ele><time>2026-08-07T16:18:13Z</time></trkpt>
<trkpt lat="48.7667793" lon="-123.3482575"><speed>9.730</speed><ele>3.3</ele><time>2026-08-07T16:18:18Z</time></trkpt>
<trkpt lat="48.7663498" lon="-123.3482637"><speed>9.780</speed><ele>3.6</ele><time>2026-08-07T16:18:23Z</time></trkpt>
<trkpt lat="48.7659116" lon="-123.3482633"><speed>9.750</speed><ele>3.6</ele><time>2026-08-07T16:18:28Z</time></trkpt>
<trkpt lat="48.7654543" lon="-123.3482592"><speed>9.760</speed><ele>3.4</ele><time>2026-08-07T16:18:33Z</time></trkpt>
<trkpt lat="48.7650038" lon="-123.3482593"><speed>9.760</speed><ele>3.2</ele><time>2026-08-07T16:18:38Z</time></trkpt>
<trkpt lat="48.7645560" lon="-123.3482744"><speed>9.790</speed><ele>3.1</ele><time>2026-08-07T16:18:43Z</time></trkpt>
<trkpt lat="48.7641142" lon="-123.3482985"><speed>9.830</speed><ele>3.6</ele><time>2026-08-07T16:18:48Z</time></trkpt>
<trkpt lat="48.7636797" lon="-123.3482955"><speed>9.810</speed><ele>3.5</ele><time>2026-08-07T16:18:53Z</time></trkpt>
<trkpt lat="48.7632431" lon="-123.3482894"><speed>9.790</speed><ele>4.2</ele><time>2026-08-07T16:18:58Z</time></trkpt>
<trkpt lat="48.7627994" lon="-123.3482917"><speed>9.830</speed><ele>3.2</ele><time>2026-08-07T16:19:03Z</time></trkpt>
<trkpt lat="48.7623600" lon="-123.3482949"><speed>9.820</speed><ele>3.9</ele><time>2026-08-07T16:19:08Z</time></trkpt>
<trkpt lat="48.7619132" lon="-123.3482995"><speed>9.850</speed><ele>3.3</ele><time>2026-08-07T16:19:13Z</time></trkpt>
<trkpt lat="48.7614685" lon="-123.3482969"><speed>9.890</speed><ele>3.7</ele><time>2026-08-07T16:19:18Z</time></trkpt>
<trkpt lat="48.7610347" lon="-123.3483034"><speed>9.890</speed><ele>3.4</ele><time>2026-08-07T16:19:23Z</time></trkpt>
<trkpt lat="48.7605988" lon="-123.3482971"><speed>9.870</speed><ele>4.1</ele><time>2026-08-07T16:19:28Z</time></trkpt>
<trkpt lat="48.7601571" lon="-123.3482990"><speed>9.850</speed><ele>3.5</ele><time>2026-08-07T16:19:33Z</time></trkpt>
<trkpt lat="48.7597150" lon="-123.3482877"><speed>9.900</speed><ele>4.2</ele><time>2026-08-07T16:19:38Z</time></trkpt>
<trkpt lat="48.7592712" lon="-123.3482967"><speed>9.880</speed><ele>3.6</ele><time>2026-08-07T16:19:43Z</time></trkpt>
<trkpt lat="48.7588211" lon="-123.3482946"><speed>9.900</speed><ele>3.9</ele><time>2026-08-07T16:19:48Z</time></trkpt>
<trkpt lat="48.7583746" lon="-123.3483008"><speed>9.920</speed><ele>4.0</ele><time>2026-08-07T16:19:53Z</time></trkpt>
<trkpt lat="48.7579365" lon="-123.3483047"><speed>9.890</speed><ele>3.7</ele><time>2026-08-07T16:19:58Z</time></trkpt>
<trkpt lat="48.7574970" lon="-123.3483007"><speed>9.910</speed><ele>3.5</ele><time>2026-08-07T16:20:03Z</time></trkpt>
<trkpt lat="48.7570510" lon="-123.3482981"><speed>9.820</speed><ele>3.6</ele><time>2026-08-07T16:20:08Z</time></trkpt>
<trkpt lat="48.7565995" lon="-123.3482859"><speed>9.920</speed><ele>4.4</ele><time>2026-08-07T16:20:13Z</time></trkpt>
<trkpt lat="48.7561414" lon="-123.3482685"><speed>9.930</speed><ele>4.1</ele><time>2026-08-07T16:20:18Z</time></trkpt>
<trkpt lat="48.7556922" lon="-123.3482645"><speed>9.910</speed><ele>4.0</ele><time>2026-08-07T16:20:23Z</time></trkpt>
<trkpt lat="48.7552439" lon="-123.3482526"><speed>9.880</speed><ele>3.4</ele><time>2026-08-07T16:20:28Z</time></trkpt>
<trkpt lat="48.7548006" lon="-123.3482293"><speed>9.890</speed><ele>3.4</ele><time>2026-08-07T16:20:33Z</time></trkpt>
<trkpt lat="48.7543522" lon="-123.3481943"><speed>9.910</speed><ele>3.0</ele><time>2026-08-07T16:20:38Z</time></trkpt>
<trkpt lat="48.7539090" lon="-123.3481698"><speed>9.940</speed><ele>3.9</ele><time>2026-08-07T16:20:43Z</time></trkpt>
<trkpt lat="48.7534746" lon="-123.3481243"><speed>9.960</speed><ele>3.9</ele><time>2026-08-07T16:20:48Z</time></trkpt>
<trkpt lat="48.7530315" lon="-123.3480770"><speed>9.960</speed><ele>4.5</ele><time>2026-08-07T16:20:53Z</time></trkpt>
<trkpt lat="48.7525922" lon="-123.3480234"><speed>9.870</speed><ele>3.2</ele><time>2026-08-07T16:20:58Z</time></trkpt>
<trkpt lat="48.7521307" lon="-123.3479696"><speed>10.040</speed><ele>3.1</ele><time>2026-08-07T16:21:03Z</time></trkpt>
<trkpt lat="48.7516958" lon="-123.3479286"><speed>9.490</speed><ele>3.1</ele><time>2026-08-07T16:21:08Z</time></trkpt>
<trkpt lat="48.7512171" lon="-123.3478919"><speed>10.050</speed><ele>3.9</ele><time>2026-08-07T16:21:13Z</time></trkpt>
<trkpt lat="48.7507727" lon="-123.3478240"><speed>10.020</speed><ele>3.4</ele><time>2026-08-07T16:21:18Z</time></trkpt>
<trkpt lat="48.7503265" lon="-123.3477608"><speed>10.310</speed><ele>4.1</ele><time>2026-08-07T16:21:23Z</time></trkpt>
<trkpt lat="48.7498772" lon="-123.3476891"><speed>10.080</speed><ele>3.2</ele><time>2026-08-07T16:21:28Z</time></trkpt>
<trkpt lat="48.7494247" lon="-123.3476278"><speed>10.100</speed><ele>3.5</ele><time>2026-08-07T16:21:33Z</time></trkpt>
<trkpt lat="48.7489743" lon="-123.3475858"><speed>10.090</speed><ele>3.7</ele><time>2026-08-07T16:21:38Z</time></trkpt>
<trkpt lat="48.7485210" lon="-123.3475421"><speed>10.120</speed><ele>4.0</ele><time>2026-08-07T16:21:43Z</time></trkpt>
<trkpt lat="48.7480715" lon="-123.3475076"><speed>10.030</speed><ele>3.9</ele><time>2026-08-07T16:21:48Z</time></trkpt>
<trkpt lat="48.7476431" lon="-123.3474926"><speed>9.220</speed><ele>3.6</ele><time>2026-08-07T16:21:53Z</time></trkpt>
<trkpt lat="48.7471800" lon="-123.3474645"><speed>10.160</speed><ele>2.9</ele><time>2026-08-07T16:21:58Z</time></trkpt>
<trkpt lat="48.7467095" lon="-123.3474289"><speed>10.040</speed><ele>3.6</ele><time>2026-08-07T16:22:03Z</time></trkpt>
<trkpt lat="48.7462587" lon="-123.3473764"><speed>10.180</speed><ele>3.7</ele><time>2026-08-07T16:22:08Z</time></trkpt>
<trkpt lat="48.7458057" lon="-123.3473315"><speed>10.130</speed><ele>4.9</ele><time>2026-08-07T16:22:13Z</time></trkpt>
<trkpt lat="48.7453489" lon="-123.3472939"><speed>10.080</speed><ele>4.8</ele><time>2026-08-07T16:22:18Z</time></trkpt>
<trkpt lat="48.7449015" lon="-123.3472780"><speed>10.050</speed><ele>3.7</ele><time>2026-08-07T16:22:23Z</time></trkpt>
<trkpt lat="48.7444583" lon="-123.3472455"><speed>10.010</speed><ele>3.3</ele><time>2026-08-07T16:22:28Z</time></trkpt>
<trkpt lat="48.7440146" lon="-123.3472061"><speed>10.000</speed><ele>4.1</ele><time>2026-08-07T16:22:33Z</time></trkpt>
<trkpt lat="48.7435624" lon="-123.3471726"><speed>10.150</speed><ele>3.9</ele><time>2026-08-07T16:22:38Z</time></trkpt>
<trkpt lat="48.7431384" lon="-123.3471919"><speed>9.900</speed><ele>5.0</ele><time>2026-08-07T16:22:43Z</time></trkpt>
<trkpt lat="48.7427337" lon="-123.3471852"><speed>10.030</speed><ele>4.9</ele><time>2026-08-07T16:22:48Z</time></trkpt>
<trkpt lat="48.7422719" lon="-123.3471657"><speed>10.030</speed><ele>3.9</ele><time>2026-08-07T16:22:53Z</time></trkpt>
<trkpt lat="48.7418108" lon="-123.3471361"><speed>10.020</speed><ele>3.5</ele><time>2026-08-07T16:22:58Z</time></trkpt>
<trkpt lat="48.7413547" lon="-123.3471197"><speed>10.000</speed><ele>4.5</ele><time>2026-08-07T16:23:03Z</time></trkpt>
<trkpt lat="48.7408926" lon="-123.3471070"><speed>10.000</speed><ele>5.6</ele><time>2026-08-07T16:23:08Z</time></trkpt>
<trkpt lat="48.7404503" lon="-123.3470692"><speed>9.900</speed><ele>5.2</ele><time>2026-08-07T16:23:13Z</time></trkpt>
<trkpt lat="48.7400091" lon="-123.3470383"><speed>9.960</speed><ele>5.4</ele><time>2026-08-07T16:23:18Z</time></trkpt>
<trkpt lat="48.7395515" lon="-123.3470257"><speed>9.960</speed><ele>4.5</ele><time>2026-08-07T16:23:23Z</time></trkpt>
<trkpt lat="48.7390974" lon="-123.3470197"><speed>9.990</speed><ele>4.7</ele><time>2026-08-07T16:23:28Z</time></trkpt>
<trkpt lat="48.7386488" lon="-123.3469979"><speed>9.970</speed><ele>4.7</ele><time>2026-08-07T16:23:33Z</time></trkpt>
<trkpt lat="48.7382112" lon="-123.3469730"><speed>9.940</speed><ele>5.9</ele><time>2026-08-07T16:23:38Z</time></trkpt>
<trkpt lat="48.7377654" lon="-123.3469562"><speed>9.910</speed><ele>5.4</ele><time>2026-08-07T16:23:43Z</time></trkpt>
<trkpt lat="48.7373253" lon="-123.3469181"><speed>9.920</speed><ele>5.7</ele><time>2026-08-07T16:23:48Z</time></trkpt>
<trkpt lat="48.7368838" lon="-123.3469061"><speed>9.870</speed><ele>5.2</ele><time>2026-08-07T16:23:53Z</time></trkpt>
<trkpt lat="48.7364391" lon="-123.3468825"><speed>9.800</speed><ele>4.6</ele><time>2026-08-07T16:23:58Z</time></trkpt>
<trkpt lat="48.7359942" lon="-123.3468728"><speed>9.550</speed><ele>4.9</ele><time>2026-08-07T16:24:03Z</time></trkpt>
<trkpt lat="48.7355484" lon="-123.3468716"><speed>9.570</speed><ele>5.6</ele><time>2026-08-07T16:24:08Z</time></trkpt>
<trkpt lat="48.7351162" lon="-123.3468422"><speed>9.460</speed><ele>5.2</ele><time>2026-08-07T16:24:13Z</time></trkpt>
<trkpt lat="48.7346925" lon="-123.3468367"><speed>9.380</speed><ele>5.5</ele><time>2026-08-07T16:24:18Z</time></trkpt>
<trkpt lat="48.7342582" lon="-123.3468009"><speed>9.470</speed><ele>4.9</ele><time>2026-08-07T16:24:23Z</time></trkpt>
<trkpt lat="48.7338308" lon="-123.3467689"><speed>9.500</speed><ele>4.0</ele><time>2026-08-07T16:24:28Z</time></trkpt>
<trkpt lat="48.7333998" lon="-123.3467416"><speed>9.690</speed><ele>5.3</ele><time>2026-08-07T16:24:33Z</time></trkpt>
<trkpt lat="48.7329611" lon="-123.3467220"><speed>9.870</speed><ele>5.3</ele><time>2026-08-07T16:24:38Z</time></trkpt>
<trkpt lat="48.7325255" lon="-123.3466990"><speed>9.880</speed><ele>5.7</ele><time>2026-08-07T16:24:43Z</time></trkpt>
<trkpt lat="48.7320949" lon="-123.3466765"><speed>9.800</speed><ele>5.4</ele><time>2026-08-07T16:24:48Z</time></trkpt>
<trkpt lat="48.7316558" lon="-123.3466529"><speed>9.960</speed><ele>5.9</ele><time>2026-08-07T16:24:53Z</time></trkpt>
<trkpt lat="48.7312174" lon="-123.3466083"><speed>9.920</speed><ele>5.5</ele><time>2026-08-07T16:24:58Z</time></trkpt>
<trkpt lat="48.7307698" lon="-123.3465877"><speed>10.000</speed><ele>6.0</ele><time>2026-08-07T16:25:03Z</time></trkpt>
<trkpt lat="48.7303143" lon="-123.3465641"><speed>9.970</speed><ele>6.1</ele><time>2026-08-07T16:25:08Z</time></trkpt>
<trkpt lat="48.7298668" lon="-123.3465326"><speed>9.960</speed><ele>5.9</ele><time>2026-08-07T16:25:13Z</time></trkpt>
<trkpt lat="48.7294257" lon="-123.3464808"><speed>9.520</speed><ele>6.5</ele><time>2026-08-07T16:25:18Z</time></trkpt>
<trkpt lat="48.7289752" lon="-123.3464515"><speed>10.680</speed><ele>6.4</ele><time>2026-08-07T16:25:23Z</time></trkpt>
<trkpt lat="48.7285579" lon="-123.3464239"><speed>6.100</speed><ele>7.1</ele><time>2026-08-07T16:25:28Z</time></trkpt>
<trkpt lat="48.7281107" lon="-123.3464549"><speed>9.840</speed><ele>6.7</ele><time>2026-08-07T16:25:33Z</time></trkpt>
<trkpt lat="48.7276304" lon="-123.3464074"><speed>9.670</speed><ele>6.9</ele><time>2026-08-07T16:25:38Z</time></trkpt>
<trkpt lat="48.7271667" lon="-123.3463873"><speed>9.950</speed><ele>6.5</ele><time>2026-08-07T16:25:43Z</time></trkpt>
<trkpt lat="48.7267071" lon="-123.3463454"><speed>9.970</speed><ele>6.6</ele><time>2026-08-07T16:25:48Z</time></trkpt>
<trkpt lat="48.7262550" lon="-123.3463055"><speed>9.950</speed><ele>6.8</ele><time>2026-08-07T16:25:53Z</time></trkpt>
<trkpt lat="48.7257975" lon="-123.3462751"><speed>9.940</speed><ele>7.3</ele><time>2026-08-07T16:25:58Z</time></trkpt>
<trkpt lat="48.7253392" lon="-123.3462613"><speed>9.960</speed><ele>6.7</ele><time>2026-08-07T16:26:03Z</time></trkpt>
<trkpt lat="48.7248897" lon="-123.3462323"><speed>9.880</speed><ele>6.2</ele><time>2026-08-07T16:26:08Z</time></trkpt>
<trkpt lat="48.7244490" lon="-123.3462186"><speed>9.250</speed><ele>5.8</ele><time>2026-08-07T16:26:13Z</time></trkpt>
<trkpt lat="48.7239926" lon="-123.3462164"><speed>9.850</speed><ele>6.4</ele><time>2026-08-07T16:26:18Z</time></trkpt>
<trkpt lat="48.7235680" lon="-123.3461733"><speed>9.910</speed><ele>6.3</ele><time>2026-08-07T16:26:23Z</time></trkpt>
<trkpt lat="48.7231312" lon="-123.3461723"><speed>9.920</speed><ele>7.3</ele><time>2026-08-07T16:26:28Z</time></trkpt>
<trkpt lat="48.7226844" lon="-123.3462156"><speed>9.850</speed><ele>7.1</ele><time>2026-08-07T16:26:33Z</time></trkpt>
<trkpt lat="48.7222274" lon="-123.3462753"><speed>9.900</speed><ele>7.3</ele><time>2026-08-07T16:26:38Z</time></trkpt>
<trkpt lat="48.7217731" lon="-123.3463736"><speed>9.660</speed><ele>7.2</ele><time>2026-08-07T16:26:43Z</time></trkpt>
<trkpt lat="48.7213400" lon="-123.3464787"><speed>9.950</speed><ele>7.0</ele><time>2026-08-07T16:26:48Z</time></trkpt>
<trkpt lat="48.7208987" lon="-123.3466339"><speed>10.110</speed><ele>7.3</ele><time>2026-08-07T16:26:53Z</time></trkpt>
<trkpt lat="48.7204661" lon="-123.3467709"><speed>9.810</speed><ele>7.6</ele><time>2026-08-07T16:26:58Z</time></trkpt>
<trkpt lat="48.7200264" lon="-123.3469753"><speed>9.860</speed><ele>7.2</ele><time>2026-08-07T16:27:03Z</time></trkpt>
<trkpt lat="48.7196061" lon="-123.3471730"><speed>9.880</speed><ele>7.3</ele><time>2026-08-07T16:27:08Z</time></trkpt>
<trkpt lat="48.7191883" lon="-123.3473877"><speed>9.840</speed><ele>7.5</ele><time>2026-08-07T16:27:13Z</time></trkpt>
<trkpt lat="48.7187854" lon="-123.3476301"><speed>9.260</speed><ele>7.4</ele><time>2026-08-07T16:27:18Z</time></trkpt>
<trkpt lat="48.7183810" lon="-123.3479176"><speed>10.020</speed><ele>7.7</ele><time>2026-08-07T16:27:23Z</time></trkpt>
<trkpt lat="48.7179488" lon="-123.3482225"><speed>10.640</speed><ele>7.3</ele><time>2026-08-07T16:27:28Z</time></trkpt>
<trkpt lat="48.7175467" lon="-123.3485189"><speed>9.900</speed><ele>7.1</ele><time>2026-08-07T16:27:33Z</time></trkpt>
<trkpt lat="48.7171605" lon="-123.3488304"><speed>9.840</speed><ele>6.9</ele><time>2026-08-07T16:27:38Z</time></trkpt>
<trkpt lat="48.7168036" lon="-123.3491122"><speed>9.620</speed><ele>7.5</ele><time>2026-08-07T16:27:43Z</time></trkpt>
<trkpt lat="48.7163899" lon="-123.3494456"><speed>10.000</speed><ele>7.3</ele><time>2026-08-07T16:27:48Z</time></trkpt>
<trkpt lat="48.7160069" lon="-123.3497890"><speed>9.970</speed><ele>7.6</ele><time>2026-08-07T16:27:53Z</time></trkpt>
<trkpt lat="48.7156211" lon="-123.3501455"><speed>10.010</speed><ele>7.6</ele><time>2026-08-07T16:27:58Z</time></trkpt>
<trkpt lat="48.7152282" lon="-123.3504885"><speed>10.020</speed><ele>7.0</ele><time>2026-08-07T16:28:03Z</time></trkpt>
<trkpt lat="48.7148390" lon="-123.3508508"><speed>10.000</speed><ele>6.8</ele><time>2026-08-07T16:28:08Z</time></trkpt>
<trkpt lat="48.7144601" lon="-123.3512085"><speed>10.000</speed><ele>7.6</ele><time>2026-08-07T16:28:13Z</time></trkpt>
<trkpt lat="48.7140829" lon="-123.3515390"><speed>10.030</speed><ele>7.3</ele><time>2026-08-07T16:28:18Z</time></trkpt>
<trkpt lat="48.7136894" lon="-123.3518903"><speed>10.050</speed><ele>7.4</ele><time>2026-08-07T16:28:23Z</time></trkpt>
<trkpt lat="48.7133071" lon="-123.3522504"><speed>10.040</speed><ele>6.8</ele><time>2026-08-07T16:28:28Z</time></trkpt>
<trkpt lat="48.7129249" lon="-123.3525971"><speed>10.020</speed><ele>6.6</ele><time>2026-08-07T16:28:33Z</time></trkpt>
<trkpt lat="48.7125524" lon="-123.3529214"><speed>9.990</speed><ele>6.1</ele><time>2026-08-07T16:28:38Z</time></trkpt>
<trkpt lat="48.7121783" lon="-123.3532815"><speed>10.010</speed><ele>6.5</ele><time>2026-08-07T16:28:43Z</time></trkpt>
<trkpt lat="48.7118023" lon="-123.3536449"><speed>10.060</speed><ele>6.7</ele><time>2026-08-07T16:28:48Z</time></trkpt>
<trkpt lat="48.7114187" lon="-123.3540107"><speed>10.060</speed><ele>6.7</ele><time>2026-08-07T16:28:53Z</time></trkpt>
<trkpt lat="48.7110255" lon="-123.3543638"><speed>10.060</speed><ele>6.2</ele><time>2026-08-07T16:28:58Z</time></trkpt>
<trkpt lat="48.7106397" lon="-123.3547200"><speed>10.070</speed><ele>6.2</ele><time>2026-08-07T16:29:03Z</time></trkpt>
<trkpt lat="48.7102403" lon="-123.3550845"><speed>10.060</speed><ele>6.3</ele><time>2026-08-07T16:29:08Z</time></trkpt>
<trkpt lat="48.7098437" lon="-123.3554246"><speed>10.250</speed><ele>6.1</ele><time>2026-08-07T16:29:13Z</time></trkpt>
<trkpt lat="48.7094694" lon="-123.3557856"><speed>10.050</speed><ele>6.1</ele><time>2026-08-07T16:29:18Z</time></trkpt>
<trkpt lat="48.7090722" lon="-123.3561340"><speed>9.680</speed><ele>6.6</ele><time>2026-08-07T16:29:23Z</time></trkpt>
<trkpt lat="48.7086563" lon="-123.3564586"><speed>10.460</speed><ele>5.8</ele><time>2026-08-07T16:29:28Z</time></trkpt>
<trkpt lat="48.7082648" lon="-123.3567441"><speed>9.180</speed><ele>6.2</ele><time>2026-08-07T16:29:33Z</time></trkpt>
<trkpt lat="48.7079070" lon="-123.3570789"><speed>9.670</speed><ele>6.3</ele><time>2026-08-07T16:29:38Z</time></trkpt>
<trkpt lat="48.7075622" lon="-123.3574023"><speed>8.860</speed><ele>6.3</ele><time>2026-08-07T16:29:43Z</time></trkpt>
<trkpt lat="48.7072291" lon="-123.3577182"><speed>8.715</speed><ele>6.8</ele><time>2026-08-07T16:29:48Z</time></trkpt>
<trkpt lat="48.7068795" lon="-123.3580742"><speed>8.839</speed><ele>7.7</ele><time>2026-08-07T16:29:53Z</time></trkpt>
<trkpt lat="48.7065367" lon="-123.3584265"><speed>9.990</speed><ele>6.1</ele><time>2026-08-07T16:29:58Z</time></trkpt>
<trkpt lat="48.7061728" lon="-123.3587847"><speed>10.220</speed><ele>5.1</ele><time>2026-08-07T16:30:03Z</time></trkpt>
<trkpt lat="48.7058031" lon="-123.3591471"><speed>10.060</speed><ele>6.2</ele><time>2026-08-07T16:30:08Z</time></trkpt>
<trkpt lat="48.7054107" lon="-123.3595324"><speed>10.440</speed><ele>5.1</ele><time>2026-08-07T16:30:13Z</time></trkpt>
<trkpt lat="48.7049833" lon="-123.3599507"><speed>11.000</speed><ele>4.8</ele><time>2026-08-07T16:30:18Z</time></trkpt>
<trkpt lat="48.7046197" lon="-123.3604004"><speed>10.407</speed><ele>5.1</ele><time>2026-08-07T16:30:23Z</time></trkpt>
<trkpt lat="48.7042647" lon="-123.3608725"><speed>10.198</speed><ele>5.9</ele><time>2026-08-07T16:30:28Z</time></trkpt>
<trkpt lat="48.7038556" lon="-123.3613007"><speed>11.290</speed><ele>6.2</ele><time>2026-08-07T16:30:33Z</time></trkpt>
<trkpt lat="48.7034153" lon="-123.3616909"><speed>10.985</speed><ele>6.7</ele><time>2026-08-07T16:30:38Z</time></trkpt>
<trkpt lat="48.7030046" lon="-123.3620801"><speed>9.999</speed><ele>6.4</ele><time>2026-08-07T16:30:43Z</time></trkpt>
<trkpt lat="48.7026200" lon="-123.3624543"><speed>10.274</speed><ele>6.5</ele><time>2026-08-07T16:30:48Z</time></trkpt>
<trkpt lat="48.7022458" lon="-123.3628597"><speed>10.305</speed><ele>6.4</ele><time>2026-08-07T16:30:53Z</time></trkpt>
<trkpt lat="48.7014215" lon="-123.3636873"><speed>11.928</speed><ele>5.2</ele><time>2026-08-07T16:31:03Z</time></trkpt>
<trkpt lat="48.7011820" lon="-123.3641412"><speed>9.469</speed><ele>5.9</ele><time>2026-08-07T16:31:08Z</time></trkpt>
<trkpt lat="48.7008509" lon="-123.3645434"><speed>0.000</speed><ele>2.4</ele><time>2026-08-07T16:31:30Z</time></trkpt>
<trkpt lat="48.6986552" lon="-123.3675620"><speed>10.053</speed><ele>2.8</ele><time>2026-08-07T16:31:43Z</time></trkpt>
<trkpt lat="48.6983052" lon="-123.3676224"><speed>9.526</speed><ele>2.9</ele><time>2026-08-07T16:31:48Z</time></trkpt>
<trkpt lat="48.6979818" lon="-123.3679972"><speed>9.622</speed><ele>2.3</ele><time>2026-08-07T16:31:53Z</time></trkpt>
<trkpt lat="48.6975684" lon="-123.3682674"><speed>9.982</speed><ele>2.9</ele><time>2026-08-07T16:31:58Z</time></trkpt>
<trkpt lat="48.6971864" lon="-123.3686064"><speed>9.955</speed><ele>1.9</ele><time>2026-08-07T16:32:03Z</time></trkpt>
<trkpt lat="48.6969155" lon="-123.3692543"><speed>10.640</speed><ele>2.1</ele><time>2026-08-07T16:32:08Z</time></trkpt>
<trkpt lat="48.6967317" lon="-123.3699452"><speed>10.986</speed><ele>2.7</ele><time>2026-08-07T16:32:13Z</time></trkpt>
<trkpt lat="48.6964858" lon="-123.3703553"><speed>8.061</speed><ele>1.8</ele><time>2026-08-07T16:32:18Z</time></trkpt>
<trkpt lat="48.6962493" lon="-123.3707611"><speed>5.319</speed><ele>2.0</ele><time>2026-08-07T16:32:23Z</time></trkpt>
<trkpt lat="48.6958333" lon="-123.3713268"><speed>9.104</speed><ele>2.5</ele><time>2026-08-07T16:32:28Z</time></trkpt>
<trkpt lat="48.6954715" lon="-123.3718551"><speed>10.019</speed><ele>2.4</ele><time>2026-08-07T16:32:33Z</time></trkpt>
<trkpt lat="48.6952052" lon="-123.3724372"><speed>9.153</speed><ele>2.5</ele><time>2026-08-07T16:32:38Z</time></trkpt>
<trkpt lat="48.6949599" lon="-123.3729063"><speed>9.031</speed><ele>2.5</ele><time>2026-08-07T16:32:43Z</time></trkpt>
<trkpt lat="48.6947714" lon="-123.3735115"><speed>9.425</speed><ele>2.0</ele><time>2026-08-07T16:32:48Z</time></trkpt>
<trkpt lat="48.6945556" lon="-123.3741385"><speed>9.572</speed><ele>2.3</ele><time>2026-08-07T16:32:53Z</time></trkpt>
<trkpt lat="48.6944500" lon="-123.3747355"><speed>9.163</speed><ele>2.1</ele><time>2026-08-07T16:32:58Z</time></trkpt>
<trkpt lat="48.6941829" lon="-123.3752815"><speed>9.264</speed><ele>2.1</ele><time>2026-08-07T16:33:03Z</time></trkpt>
<trkpt lat="48.6941406" lon="-123.3759008"><speed>9.194</speed><ele>2.2</ele><time>2026-08-07T16:33:08Z</time></trkpt>
<trkpt lat="48.6939377" lon="-123.3764955"><speed>9.774</speed><ele>1.4</ele><time>2026-08-07T16:33:13Z</time></trkpt>
<trkpt lat="48.6936766" lon="-123.3770679"><speed>10.177</speed><ele>1.4</ele><time>2026-08-07T16:33:18Z</time></trkpt>
<trkpt lat="48.6936350" lon="-123.3776786"><speed>8.561</speed><ele>2.2</ele><time>2026-08-07T16:33:23Z</time></trkpt>
<trkpt lat="48.6935697" lon="-123.3782310"><speed>8.488</speed><ele>2.2</ele><time>2026-08-07T16:33:28Z</time></trkpt>
<trkpt lat="48.6934782" lon="-123.3788658"><speed>9.391</speed><ele>2.0</ele><time>2026-08-07T16:33:33Z</time></trkpt>
<trkpt lat="48.6934374" lon="-123.3793347"><speed>9.468</speed><ele>2.2</ele><time>2026-08-07T16:33:38Z</time></trkpt>
<trkpt lat="48.6934345" lon="-123.3800857"><speed>7.795</speed><ele>2.3</ele><time>2026-08-07T16:33:43Z</time></trkpt>
<trkpt lat="48.6932057" lon="-123.3807536"><speed>6.754</speed><ele>1.5</ele><time>2026-08-07T16:33:48Z</time></trkpt>
<trkpt lat="48.6930386" lon="-123.3813335"><speed>8.447</speed><ele>2.4</ele><time>2026-08-07T16:33:53Z</time></trkpt>
<trkpt lat="48.6929778" lon="-123.3819144"><speed>9.330</speed><ele>1.7</ele><time>2026-08-07T16:33:58Z</time></trkpt>
<trkpt lat="48.6929738" lon="-123.3824560"><speed>8.494</speed><ele>2.0</ele><time>2026-08-07T16:34:03Z</time></trkpt>
<trkpt lat="48.6929415" lon="-123.3830349"><speed>8.500</speed><ele>1.7</ele><time>2026-08-07T16:34:08Z</time></trkpt>
<trkpt lat="48.6928845" lon="-123.3835910"><speed>8.823</speed><ele>1.7</ele><time>2026-08-07T16:34:13Z</time></trkpt>
<trkpt lat="48.6928687" lon="-123.3841582"><speed>9.020</speed><ele>2.2</ele><time>2026-08-07T16:34:18Z</time></trkpt>
<trkpt lat="48.6929064" lon="-123.3846792"><speed>8.111</speed><ele>1.6</ele><time>2026-08-07T16:34:23Z</time></trkpt>
<trkpt lat="48.6928817" lon="-123.3850664"><speed>8.168</speed><ele>1.8</ele><time>2026-08-07T16:34:28Z</time></trkpt>
<trkpt lat="48.6928546" lon="-123.3854869"><speed>7.683</speed><ele>1.9</ele><time>2026-08-07T16:34:33Z</time></trkpt>
<trkpt lat="48.6928391" lon="-123.3859767"><speed>8.142</speed><ele>1.6</ele><time>2026-08-07T16:34:38Z</time></trkpt>
<trkpt lat="48.6928190" lon="-123.3864433"><speed>6.866</speed><ele>1.4</ele><time>2026-08-07T16:34:43Z</time></trkpt>
<trkpt lat="48.6927944" lon="-123.3868923"><speed>6.793</speed><ele>2.1</ele><time>2026-08-07T16:34:48Z</time></trkpt>
<trkpt lat="48.6927702" lon="-123.3874216"><speed>7.734</speed><ele>2.0</ele><time>2026-08-07T16:34:53Z</time></trkpt>
<trkpt lat="48.6928687" lon="-123.3884008"><speed>7.800</speed><ele>2.0</ele><time>2026-08-07T16:35:02Z</time></trkpt>
<trkpt lat="48.6926290" lon="-123.3935213"><speed>6.978</speed><ele>2.5</ele><time>2026-08-07T16:35:49Z</time></trkpt>
<trkpt lat="48.6926426" lon="-123.3940355"><speed>7.229</speed><ele>2.2</ele><time>2026-08-07T16:35:54Z</time></trkpt>
<trkpt lat="48.6926093" lon="-123.3945848"><speed>7.323</speed><ele>2.7</ele><time>2026-08-07T16:35:59Z</time></trkpt>
<trkpt lat="48.6926105" lon="-123.3950742"><speed>7.542</speed><ele>2.0</ele><time>2026-08-07T16:36:04Z</time></trkpt>
<trkpt lat="48.6926602" lon="-123.3955422"><speed>7.080</speed><ele>2.9</ele><time>2026-08-07T16:36:09Z</time></trkpt>
<trkpt lat="48.6925884" lon="-123.3959685"><speed>6.945</speed><ele>2.3</ele><time>2026-08-07T16:36:14Z</time></trkpt>
<trkpt lat="48.6925485" lon="-123.3963482"><speed>4.798</speed><ele>2.1</ele><time>2026-08-07T16:36:19Z</time></trkpt>
<trkpt lat="48.6925942" lon="-123.3968355"><speed>6.532</speed><ele>1.9</ele><time>2026-08-07T16:36:24Z</time></trkpt>
<trkpt lat="48.6925616" lon="-123.3972585"><speed>6.355</speed><ele>2.9</ele><time>2026-08-07T16:36:29Z</time></trkpt>
<trkpt lat="48.6925382" lon="-123.3977250"><speed>6.617</speed><ele>2.8</ele><time>2026-08-07T16:36:34Z</time></trkpt>
<trkpt lat="48.6925381" lon="-123.3981493"><speed>6.448</speed><ele>2.9</ele><time>2026-08-07T16:36:39Z</time></trkpt>
<trkpt lat="48.6924697" lon="-123.3985803"><speed>6.174</speed><ele>2.9</ele><time>2026-08-07T16:36:44Z</time></trkpt>
<trkpt lat="48.6923991" lon="-123.3990117"><speed>6.192</speed><ele>2.5</ele><time>2026-08-07T16:36:49Z</time></trkpt>
<trkpt lat="48.6922856" lon="-123.3994428"><speed>6.460</speed><ele>2.8</ele><time>2026-08-07T16:36:54Z</time></trkpt>
</trkseg></trk></gpx>