<?xml version="1.0" encoding="UTF-8" standalone="no" ?>
<gpx xmlns="http://www.topografix.com/GPX/1/1" creator="SailFreeGPS" xmlns:xsi="http://www.w3.org/2001/XMLSchema-instance"  xsi:schemaLocation="http://www.topografix.com/GPX/1/1 http://www.topografix.com/GPX/1/1/gpx.xsd">
<trk>
<metadata><name>SailFreeGps_2026-08-15_16-55-31.gpx</name></metadata>
<trkseg>
<trkpt lat="45.3648046" lon="-75.8310064"><speed>1.960</speed><ele>23.4</ele><time>2026-08-15T20:34:50Z</time></trkpt>
<trkpt lat="45.3647843" lon="-75.8308817"><speed>1.840</speed><ele>24.0</ele><time>2026-08-15T20:34:55Z</time></trkpt>
<trkpt lat="45.3647611" lon="-75.8307601"><speed>2.010</speed><ele>24.8</ele><time>2026-08-15T20:35:00Z</time></trkpt>
<trkpt lat="45.3647429" lon="-75.8306374"><speed>1.980</speed><ele>25.0</ele><time>2026-08-15T20:35:05Z</time></trkpt>
<trkpt lat="45.3647267" lon="-75.8305119"><speed>1.990</speed><ele>24.7</ele><time>2026-08-15T20:35:10Z</time></trkpt>
<trkpt lat="45.3647126" lon="-75.8303849"><speed>2.000</speed><ele>24.4</ele><time>2026-08-15T20:35:15Z</time></trkpt>
<trkpt lat="45.3646976" lon="-75.8302577"><speed>1.960</speed><ele>24.3</ele><time>2026-08-15T20:35:20Z</time></trkpt>
<trkpt lat="45.3646796" lon="-75.8301309"><speed>2.000</speed><ele>24.2</ele><time>2026-08-15T20:35:25Z</time></trkpt>
<trkpt lat="45.3646623" lon="-75.8300051"><speed>1.990</speed><ele>24.9</ele><time>2026-08-15T20:35:30Z</time></trkpt>
<trkpt lat="45.3646454" lon="-75.8298746"><speed>2.150</speed><ele>24.9</ele><time>2026-08-15T20:35:35Z</time></trkpt>
<trkpt lat="45.3646310" lon="-75.8297349"><speed>2.210</speed><ele>24.5</ele><time>2026-08-15T20:35:40Z</time></trkpt>
<trkpt lat="45.3646162" lon="-75.8295901"><speed>2.300</speed><ele>24.2</ele><time>2026-08-15T20:35:45Z</time></trkpt>
<trkpt lat="45.3646015" lon="-75.8294414"><speed>2.420</speed><ele>24.0</ele><time>2026-08-15T20:35:50Z</time></trkpt>
<trkpt lat="45.3645853" lon="-75.8292932"><speed>2.390</speed><ele>24.3</ele><time>2026-08-15T20:35:55Z</time></trkpt>
<trkpt lat="45.3645696" lon="-75.8291418"><speed>2.400</speed><ele>25.0</ele><time>2026-08-15T20:36:00Z</time></trkpt>
<trkpt lat="45.3645482" lon="-75.8289934"><speed>2.420</speed><ele>24.6</ele><time>2026-08-15T20:36:05Z</time></trkpt>
<trkpt lat="45.3645249" lon="-75.8288439"><speed>2.420</speed><ele>24.5</ele><time>2026-08-15T20:36:10Z</time></trkpt>
<trkpt lat="45.3644972" lon="-75.8286939"><speed>2.390</speed><ele>24.3</ele><time>2026-08-15T20:36:15Z</time></trkpt>
<trkpt lat="45.3644655" lon="-75.8285446"><speed>2.430</speed><ele>24.0</ele><time>2026-08-15T20:36:20Z</time></trkpt>
<trkpt lat="45.3644346" lon="-75.8283940"><speed>2.440</speed><ele>24.3</ele><time>2026-08-15T20:36:25Z</time></trkpt>
<trkpt lat="45.3644042" lon="-75.8282438"><speed>2.420</speed><ele>24.7</ele><time>2026-08-15T20:36:30Z</time></trkpt>
<trkpt lat="45.3643751" lon="-75.8280914"><speed>2.420</speed><ele>24.6</ele><time>2026-08-15T20:36:35Z</time></trkpt>
<trkpt lat="45.3643455" lon="-75.8279407"><speed>2.420</speed><ele>24.3</ele><time>2026-08-15T20:36:40Z</time></trkpt>
<trkpt lat="45.3643146" lon="-75.8277926"><speed>2.410</speed><ele>24.3</ele><time>2026-08-15T20:36:45Z</time></trkpt>
<trkpt lat="45.3642796" lon="-75.8276445"><speed>2.430</speed><ele>24.1</ele><time>2026-08-15T20:36:50Z</time></trkpt>
<trkpt lat="45.3642447" lon="-75.8274975"><speed>2.430</speed><ele>25.1</ele><time>2026-08-15T20:36:55Z</time></trkpt>
<trkpt lat="45.3642099" lon="-75.8273507"><speed>2.430</speed><ele>25.0</ele><time>2026-08-15T20:37:00Z</time></trkpt>
<trkpt lat="45.3641756" lon="-75.8272040"><speed>2.420</speed><ele>24.5</ele><time>2026-08-15T20:37:05Z</time></trkpt>
<trkpt lat="45.3641404" lon="-75.8270575"><speed>2.440</speed><ele>24.2</ele><time>2026-08-15T20:37:10Z</time></trkpt>
<trkpt lat="45.3641032" lon="-75.8269112"><speed>2.410</speed><ele>24.2</ele><time>2026-08-15T20:37:15Z</time></trkpt>
<trkpt lat="45.3640656" lon="-75.8267655"><speed>2.400</speed><ele>24.0</ele><time>2026-08-15T20:37:20Z</time></trkpt>
<trkpt lat="45.3640258" lon="-75.8266189"><speed>2.470</speed><ele>24.5</ele><time>2026-08-15T20:37:25Z</time></trkpt>
<trkpt lat="45.3639851" lon="-75.8264721"><speed>2.460</speed><ele>24.6</ele><time>2026-08-15T20:37:30Z</time></trkpt>
<trkpt lat="45.3639429" lon="-75.8263278"><speed>2.450</speed><ele>24.2</ele><time>2026-08-15T20:37:35Z</time></trkpt>
<trkpt lat="45.3639007" lon="-75.8261832"><speed>2.450</speed><ele>24.3</ele><time>2026-08-15T20:37:40Z</time></trkpt>
<trkpt lat="45.3638601" lon="-75.8260376"><speed>2.420</speed><ele>24.1</ele><time>2026-08-15T20:37:45Z</time></trkpt>
<trkpt lat="45.3638201" lon="-75.8258930"><speed>2.410</speed><ele>24.2</ele><time>2026-08-15T20:37:50Z</time></trkpt>
<trkpt lat="45.3637776" lon="-75.8257517"><speed>2.420</speed><ele>24.6</ele><time>2026-08-15T20:37:55Z</time></trkpt>
<trkpt lat="45.3637340" lon="-75.8256113"><speed>2.430</speed><ele>24.5</ele><time>2026-08-15T20:38:00Z</time></trkpt>
<trkpt lat="45.3636872" lon="-75.8254744"><speed>2.440</speed><ele>24.4</ele><time>2026-08-15T20:38:05Z</time></trkpt>
<trkpt lat="45.3636413" lon="-75.8253357"><speed>2.430</speed><ele>24.3</ele><time>2026-08-15T20:38:10Z</time></trkpt>
<trkpt lat="45.3635926" lon="-75.8251994"><speed>2.390</speed><ele>24.1</ele><time>2026-08-15T20:38:15Z</time></trkpt>
<trkpt lat="45.3635389" lon="-75.8250643"><speed>2.420</speed><ele>24.2</ele><time>2026-08-15T20:38:20Z</time></trkpt>
<trkpt lat="45.3634643" lon="-75.8249554"><speed>2.330</speed><ele>24.6</ele><time>2026-08-15T20:38:25Z</time></trkpt>
<trkpt lat="45.3633733" lon="-75.8248828"><speed>2.340</speed><ele>24.5</ele><time>2026-08-15T20:38:30Z</time></trkpt>
<trkpt lat="45.3632726" lon="-75.8248420"><speed>2.300</speed><ele>24.4</ele><time>2026-08-15T20:38:35Z</time></trkpt>
<trkpt lat="45.3631700" lon="-75.8248128"><speed>2.330</speed><ele>24.4</ele><time>2026-08-15T20:38:40Z</time></trkpt>
<trkpt lat="45.3630663" lon="-75.8247934"><speed>2.340</speed><ele>24.3</ele><time>2026-08-15T20:38:45Z</time></trkpt>
<trkpt lat="45.3629626" lon="-75.8247814"><speed>2.340</speed><ele>24.3</ele><time>2026-08-15T20:38:50Z</time></trkpt>
<trkpt lat="45.3628570" lon="-75.8247748"><speed>2.360</speed><ele>24.4</ele><time>2026-08-15T20:38:55Z</time></trkpt>
<trkpt lat="45.3627527" lon="-75.8247711"><speed>2.330</speed><ele>24.4</ele><time>2026-08-15T20:39:00Z</time></trkpt>
<trkpt lat="45.3626475" lon="-75.8247654"><speed>2.360</speed><ele>24.4</ele><time>2026-08-15T20:39:05Z</time></trkpt>
<trkpt lat="45.3625426" lon="-75.8247566"><speed>2.340</speed><ele>24.1</ele><time>2026-08-15T20:39:10Z</time></trkpt>
<trkpt lat="45.3624378" lon="-75.8247398"><speed>2.340</speed><ele>24.2</ele><time>2026-08-15T20:39:15Z</time></trkpt>
<trkpt lat="45.3623333" lon="-75.8247183"><speed>2.360</speed><ele>24.3</ele><time>2026-08-15T20:39:20Z</time></trkpt>
<trkpt lat="45.3622289" lon="-75.8246924"><speed>2.340</speed><ele>24.4</ele><time>2026-08-15T20:39:25Z</time></trkpt>
<trkpt lat="45.3621260" lon="-75.8246587"><speed>2.330</speed><ele>24.5</ele><time>2026-08-15T20:39:30Z</time></trkpt>
<trkpt lat="45.3620247" lon="-75.8246195"><speed>2.310</speed><ele>24.3</ele><time>2026-08-15T20:39:35Z</time></trkpt>
<trkpt lat="45.3619233" lon="-75.8245852"><speed>2.290</speed><ele>24.2</ele><time>2026-08-15T20:39:40Z</time></trkpt>
<trkpt lat="45.3618212" lon="-75.8245581"><speed>2.320</speed><ele>23.9</ele><time>2026-08-15T20:39:45Z</time></trkpt>
<trkpt lat="45.3617190" lon="-75.8245320"><speed>2.330</speed><ele>24.3</ele><time>2026-08-15T20:39:50Z</time></trkpt>
<trkpt lat="45.3616164" lon="-75.8245099"><speed>2.340</speed><ele>24.4</ele><time>2026-08-15T20:39:55Z</time></trkpt>
<trkpt lat="45.3615128" lon="-75.8244933"><speed>2.340</speed><ele>24.2</ele><time>2026-08-15T20:40:00Z</time></trkpt>
<trkpt lat="45.3614082" lon="-75.8244850"><speed>2.310</speed><ele>24.2</ele><time>2026-08-15T20:40:05Z</time></trkpt>
<trkpt lat="45.3613048" lon="-75.8244841"><speed>2.340</speed><ele>24.2</ele><time>2026-08-15T20:40:10Z</time></trkpt>
<trkpt lat="45.3612003" lon="-75.8244823"><speed>2.300</speed><ele>23.8</ele><time>2026-08-15T20:40:15Z</time></trkpt>
<trkpt lat="45.3610955" lon="-75.8244780"><speed>2.350</speed><ele>24.2</ele><time>2026-08-15T20:40:20Z</time></trkpt>
<trkpt lat="45.3609910" lon="-75.8244726"><speed>2.360</speed><ele>24.2</ele><time>2026-08-15T20:40:25Z</time></trkpt>
<trkpt lat="45.3608856" lon="-75.8244672"><speed>2.300</speed><ele>24.1</ele><time>2026-08-15T20:40:30Z</time></trkpt>
<trkpt lat="45.3607809" lon="-75.8244672"><speed>2.320</speed><ele>24.1</ele><time>2026-08-15T20:40:35Z</time></trkpt>
<trkpt lat="45.3606775" lon="-75.8244704"><speed>2.280</speed><ele>23.9</ele><time>2026-08-15T20:40:40Z</time></trkpt>
<trkpt lat="45.3605727" lon="-75.8244769"><speed>2.310</speed><ele>23.7</ele><time>2026-08-15T20:40:45Z</time></trkpt>
<trkpt lat="45.3604680" lon="-75.8244835"><speed>2.360</speed><ele>23.9</ele><time>2026-08-15T20:40:50Z</time></trkpt>
<trkpt lat="45.3603635" lon="-75.8244936"><speed>2.310</speed><ele>24.2</ele><time>2026-08-15T20:40:55Z</time></trkpt>
<trkpt lat="45.3602595" lon="-75.8245028"><speed>2.360</speed><ele>24.1</ele><time>2026-08-15T20:41:00Z</time></trkpt>
<trkpt lat="45.3601549" lon="-75.8245143"><speed>2.350</speed><ele>24.0</ele><time>2026-08-15T20:41:05Z</time></trkpt>
<trkpt lat="45.3600502" lon="-75.8245270"><speed>2.360</speed><ele>23.9</ele><time>2026-08-15T20:41:10Z</time></trkpt>
<trkpt lat="45.3599462" lon="-75.8245402"><speed>2.320</speed><ele>23.7</ele><time>2026-08-15T20:41:15Z</time></trkpt>
<trkpt lat="45.3598416" lon="-75.8245527"><speed>2.310</speed><ele>24.0</ele><time>2026-08-15T20:41:20Z</time></trkpt>
<trkpt lat="45.3597363" lon="-75.8245667"><speed>2.340</speed><ele>23.9</ele><time>2026-08-15T20:41:25Z</time></trkpt>
<trkpt lat="45.3596318" lon="-75.8245854"><speed>2.310</speed><ele>23.9</ele><time>2026-08-15T20:41:30Z</time></trkpt>
<trkpt lat="45.3595277" lon="-75.8246074"><speed>2.310</speed><ele>23.9</ele><time>2026-08-15T20:41:35Z</time></trkpt>
<trkpt lat="45.3594226" lon="-75.8246281"><speed>2.310</speed><ele>23.7</ele><time>2026-08-15T20:41:40Z</time></trkpt>
<trkpt lat="45.3593189" lon="-75.8246447"><speed>2.350</speed><ele>24.0</ele><time>2026-08-15T20:41:45Z</time></trkpt>
<trkpt lat="45.3592155" lon="-75.8246423"><speed>2.320</speed><ele>23.9</ele><time>2026-08-15T20:41:50Z</time></trkpt>
<trkpt lat="45.3591016" lon="-75.8246216"><speed>2.131</speed><ele>23.9</ele><time>2026-08-15T20:41:55Z</time></trkpt>
<trkpt lat="45.3590009" lon="-75.8245921"><speed>2.169</speed><ele>23.9</ele><time>2026-08-15T20:42:00Z</time></trkpt>
<trkpt lat="45.3588981" lon="-75.8245653"><speed>2.246</speed><ele>23.8</ele><time>2026-08-15T20:42:05Z</time></trkpt>
<trkpt lat="45.3587956" lon="-75.8245271"><speed>2.175</speed><ele>23.8</ele><time>2026-08-15T20:42:10Z</time></trkpt>
<trkpt lat="45.3586933" lon="-75.8244923"><speed>2.144</speed><ele>24.0</ele><time>2026-08-15T20:42:15Z</time></trkpt>
<trkpt lat="45.3585917" lon="-75.8244586"><speed>2.169</speed><ele>23.9</ele><time>2026-08-15T20:42:20Z</time></trkpt>
<trkpt lat="45.3584886" lon="-75.8244276"><speed>2.157</speed><ele>23.8</ele><time>2026-08-15T20:42:25Z</time></trkpt>
<trkpt lat="45.3583835" lon="-75.8243994"><speed>2.151</speed><ele>24.0</ele><time>2026-08-15T20:42:30Z</time></trkpt>
<trkpt lat="45.3582763" lon="-75.8243796"><speed>2.175</speed><ele>23.8</ele><time>2026-08-15T20:42:35Z</time></trkpt>
<trkpt lat="45.3581712" lon="-75.8243593"><speed>2.141</speed><ele>23.5</ele><time>2026-08-15T20:42:40Z</time></trkpt>
<trkpt lat="45.3580681" lon="-75.8243376"><speed>2.167</speed><ele>23.8</ele><time>2026-08-15T20:42:45Z</time></trkpt>
<trkpt lat="45.3579640" lon="-75.8243155"><speed>2.161</speed><ele>23.8</ele><time>2026-08-15T20:42:50Z</time></trkpt>
<trkpt lat="45.3578596" lon="-75.8242868"><speed>2.141</speed><ele>24.0</ele><time>2026-08-15T20:42:55Z</time></trkpt>
<trkpt lat="45.3577537" lon="-75.8242646"><speed>2.175</speed><ele>23.7</ele><time>2026-08-15T20:43:00Z</time></trkpt>
<trkpt lat="45.3576464" lon="-75.8242435"><speed>2.185</speed><ele>23.5</ele><time>2026-08-15T20:43:05Z</time></trkpt>
<trkpt lat="45.3575383" lon="-75.8242246"><speed>2.204</speed><ele>23.8</ele><time>2026-08-15T20:43:10Z</time></trkpt>
<trkpt lat="45.3574316" lon="-75.8242063"><speed>2.203</speed><ele>23.7</ele><time>2026-08-15T20:43:15Z</time></trkpt>
<trkpt lat="45.3573281" lon="-75.8241903"><speed>2.191</speed><ele>23.7</ele><time>2026-08-15T20:43:20Z</time></trkpt>
<trkpt lat="45.3572283" lon="-75.8241427"><speed>2.154</speed><ele>23.9</ele><time>2026-08-15T20:43:25Z</time></trkpt>
<trkpt lat="45.3571300" lon="-75.8240954"><speed>2.171</speed><ele>23.9</ele><time>2026-08-15T20:43:30Z</time></trkpt>
<trkpt lat="45.3570309" lon="-75.8240370"><speed>2.166</speed><ele>23.8</ele><time>2026-08-15T20:43:35Z</time></trkpt>
<trkpt lat="45.3569318" lon="-75.8239739"><speed>2.151</speed><ele>24.0</ele><time>2026-08-15T20:43:40Z</time></trkpt>
<trkpt lat="45.3568351" lon="-75.8239086"><speed>2.113</speed><ele>23.8</ele><time>2026-08-15T20:43:45Z</time></trkpt>
<trkpt lat="45.3567399" lon="-75.8238483"><speed>2.127</speed><ele>24.0</ele><time>2026-08-15T20:43:50Z</time></trkpt>
<trkpt lat="45.3566462" lon="-75.8237869"><speed>2.134</speed><ele>23.9</ele><time>2026-08-15T20:43:55Z</time></trkpt>
<trkpt lat="45.3565493" lon="-75.8237278"><speed>2.133</speed><ele>24.0</ele><time>2026-08-15T20:44:00Z</time></trkpt>
<trkpt lat="45.3564533" lon="-75.8236719"><speed>2.131</speed><ele>23.9</ele><time>2026-08-15T20:44:05Z</time></trkpt>
<trkpt lat="45.3563586" lon="-75.8236088"><speed>2.151</speed><ele>24.0</ele><time>2026-08-15T20:44:10Z</time></trkpt>
<trkpt lat="45.3562623" lon="-75.8235523"><speed>2.101</speed><ele>23.8</ele><time>2026-08-15T20:44:15Z</time></trkpt>
<trkpt lat="45.3561641" lon="-75.8235015"><speed>2.085</speed><ele>24.0</ele><time>2026-08-15T20:44:20Z</time></trkpt>
<trkpt lat="45.3560642" lon="-75.8234718"><speed>2.056</speed><ele>23.8</ele><time>2026-08-15T20:44:25Z</time></trkpt>
<trkpt lat="45.3559628" lon="-75.8234490"><speed>2.097</speed><ele>23.9</ele><time>2026-08-15T20:44:30Z</time></trkpt>
<trkpt lat="45.3558615" lon="-75.8234181"><speed>2.124</speed><ele>23.9</ele><time>2026-08-15T20:44:35Z</time></trkpt>
<trkpt lat="45.3557569" lon="-75.8233933"><speed>2.147</speed><ele>23.9</ele><time>2026-08-15T20:44:40Z</time></trkpt>
<trkpt lat="45.3556527" lon="-75.8233757"><speed>2.157</speed><ele>23.9</ele><time>2026-08-15T20:44:45Z</time></trkpt>
<trkpt lat="45.3555444" lon="-75.8233504"><speed>2.179</speed><ele>24.0</ele><time>2026-08-15T20:44:50Z</time></trkpt>
<trkpt lat="45.3554381" lon="-75.8233144"><speed>2.170</speed><ele>24.0</ele><time>2026-08-15T20:44:55Z</time></trkpt>
<trkpt lat="45.3553327" lon="-75.8232821"><speed>2.174</speed><ele>24.0</ele><time>2026-08-15T20:45:00Z</time></trkpt>
<trkpt lat="45.3552278" lon="-75.8232439"><speed>2.173</speed><ele>24.0</ele><time>2026-08-15T20:45:05Z</time></trkpt>
<trkpt lat="45.3551234" lon="-75.8232044"><speed>2.173</speed><ele>23.9</ele><time>2026-08-15T20:45:10Z</time></trkpt>
<trkpt lat="45.3550170" lon="-75.8231775"><speed>2.166</speed><ele>24.1</ele><time>2026-08-15T20:45:15Z</time></trkpt>
<trkpt lat="45.3549104" lon="-75.8231732"><speed>2.118</speed><ele>24.0</ele><time>2026-08-15T20:45:20Z</time></trkpt>
<trkpt lat="45.3547991" lon="-75.8231981"><speed>2.351</speed><ele>24.0</ele><time>2026-08-15T20:45:25Z</time></trkpt>
<trkpt lat="45.3546888" lon="-75.8231839"><speed>2.420</speed><ele>23.9</ele><time>2026-08-15T20:45:30Z</time></trkpt>
<trkpt lat="45.3545832" lon="-75.8231748"><speed>2.325</speed><ele>24.0</ele><time>2026-08-15T20:45:35Z</time></trkpt>
<trkpt lat="45.3544805" lon="-75.8231790"><speed>2.212</speed><ele>24.1</ele><time>2026-08-15T20:45:40Z</time></trkpt>
<trkpt lat="45.3543774" lon="-75.8231681"><speed>2.568</speed><ele>24.2</ele><time>2026-08-15T20:45:45Z</time></trkpt>
<trkpt lat="45.3542707" lon="-75.8231918"><speed>2.263</speed><ele>24.0</ele><time>2026-08-15T20:45:50Z</time></trkpt>
<trkpt lat="45.3541673" lon="-75.8232240"><speed>2.165</speed><ele>24.1</ele><time>2026-08-15T20:45:55Z</time></trkpt>
<trkpt lat="45.3540702" lon="-75.8232683"><speed>2.125</speed><ele>24.1</ele><time>2026-08-15T20:46:00Z</time></trkpt>
<trkpt lat="45.3539703" lon="-75.8233178"><speed>2.142</speed><ele>24.2</ele><time>2026-08-15T20:46:05Z</time></trkpt>
<trkpt lat="45.3538743" lon="-75.8233689"><speed>2.091</speed><ele>24.4</ele><time>2026-08-15T20:46:10Z</time></trkpt>
<trkpt lat="45.3537791" lon="-75.8234041"><speed>1.941</speed><ele>24.4</ele><time>2026-08-15T20:46:15Z</time></trkpt>
<trkpt lat="45.3536892" lon="-75.8234524"><speed>1.882</speed><ele>24.3</ele><time>2026-08-15T20:46:20Z</time></trkpt>
<trkpt lat="45.3536022" lon="-75.8235006"><speed>1.881</speed><ele>24.3</ele><time>2026-08-15T20:46:25Z</time></trkpt>
<trkpt lat="45.3535180" lon="-75.8235521"><speed>1.860</speed><ele>24.3</ele><time>2026-08-15T20:46:30Z</time></trkpt>
<trkpt lat="45.3534385" lon="-75.8236162"><speed>1.823</speed><ele>24.4</ele><time>2026-08-15T20:46:35Z</time></trkpt>
<trkpt lat="45.3533649" lon="-75.8236858"><speed>1.790</speed><ele>24.4</ele><time>2026-08-15T20:46:40Z</time></trkpt>
<trkpt lat="45.3532987" lon="-75.8237541"><speed>1.616</speed><ele>24.4</ele><time>2026-08-15T20:46:45Z</time></trkpt>
<trkpt lat="45.3532307" lon="-75.8238052"><speed>1.518</speed><ele>24.3</ele><time>2026-08-15T20:46:50Z</time></trkpt>
<trkpt lat="45.3531691" lon="-75.8238572"><speed>1.434</speed><ele>24.4</ele><time>2026-08-15T20:46:55Z</time></trkpt>
<trkpt lat="45.3531101" lon="-75.8238981"><speed>1.550</speed><ele>24.5</ele><time>2026-08-15T20:47:00Z</time></trkpt>
<trkpt lat="45.3530541" lon="-75.8239504"><speed>1.500</speed><ele>24.4</ele><time>2026-08-15T20:47:05Z</time></trkpt>
<trkpt lat="45.3530062" lon="-75.8240153"><speed>1.440</speed><ele>24.4</ele><time>2026-08-15T20:47:10Z</time></trkpt>
<trkpt lat="45.3529913" lon="-75.8241081"><speed>1.370</speed><ele>24.4</ele><time>2026-08-15T20:47:15Z</time></trkpt>
<trkpt lat="45.3529926" lon="-75.8241950"><speed>1.330</speed><ele>24.4</ele><time>2026-08-15T20:47:20Z</time></trkpt>
<trkpt lat="45.3530014" lon="-75.8242836"><speed>1.350</speed><ele>24.4</ele><time>2026-08-15T20:47:25Z</time></trkpt>
<trkpt lat="45.3530172" lon="-75.8243680"><speed>1.370</speed><ele>24.7</ele><time>2026-08-15T20:47:30Z</time></trkpt>
<trkpt lat="45.3530420" lon="-75.8244486"><speed>1.370</speed><ele>24.6</ele><time>2026-08-15T20:47:35Z</time></trkpt>
<trkpt lat="45.3530775" lon="-75.8245335"><speed>1.620</speed><ele>24.5</ele><time>2026-08-15T20:47:40Z</time></trkpt>
<trkpt lat="45.3531141" lon="-75.8246273"><speed>1.330</speed><ele>24.4</ele><time>2026-08-15T20:47:45Z</time></trkpt>
<trkpt lat="45.3531563" lon="-75.8247322"><speed>1.870</speed><ele>24.5</ele><time>2026-08-15T20:47:50Z</time></trkpt>
<trkpt lat="45.3531990" lon="-75.8248378"><speed>1.890</speed><ele>24.7</ele><time>2026-08-15T20:47:55Z</time></trkpt>
<trkpt lat="45.3532405" lon="-75.8249497"><speed>1.940</speed><ele>25.5</ele><time>2026-08-15T20:48:00Z</time></trkpt>
<trkpt lat="45.3532799" lon="-75.8250609"><speed>1.940</speed><ele>24.8</ele><time>2026-08-15T20:48:05Z</time></trkpt>
<trkpt lat="45.3533140" lon="-75.8251703"><speed>2.060</speed><ele>24.6</ele><time>2026-08-15T20:48:10Z</time></trkpt>
<trkpt lat="45.3533537" lon="-75.8252843"><speed>1.990</speed><ele>24.7</ele><time>2026-08-15T20:48:15Z</time></trkpt>
<trkpt lat="45.3533854" lon="-75.8253892"><speed>1.700</speed><ele>29.0</ele><time>2026-08-15T20:48:20Z</time></trkpt>
<trkpt lat="45.3534011" lon="-75.8254876"><speed>1.480</speed><ele>29.0</ele><time>2026-08-15T20:48:25Z</time></trkpt>
<trkpt lat="45.3534147" lon="-75.8255819"><speed>1.380</speed><ele>24.9</ele><time>2026-08-15T20:48:30Z</time></trkpt>
<trkpt lat="45.3534309" lon="-75.8256672"><speed>1.440</speed><ele>25.1</ele><time>2026-08-15T20:48:35Z</time></trkpt>
<trkpt lat="45.3534492" lon="-75.8257546"><speed>1.470</speed><ele>25.0</ele><time>2026-08-15T20:48:40Z</time></trkpt>
<trkpt lat="45.3534679" lon="-75.8258479"><speed>1.570</speed><ele>29.0</ele><time>2026-08-15T20:48:45Z</time></trkpt>
<trkpt lat="45.3534888" lon="-75.8259431"><speed>1.580</speed><ele>29.0</ele><time>2026-08-15T20:48:50Z</time></trkpt>
<trkpt lat="45.3535099" lon="-75.8260373"><speed>1.600</speed><ele>29.0</ele><time>2026-08-15T20:48:55Z</time></trkpt>
<trkpt lat="45.3535318" lon="-75.8261335"><speed>1.620</speed><ele>25.3</ele><time>2026-08-15T20:49:00Z</time></trkpt>
<trkpt lat="45.3535522" lon="-75.8262331"><speed>1.510</speed><ele>25.5</ele><time>2026-08-15T20:49:05Z</time></trkpt>
<trkpt lat="45.3535719" lon="-75.8263372"><speed>1.650</speed><ele>29.0</ele><time>2026-08-15T20:49:10Z</time></trkpt>
<trkpt lat="45.3535912" lon="-75.8264393"><speed>1.620</speed><ele>29.0</ele><time>2026-08-15T20:49:15Z</time></trkpt>
<trkpt lat="45.3536075" lon="-75.8265391"><speed>1.650</speed><ele>29.0</ele><time>2026-08-15T20:49:20Z</time></trkpt>
<trkpt lat="45.3536159" lon="-75.8266421"><speed>1.580</speed><ele>29.0</ele><time>2026-08-15T20:49:25Z</time></trkpt>
<trkpt lat="45.3536058" lon="-75.8267396"><speed>1.570</speed><ele>25.5</ele><time>2026-08-15T20:49:30Z</time></trkpt>
<trkpt lat="45.3535657" lon="-75.8268184"><speed>1.560</speed><ele>25.7</ele><time>2026-08-15T20:49:35Z</time></trkpt>
<trkpt lat="45.3535067" lon="-75.8268761"><speed>1.580</speed><ele>29.0</ele><time>2026-08-15T20:49:40Z</time></trkpt>
<trkpt lat="45.3534411" lon="-75.8269196"><speed>1.640</speed><ele>29.0</ele><time>2026-08-15T20:49:45Z</time></trkpt>
<trkpt lat="45.3533809" lon="-75.8269613"><speed>1.440</speed><ele>29.0</ele><time>2026-08-15T20:49:50Z</time></trkpt>
<trkpt lat="45.3533281" lon="-75.8269988"><speed>1.260</speed><ele>26.2</ele><time>2026-08-15T20:49:55Z</time></trkpt>
<trkpt lat="45.3532786" lon="-75.8270299"><speed>1.160</speed><ele>25.5</ele><time>2026-08-15T20:50:00Z</time></trkpt>
<trkpt lat="45.3532329" lon="-75.8270595"><speed>1.120</speed><ele>26.2</ele><time>2026-08-15T20:50:05Z</time></trkpt>
<trkpt lat="45.3531923" lon="-75.8270884"><speed>0.990</speed><ele>28.2</ele><time>2026-08-15T20:50:10Z</time></trkpt>
<trkpt lat="45.3531536" lon="-75.8271156"><speed>0.940</speed><ele>29.0</ele><time>2026-08-15T20:50:15Z</time></trkpt>
<trkpt lat="45.3531164" lon="-75.8271415"><speed>0.890</speed><ele>29.0</ele><time>2026-08-15T20:50:20Z</time></trkpt>
<trkpt lat="45.3530801" lon="-75.8271674"><speed>1.100</speed><ele>26.0</ele><time>2026-08-15T20:50:25Z</time></trkpt>
<trkpt lat="45.3530335" lon="-75.8272004"><speed>1.120</speed><ele>29.1</ele><time>2026-08-15T20:50:30Z</time></trkpt>
<trkpt lat="45.3529879" lon="-75.8272281"><speed>1.060</speed><ele>29.1</ele><time>2026-08-15T20:50:35Z</time></trkpt>
<trkpt lat="45.3529451" lon="-75.8272532"><speed>0.970</speed><ele>28.2</ele><time>2026-08-15T20:50:40Z</time></trkpt>
<trkpt lat="45.3529037" lon="-75.8272783"><speed>0.970</speed><ele>28.2</ele><time>2026-08-15T20:50:45Z</time></trkpt>
<trkpt lat="45.3528658" lon="-75.8273057"><speed>0.940</speed><ele>28.2</ele><time>2026-08-15T20:50:50Z</time></trkpt>
<trkpt lat="45.3528301" lon="-75.8273341"><speed>0.880</speed><ele>28.2</ele><time>2026-08-15T20:50:55Z</time></trkpt>
<trkpt lat="45.3527951" lon="-75.8273586"><speed>0.880</speed><ele>28.2</ele><time>2026-08-15T20:51:00Z</time></trkpt>
<trkpt lat="45.3527611" lon="-75.8273787"><speed>0.830</speed><ele>28.2</ele><time>2026-08-15T20:51:05Z</time></trkpt>
<trkpt lat="45.3527292" lon="-75.8273985"><speed>0.760</speed><ele>28.5</ele><time>2026-08-15T20:51:10Z</time></trkpt>
<trkpt lat="45.3526984" lon="-75.8274154"><speed>0.700</speed><ele>28.5</ele><time>2026-08-15T20:51:15Z</time></trkpt>
<trkpt lat="45.3526711" lon="-75.8274379"><speed>0.640</speed><ele>29.3</ele><time>2026-08-15T20:51:20Z</time></trkpt>
<trkpt lat="45.3526459" lon="-75.8274549"><speed>0.610</speed><ele>28.5</ele><time>2026-08-15T20:51:25Z</time></trkpt>
<trkpt lat="45.3526213" lon="-75.8274676"><speed>0.570</speed><ele>28.5</ele><time>2026-08-15T20:51:30Z</time></trkpt>
<trkpt lat="45.3526014" lon="-75.8274791"><speed>0.510</speed><ele>28.2</ele><time>2026-08-15T20:51:35Z</time></trkpt>
<trkpt lat="45.3525826" lon="-75.8274834"><speed>0.440</speed><ele>28.5</ele><time>2026-08-15T20:51:40Z</time></trkpt>
<trkpt lat="45.3525649" lon="-75.8274801"><speed>0.410</speed><ele>28.5</ele><time>2026-08-15T20:51:45Z</time></trkpt>
<trkpt lat="45.3525504" lon="-75.8274698"><speed>0.380</speed><ele>29.1</ele><time>2026-08-15T20:51:50Z</time></trkpt>
<trkpt lat="45.3525383" lon="-75.8274581"><speed>0.330</speed><ele>29.3</ele><time>2026-08-15T20:51:55Z</time></trkpt>
<trkpt lat="45.3525265" lon="-75.8274452"><speed>0.280</speed><ele>29.3</ele><time>2026-08-15T20:52:00Z</time></trkpt>
<trkpt lat="45.3525191" lon="-75.8274305"><speed>0.270</speed><ele>29.1</ele><time>2026-08-15T20:52:05Z</time></trkpt>
<trkpt lat="45.3525155" lon="-75.8274154"><speed>0.220</speed><ele>29.1</ele><time>2026-08-15T20:52:10Z</time></trkpt>
<trkpt lat="45.3525127" lon="-75.8274024"><speed>0.220</speed><ele>29.1</ele><time>2026-08-15T20:52:15Z</time></trkpt>
<trkpt lat="45.3525097" lon="-75.8273921"><speed>0.000</speed><ele>29.0</ele><time>2026-08-15T20:52:20Z</time></trkpt>
<trkpt lat="45.3525072" lon="-75.8273914"><speed>0.000</speed><ele>29.0</ele><time>2026-08-15T20:52:25Z</time></trkpt>
<trkpt lat="45.3525047" lon="-75.8273922"><speed>0.000</speed><ele>29.1</ele><time>2026-08-15T20:52:30Z</time></trkpt>
<trkpt lat="45.3525040" lon="-75.8273921"><speed>0.000</speed><ele>29.0</ele><time>2026-08-15T20:52:35Z</time></trkpt>
<trkpt lat="45.3525038" lon="-75.8273918"><speed>0.000</speed><ele>29.0</ele><time>2026-08-15T20:52:40Z</time></trkpt>
<trkpt lat="45.3525037" lon="-75.8273914"><speed>0.000</speed><ele>28.9</ele><time>2026-08-15T20:52:45Z</time></trkpt>
<trkpt lat="45.3525036" lon="-75.8273912"><speed>0.000</speed><ele>29.0</ele><time>2026-08-15T20:52:50Z</time></trkpt>
<trkpt lat="45.3525035" lon="-75.8273911"><speed>0.000</speed><ele>29.0</ele><time>2026-08-15T20:52:55Z</time></trkpt>
<trkpt lat="45.3525034" lon="-75.8273910"><speed>0.000</speed><ele>29.3</ele><time>2026-08-15T20:53:00Z</time></trkpt>
<trkpt lat="45.3525033" lon="-75.8273910"><speed>0.000</speed><ele>29.3</ele><time>2026-08-15T20:53:05Z</time></trkpt>
<trkpt lat="45.3525033" lon="-75.8273909"><speed>0.000</speed><ele>29.3</ele><time>2026-08-15T20:53:10Z</time></trkpt>
<trkpt lat="45.3525032" lon="-75.8273908"><speed>0.000</speed><ele>29.0</ele><time>2026-08-15T20:53:15Z</time></trkpt>
<trkpt lat="45.3525032" lon="-75.8273906"><speed>0.000</speed><ele>29.0</ele><time>2026-08-15T20:53:20Z</time></trkpt>
<trkpt lat="45.3525031" lon="-75.8273905"><speed>0.000</speed><ele>29.0</ele><time>2026-08-15T20:53:25Z</time></trkpt>
<trkpt lat="45.3525031" lon="-75.8273904"><speed>0.000</speed><ele>29.1</ele><time>2026-08-15T20:53:30Z</time></trkpt>
<trkpt lat="45.3525030" lon="-75.8273903"><speed>0.000</speed><ele>29.1</ele><time>2026-08-15T20:53:35Z</time></trkpt>
<trkpt lat="45.3525030" lon="-75.8273901"><speed>0.000</speed><ele>29.1</ele><time>2026-08-15T20:53:40Z</time></trkpt>
<trkpt lat="45.3525063" lon="-75.8273949"><speed>0.000</speed><ele>28.9</ele><time>2026-08-15T20:53:45Z</time></trkpt>
<trkpt lat="45.3525093" lon="-75.8273906"><speed>0.000</speed><ele>28.9</ele><time>2026-08-15T20:53:50Z</time></trkpt>
<trkpt lat="45.3525096" lon="-75.8273891"><speed>0.000</speed><ele>29.0</ele><time>2026-08-15T20:53:55Z</time></trkpt>
<trkpt lat="45.3525105" lon="-75.8273879"><speed>0.000</speed><ele>28.9</ele><time>2026-08-15T20:54:00Z</time></trkpt>
<trkpt lat="45.3525105" lon="-75.8273879"><speed>0.000</speed><ele>28.9</ele><time>2026-08-15T20:54:05Z</time></trkpt>
<trkpt lat="45.3525105" lon="-75.8273879"><speed>0.000</speed><ele>29.3</ele><time>2026-08-15T20:54:10Z</time></trkpt>
<trkpt lat="45.3525104" lon="-75.8273879"><speed>0.000</speed><ele>28.5</ele><time>2026-08-15T20:54:15Z</time></trkpt>
<trkpt lat="45.3525103" lon="-75.8273879"><speed>0.000</speed><ele>28.5</ele><time>2026-08-15T20:54:20Z</time></trkpt>
<trkpt lat="45.3525102" lon="-75.8273879"><speed>0.000</speed><ele>28.5</ele><time>2026-08-15T20:54:25Z</time></trkpt>
<trkpt lat="45.3525107" lon="-75.8273887"><speed>0.000</speed><ele>29.0</ele><time>2026-08-15T20:54:30Z</time></trkpt>
<trkpt lat="45.3525144" lon="-75.8273914"><speed>0.000</speed><ele>29.0</ele><time>2026-08-15T20:54:35Z</time></trkpt>
<trkpt lat="45.3525118" lon="-75.8273932"><speed>0.160</speed><ele>28.5</ele><time>2026-08-15T20:54:40Z</time></trkpt>
<trkpt lat="45.3525104" lon="-75.8273964"><speed>0.000</speed><ele>28.5</ele><time>2026-08-15T20:54:45Z</time></trkpt>
<trkpt lat="45.3525111" lon="-75.8273925"><speed>0.000</speed><ele>29.3</ele><time>2026-08-15T20:54:50Z</time></trkpt>
<trkpt lat="45.3525121" lon="-75.8273905"><speed>0.000</speed><ele>28.9</ele><time>2026-08-15T20:54:55Z</time></trkpt>
<trkpt lat="45.3525120" lon="-75.8273906"><speed>0.000</speed><ele>28.9</ele><time>2026-08-15T20:55:00Z</time></trkpt>
<trkpt lat="45.3525120" lon="-75.8273906"><speed>0.000</speed><ele>29.1</ele><time>2026-08-15T20:55:05Z</time></trkpt>
<trkpt lat="45.3525118" lon="-75.8273907"><speed>0.000</speed><ele>28.5</ele><time>2026-08-15T20:55:10Z</time></trkpt>
<trkpt lat="45.3525117" lon="-75.8273908"><speed>0.000</speed><ele>28.5</ele><time>2026-08-15T20:55:15Z</time></trkpt>
<trkpt lat="45.3525116" lon="-75.8273908"><speed>0.000</speed><ele>29.3</ele><time>2026-08-15T20:55:20Z</time></trkpt>
<trkpt lat="45.3525142" lon="-75.8274008"><speed>0.000</speed><ele>29.3</ele><time>2026-08-15T20:55:25Z</time></trkpt>
<trkpt lat="45.3525120" lon="-75.8274090"><speed>0.000</speed><ele>29.3</ele><time>2026-08-15T20:55:30Z</time></trkpt>
<trkpt lat="45.3525113" lon="-75.8274163"><speed>0.000</speed><ele>28.2</ele><time>2026-08-15T20:55:35Z</time></trkpt>
</trkseg></trk></gpx>