<?xml version="1.0" encoding="UTF-8" standalone="no" ?>
<gpx xmlns="http://www.topografix.com/GPX/1/1" creator="SailFreeGPS" xmlns:xsi="http://www.w3.org/2001/XMLSchema-instance"  xsi:schemaLocation="http://www.topografix.com/GPX/1/1 http://www.topografix.com/GPX/1/1/gpx.xsd">
<trk>
<metadata><name>SailFreeGps_2026-08-03_11-29-55.gpx</name></metadata>
<trkseg>
<trkpt lat="45.3845074" lon="-75.6420581"><speed>0.170</speed><ele>64.9</ele><time>2026-08-03T15:16:02Z</time></trkpt>
<trkpt lat="45.3845035" lon="-75.6420570"><speed>0.086</speed><ele>64.9</ele><time>2026-08-03T15:16:07Z</time></trkpt>
<trkpt lat="45.3845010" lon="-75.6420556"><speed>0.069</speed><ele>64.9</ele><time>2026-08-03T15:16:12Z</time></trkpt>
<trkpt lat="45.3844993" lon="-75.6420552"><speed>0.078</speed><ele>64.9</ele><time>2026-08-03T15:16:17Z</time></trkpt>
<trkpt lat="45.3844986" lon="-75.6420550"><speed>0.099</speed><ele>64.9</ele><time>2026-08-03T15:16:22Z</time></trkpt>
<trkpt lat="45.3844976" lon="-75.6420560"><speed>0.076</speed><ele>64.9</ele><time>2026-08-03T15:16:27Z</time></trkpt>
<trkpt lat="45.3844977" lon="-75.6420573"><speed>0.089</speed><ele>64.9</ele><time>2026-08-03T15:16:32Z</time></trkpt>
<trkpt lat="45.3844972" lon="-75.6420598"><speed>0.090</speed><ele>64.9</ele><time>2026-08-03T15:16:37Z</time></trkpt>
<trkpt lat="45.3844963" lon="-75.6420613"><speed>0.083</speed><ele>64.9</ele><time>2026-08-03T15:16:42Z</time></trkpt>
<trkpt lat="45.3844955" lon="-75.6420630"><speed>0.083</speed><ele>64.9</ele><time>2026-08-03T15:16:47Z</time></trkpt>
<trkpt lat="45.3844953" lon="-75.6420640"><speed>0.085</speed><ele>64.9</ele><time>2026-08-03T15:16:52Z</time></trkpt>
<trkpt lat="45.3844953" lon="-75.6420647"><speed>0.090</speed><ele>64.9</ele><time>2026-08-03T15:16:57Z</time></trkpt>
<trkpt lat="45.3844950" lon="-75.6420657"><speed>0.103</speed><ele>64.9</ele><time>2026-08-03T15:17:02Z</time></trkpt>
<trkpt lat="45.3844946" lon="-75.6420663"><speed>0.121</speed><ele>64.9</ele><time>2026-08-03T15:17:07Z</time></trkpt>
<trkpt lat="45.3844950" lon="-75.6420662"><speed>0.212</speed><ele>64.9</ele><time>2026-08-03T15:17:12Z</time></trkpt>
<trkpt lat="45.3844961" lon="-75.6420671"><speed>0.167</speed><ele>64.9</ele><time>2026-08-03T15:17:17Z</time></trkpt>
<trkpt lat="45.3844959" lon="-75.6420672"><speed>0.148</speed><ele>64.9</ele><time>2026-08-03T15:17:22Z</time></trkpt>
<trkpt lat="45.3844988" lon="-75.6420630"><speed>0.167</speed><ele>64.9</ele><time>2026-08-03T15:17:27Z</time></trkpt>
<trkpt lat="45.3845008" lon="-75.6420631"><speed>0.163</speed><ele>64.9</ele><time>2026-08-03T15:17:32Z</time></trkpt>
<trkpt lat="45.3845022" lon="-75.6420630"><speed>0.163</speed><ele>64.9</ele><time>2026-08-03T15:17:37Z</time></trkpt>
<trkpt lat="45.3845034" lon="-75.6420603"><speed>0.143</speed><ele>64.9</ele><time>2026-08-03T15:17:42Z</time></trkpt>
<trkpt lat="45.3845043" lon="-75.6420585"><speed>0.138</speed><ele>64.9</ele><time>2026-08-03T15:17:47Z</time></trkpt>
<trkpt lat="45.3845046" lon="-75.6420572"><speed>0.222</speed><ele>64.9</ele><time>2026-08-03T15:17:52Z</time></trkpt>
<trkpt lat="45.3845045" lon="-75.6420572"><speed>0.172</speed><ele>64.9</ele><time>2026-08-03T15:17:57Z</time></trkpt>
<trkpt lat="45.3845045" lon="-75.6420581"><speed>0.146</speed><ele>64.9</ele><time>2026-08-03T15:18:02Z</time></trkpt>
<trkpt lat="45.3845047" lon="-75.6420610"><speed>0.130</speed><ele>64.9</ele><time>2026-08-03T15:18:07Z</time></trkpt>
<trkpt lat="45.3845045" lon="-75.6420644"><speed>0.171</speed><ele>64.9</ele><time>2026-08-03T15:18:12Z</time></trkpt>
<trkpt lat="45.3845049" lon="-75.6420650"><speed>0.149</speed><ele>64.9</ele><time>2026-08-03T15:18:17Z</time></trkpt>
<trkpt lat="45.3845053" lon="-75.6420652"><speed>0.129</speed><ele>64.9</ele><time>2026-08-03T15:18:22Z</time></trkpt>
<trkpt lat="45.3845058" lon="-75.6420641"><speed>0.122</speed><ele>64.9</ele><time>2026-08-03T15:18:27Z</time></trkpt>
<trkpt lat="45.3845063" lon="-75.6420641"><speed>0.131</speed><ele>64.9</ele><time>2026-08-03T15:18:32Z</time></trkpt>
<trkpt lat="45.3845075" lon="-75.6420646"><speed>0.129</speed><ele>64.9</ele><time>2026-08-03T15:18:37Z</time></trkpt>
<trkpt lat="45.3845065" lon="-75.6420640"><speed>0.134</speed><ele>64.9</ele><time>2026-08-03T15:18:42Z</time></trkpt>
<trkpt lat="45.3845066" lon="-75.6420639"><speed>0.142</speed><ele>64.9</ele><time>2026-08-03T15:18:47Z</time></trkpt>
<trkpt lat="45.3845065" lon="-75.6420630"><speed>0.135</speed><ele>64.9</ele><time>2026-08-03T15:18:52Z</time></trkpt>
<trkpt lat="45.3845068" lon="-75.6420632"><speed>0.138</speed><ele>64.9</ele><time>2026-08-03T15:18:57Z</time></trkpt>
<trkpt lat="45.3845072" lon="-75.6420631"><speed>0.144</speed><ele>64.9</ele><time>2026-08-03T15:19:02Z</time></trkpt>
<trkpt lat="45.3845084" lon="-75.6420622"><speed>0.139</speed><ele>64.9</ele><time>2026-08-03T15:19:07Z</time></trkpt>
<trkpt lat="45.3845091" lon="-75.6420615"><speed>0.147</speed><ele>64.9</ele><time>2026-08-03T15:19:12Z</time></trkpt>
<trkpt lat="45.3845090" lon="-75.6420609"><speed>0.137</speed><ele>64.9</ele><time>2026-08-03T15:19:17Z</time></trkpt>
<trkpt lat="45.3845056" lon="-75.6420610"><speed>0.132</speed><ele>64.9</ele><time>2026-08-03T15:19:22Z</time></trkpt>
<trkpt lat="45.3845059" lon="-75.6420608"><speed>0.140</speed><ele>64.9</ele><time>2026-08-03T15:19:27Z</time></trkpt>
<trkpt lat="45.3845064" lon="-75.6420603"><speed>0.140</speed><ele>64.9</ele><time>2026-08-03T15:19:32Z</time></trkpt>
<trkpt lat="45.3845061" lon="-75.6420589"><speed>0.281</speed><ele>64.9</ele><time>2026-08-03T15:19:37Z</time></trkpt>
<trkpt lat="45.3845051" lon="-75.6420493"><speed>0.285</speed><ele>64.9</ele><time>2026-08-03T15:19:42Z</time></trkpt>
<trkpt lat="45.3845048" lon="-75.6420586"><speed>0.181</speed><ele>64.9</ele><time>2026-08-03T15:19:47Z</time></trkpt>
<trkpt lat="45.3845056" lon="-75.6420585"><speed>0.158</speed><ele>64.9</ele><time>2026-08-03T15:19:52Z</time></trkpt>
<trkpt lat="45.3845068" lon="-75.6420564"><speed>0.268</speed><ele>64.9</ele><time>2026-08-03T15:19:57Z</time></trkpt>
<trkpt lat="45.3845061" lon="-75.6420630"><speed>0.174</speed><ele>64.9</ele><time>2026-08-03T15:20:02Z</time></trkpt>
<trkpt lat="45.3845059" lon="-75.6420651"><speed>0.148</speed><ele>64.9</ele><time>2026-08-03T15:20:07Z</time></trkpt>
<trkpt lat="45.3845051" lon="-75.6420661"><speed>0.200</speed><ele>64.9</ele><time>2026-08-03T15:20:12Z</time></trkpt>
<trkpt lat="45.3845029" lon="-75.6420666"><speed>0.150</speed><ele>64.9</ele><time>2026-08-03T15:20:17Z</time></trkpt>
<trkpt lat="45.3845025" lon="-75.6420644"><speed>0.132</speed><ele>64.9</ele><time>2026-08-03T15:20:22Z</time></trkpt>
<trkpt lat="45.3845024" lon="-75.6420629"><speed>0.115</speed><ele>64.9</ele><time>2026-08-03T15:20:27Z</time></trkpt>
<trkpt lat="45.3844982" lon="-75.6420607"><speed>0.116</speed><ele>64.9</ele><time>2026-08-03T15:20:32Z</time></trkpt>
<trkpt lat="45.3844978" lon="-75.6420586"><speed>0.125</speed><ele>64.9</ele><time>2026-08-03T15:20:37Z</time></trkpt>
<trkpt lat="45.3844982" lon="-75.6420579"><speed>0.119</speed><ele>64.9</ele><time>2026-08-03T15:20:42Z</time></trkpt>
<trkpt lat="45.3844973" lon="-75.6420578"><speed>0.119</speed><ele>64.9</ele><time>2026-08-03T15:20:47Z</time></trkpt>
<trkpt lat="45.3844967" lon="-75.6420564"><speed>0.121</speed><ele>64.9</ele><time>2026-08-03T15:20:52Z</time></trkpt>
<trkpt lat="45.3844981" lon="-75.6420563"><speed>0.121</speed><ele>64.9</ele><time>2026-08-03T15:20:57Z</time></trkpt>
<trkpt lat="45.3844991" lon="-75.6420557"><speed>0.106</speed><ele>64.9</ele><time>2026-08-03T15:21:02Z</time></trkpt>
<trkpt lat="45.3844986" lon="-75.6420543"><speed>0.114</speed><ele>64.9</ele><time>2026-08-03T15:21:07Z</time></trkpt>
<trkpt lat="45.3845000" lon="-75.6420544"><speed>0.113</speed><ele>64.9</ele><time>2026-08-03T15:21:12Z</time></trkpt>
<trkpt lat="45.3844991" lon="-75.6420549"><speed>0.115</speed><ele>64.9</ele><time>2026-08-03T15:21:17Z</time></trkpt>
<trkpt lat="45.3844984" lon="-75.6420542"><speed>0.123</speed><ele>64.9</ele><time>2026-08-03T15:21:22Z</time></trkpt>
<trkpt lat="45.3844992" lon="-75.6420558"><speed>0.123</speed><ele>64.9</ele><time>2026-08-03T15:21:27Z</time></trkpt>
<trkpt lat="45.3844987" lon="-75.6420552"><speed>0.180</speed><ele>64.9</ele><time>2026-08-03T15:21:32Z</time></trkpt>
<trkpt lat="45.3844987" lon="-75.6420546"><speed>0.250</speed><ele>64.9</ele><time>2026-08-03T15:21:37Z</time></trkpt>
<trkpt lat="45.3844980" lon="-75.6420524"><speed>0.186</speed><ele>64.9</ele><time>2026-08-03T15:21:42Z</time></trkpt>
<trkpt lat="45.3844973" lon="-75.6420512"><speed>0.163</speed><ele>64.9</ele><time>2026-08-03T15:21:47Z</time></trkpt>
<trkpt lat="45.3844977" lon="-75.6420519"><speed>0.141</speed><ele>64.9</ele><time>2026-08-03T15:21:53Z</time></trkpt>
<trkpt lat="45.3844997" lon="-75.6420522"><speed>0.125</speed><ele>64.9</ele><time>2026-08-03T15:21:58Z</time></trkpt>
<trkpt lat="45.3844993" lon="-75.6420505"><speed>0.131</speed><ele>64.9</ele><time>2026-08-03T15:22:03Z</time></trkpt>
<trkpt lat="45.3844994" lon="-75.6420487"><speed>0.130</speed><ele>64.9</ele><time>2026-08-03T15:22:08Z</time></trkpt>
<trkpt lat="45.3844976" lon="-75.6420492"><speed>0.128</speed><ele>64.9</ele><time>2026-08-03T15:22:13Z</time></trkpt>
<trkpt lat="45.3844966" lon="-75.6420481"><speed>0.156</speed><ele>64.9</ele><time>2026-08-03T15:22:19Z</time></trkpt>
<trkpt lat="45.3844927" lon="-75.6420464"><speed>0.096</speed><ele>64.6</ele><time>2026-08-03T15:22:24Z</time></trkpt>
<trkpt lat="45.3844914" lon="-75.6420524"><speed>0.077</speed><ele>64.9</ele><time>2026-08-03T15:22:29Z</time></trkpt>
<trkpt lat="45.3844893" lon="-75.6420549"><speed>0.078</speed><ele>64.9</ele><time>2026-08-03T15:22:34Z</time></trkpt>
<trkpt lat="45.3844886" lon="-75.6420569"><speed>0.083</speed><ele>64.9</ele><time>2026-08-03T15:22:39Z</time></trkpt>
<trkpt lat="45.3844880" lon="-75.6420592"><speed>0.083</speed><ele>64.9</ele><time>2026-08-03T15:22:44Z</time></trkpt>
<trkpt lat="45.3844869" lon="-75.6420588"><speed>0.092</speed><ele>64.9</ele><time>2026-08-03T15:22:49Z</time></trkpt>
<trkpt lat="45.3844879" lon="-75.6420595"><speed>0.085</speed><ele>64.9</ele><time>2026-08-03T15:22:54Z</time></trkpt>
<trkpt lat="45.3844880" lon="-75.6420595"><speed>0.077</speed><ele>64.9</ele><time>2026-08-03T15:22:59Z</time></trkpt>
<trkpt lat="45.3844871" lon="-75.6420595"><speed>0.083</speed><ele>64.9</ele><time>2026-08-03T15:23:04Z</time></trkpt>
<trkpt lat="45.3844871" lon="-75.6420604"><speed>0.088</speed><ele>64.9</ele><time>2026-08-03T15:23:09Z</time></trkpt>
<trkpt lat="45.3844872" lon="-75.6420609"><speed>0.105</speed><ele>64.9</ele><time>2026-08-03T15:23:14Z</time></trkpt>
<trkpt lat="45.3844873" lon="-75.6420600"><speed>0.120</speed><ele>64.9</ele><time>2026-08-03T15:23:19Z</time></trkpt>
<trkpt lat="45.3844884" lon="-75.6420597"><speed>0.117</speed><ele>64.9</ele><time>2026-08-03T15:23:24Z</time></trkpt>
<trkpt lat="45.3844890" lon="-75.6420592"><speed>0.113</speed><ele>64.9</ele><time>2026-08-03T15:23:29Z</time></trkpt>
<trkpt lat="45.3844891" lon="-75.6420585"><speed>0.198</speed><ele>64.9</ele><time>2026-08-03T15:23:34Z</time></trkpt>
<trkpt lat="45.3844900" lon="-75.6420596"><speed>0.159</speed><ele>64.9</ele><time>2026-08-03T15:23:39Z</time></trkpt>
<trkpt lat="45.3844892" lon="-75.6420589"><speed>0.141</speed><ele>64.9</ele><time>2026-08-03T15:23:44Z</time></trkpt>
<trkpt lat="45.3844883" lon="-75.6420533"><speed>0.128</speed><ele>64.9</ele><time>2026-08-03T15:23:49Z</time></trkpt>
<trkpt lat="45.3844886" lon="-75.6420542"><speed>0.121</speed><ele>64.9</ele><time>2026-08-03T15:23:54Z</time></trkpt>
<trkpt lat="45.3844883" lon="-75.6420536"><speed>0.119</speed><ele>64.9</ele><time>2026-08-03T15:23:59Z</time></trkpt>
<trkpt lat="45.3844915" lon="-75.6420564"><speed>0.118</speed><ele>64.9</ele><time>2026-08-03T15:24:04Z</time></trkpt>
<trkpt lat="45.3844918" lon="-75.6420549"><speed>0.649</speed><ele>64.9</ele><time>2026-08-03T15:24:09Z</time></trkpt>
<trkpt lat="45.3844903" lon="-75.6420566"><speed>0.171</speed><ele>64.9</ele><time>2026-08-03T15:24:14Z</time></trkpt>
<trkpt lat="45.3844938" lon="-75.6420594"><speed>0.124</speed><ele>64.9</ele><time>2026-08-03T15:24:19Z</time></trkpt>
<trkpt lat="45.3844937" lon="-75.6420602"><speed>0.109</speed><ele>64.9</ele><time>2026-08-03T15:24:24Z</time></trkpt>
<trkpt lat="45.3844929" lon="-75.6420577"><speed>0.087</speed><ele>64.9</ele><time>2026-08-03T15:24:29Z</time></trkpt>
<trkpt lat="45.3844914" lon="-75.6420551"><speed>0.082</speed><ele>64.9</ele><time>2026-08-03T15:24:34Z</time></trkpt>
<trkpt lat="45.3844906" lon="-75.6420539"><speed>0.080</speed><ele>64.9</ele><time>2026-08-03T15:24:39Z</time></trkpt>
<trkpt lat="45.3844902" lon="-75.6420525"><speed>0.079</speed><ele>64.9</ele><time>2026-08-03T15:24:44Z</time></trkpt>
<trkpt lat="45.3844893" lon="-75.6420513"><speed>0.082</speed><ele>64.9</ele><time>2026-08-03T15:24:49Z</time></trkpt>
<trkpt lat="45.3844888" lon="-75.6420513"><speed>0.074</speed><ele>64.9</ele><time>2026-08-03T15:24:54Z</time></trkpt>
<trkpt lat="45.3844878" lon="-75.6420508"><speed>0.070</speed><ele>64.9</ele><time>2026-08-03T15:24:59Z</time></trkpt>
<trkpt lat="45.3844873" lon="-75.6420509"><speed>0.074</speed><ele>64.9</ele><time>2026-08-03T15:25:04Z</time></trkpt>
<trkpt lat="45.3844884" lon="-75.6420515"><speed>0.079</speed><ele>64.9</ele><time>2026-08-03T15:25:09Z</time></trkpt>
<trkpt lat="45.3844879" lon="-75.6420514"><speed>0.081</speed><ele>64.9</ele><time>2026-08-03T15:25:14Z</time></trkpt>
<trkpt lat="45.3844880" lon="-75.6420517"><speed>0.083</speed><ele>64.9</ele><time>2026-08-03T15:25:19Z</time></trkpt>
<trkpt lat="45.3844878" lon="-75.6420516"><speed>0.087</speed><ele>64.9</ele><time>2026-08-03T15:25:24Z</time></trkpt>
<trkpt lat="45.3844878" lon="-75.6420510"><speed>0.082</speed><ele>64.9</ele><time>2026-08-03T15:25:29Z</time></trkpt>
<trkpt lat="45.3844881" lon="-75.6420513"><speed>0.079</speed><ele>64.9</ele><time>2026-08-03T15:25:34Z</time></trkpt>
<trkpt lat="45.3844886" lon="-75.6420522"><speed>0.085</speed><ele>64.9</ele><time>2026-08-03T15:25:39Z</time></trkpt>
<trkpt lat="45.3844887" lon="-75.6420518"><speed>0.103</speed><ele>64.9</ele><time>2026-08-03T15:25:44Z</time></trkpt>
<trkpt lat="45.3844899" lon="-75.6420526"><speed>0.110</speed><ele>64.9</ele><time>2026-08-03T15:25:49Z</time></trkpt>
<trkpt lat="45.3844909" lon="-75.6420530"><speed>0.120</speed><ele>64.9</ele><time>2026-08-03T15:25:54Z</time></trkpt>
<trkpt lat="45.3844915" lon="-75.6420536"><speed>0.133</speed><ele>64.9</ele><time>2026-08-03T15:25:59Z</time></trkpt>
<trkpt lat="45.3844932" lon="-75.6420538"><speed>0.156</speed><ele>64.9</ele><time>2026-08-03T15:26:04Z</time></trkpt>
<trkpt lat="45.3844942" lon="-75.6420537"><speed>0.243</speed><ele>64.9</ele><time>2026-08-03T15:26:09Z</time></trkpt>
<trkpt lat="45.3844947" lon="-75.6420543"><speed>0.230</speed><ele>64.9</ele><time>2026-08-03T15:26:14Z</time></trkpt>
<trkpt lat="45.3844950" lon="-75.6420572"><speed>0.141</speed><ele>64.9</ele><time>2026-08-03T15:26:19Z</time></trkpt>
<trkpt lat="45.3844947" lon="-75.6420566"><speed>0.121</speed><ele>64.9</ele><time>2026-08-03T15:26:24Z</time></trkpt>
<trkpt lat="45.3844951" lon="-75.6420578"><speed>0.126</speed><ele>64.9</ele><time>2026-08-03T15:26:29Z</time></trkpt>
<trkpt lat="45.3844961" lon="-75.6420577"><speed>0.127</speed><ele>64.9</ele><time>2026-08-03T15:26:34Z</time></trkpt>
<trkpt lat="45.3844961" lon="-75.6420576"><speed>0.133</speed><ele>64.9</ele><time>2026-08-03T15:26:39Z</time></trkpt>
<trkpt lat="45.3844966" lon="-75.6420568"><speed>0.131</speed><ele>64.6</ele><time>2026-08-03T15:26:44Z</time></trkpt>
<trkpt lat="45.3844967" lon="-75.6420564"><speed>0.126</speed><ele>64.9</ele><time>2026-08-03T15:26:49Z</time></trkpt>
<trkpt lat="45.3844965" lon="-75.6420552"><speed>0.130</speed><ele>64.9</ele><time>2026-08-03T15:26:54Z</time></trkpt>
<trkpt lat="45.3844975" lon="-75.6420541"><speed>0.122</speed><ele>64.6</ele><time>2026-08-03T15:26:59Z</time></trkpt>
<trkpt lat="45.3844964" lon="-75.6420501"><speed>0.239</speed><ele>64.6</ele><time>2026-08-03T15:27:04Z</time></trkpt>
<trkpt lat="45.3844955" lon="-75.6420504"><speed>0.182</speed><ele>64.6</ele><time>2026-08-03T15:27:09Z</time></trkpt>
<trkpt lat="45.3844964" lon="-75.6420536"><speed>0.143</speed><ele>64.9</ele><time>2026-08-03T15:27:14Z</time></trkpt>
<trkpt lat="45.3844963" lon="-75.6420541"><speed>0.132</speed><ele>64.9</ele><time>2026-08-03T15:27:19Z</time></trkpt>
<trkpt lat="45.3844974" lon="-75.6420568"><speed>0.125</speed><ele>64.9</ele><time>2026-08-03T15:27:24Z</time></trkpt>
<trkpt lat="45.3844996" lon="-75.6420570"><speed>0.120</speed><ele>64.9</ele><time>2026-08-03T15:27:29Z</time></trkpt>
<trkpt lat="45.3845002" lon="-75.6420574"><speed>0.127</speed><ele>64.9</ele><time>2026-08-03T15:27:34Z</time></trkpt>
<trkpt lat="45.3844999" lon="-75.6420514"><speed>0.130</speed><ele>64.6</ele><time>2026-08-03T15:27:39Z</time></trkpt>
<trkpt lat="45.3844996" lon="-75.6420467"><speed>0.135</speed><ele>64.9</ele><time>2026-08-03T15:27:44Z</time></trkpt>
<trkpt lat="45.3844997" lon="-75.6420468"><speed>0.129</speed><ele>64.9</ele><time>2026-08-03T15:27:49Z</time></trkpt>
<trkpt lat="45.3844998" lon="-75.6420483"><speed>0.231</speed><ele>64.9</ele><time>2026-08-03T15:27:54Z</time></trkpt>
<trkpt lat="45.3844990" lon="-75.6420373"><speed>0.389</speed><ele>64.6</ele><time>2026-08-03T15:27:59Z</time></trkpt>
<trkpt lat="45.3844994" lon="-75.6420369"><speed>0.180</speed><ele>64.6</ele><time>2026-08-03T15:28:04Z</time></trkpt>
<trkpt lat="45.3844999" lon="-75.6420407"><speed>0.132</speed><ele>64.9</ele><time>2026-08-03T15:28:09Z</time></trkpt>
<trkpt lat="45.3845008" lon="-75.6420430"><speed>0.174</speed><ele>64.9</ele><time>2026-08-03T15:28:14Z</time></trkpt>
<trkpt lat="45.3845000" lon="-75.6420449"><speed>0.151</speed><ele>64.9</ele><time>2026-08-03T15:28:19Z</time></trkpt>
<trkpt lat="45.3845004" lon="-75.6420479"><speed>0.156</speed><ele>64.9</ele><time>2026-08-03T15:28:24Z</time></trkpt>
<trkpt lat="45.3844997" lon="-75.6420424"><speed>0.139</speed><ele>64.6</ele><time>2026-08-03T15:28:29Z</time></trkpt>
<trkpt lat="45.3844998" lon="-75.6420438"><speed>0.139</speed><ele>64.6</ele><time>2026-08-03T15:28:34Z</time></trkpt>
<trkpt lat="45.3845002" lon="-75.6420468"><speed>0.126</speed><ele>64.6</ele><time>2026-08-03T15:28:39Z</time></trkpt>
<trkpt lat="45.3845011" lon="-75.6420467"><speed>0.413</speed><ele>64.6</ele><time>2026-08-03T15:28:44Z</time></trkpt>
<trkpt lat="45.3845023" lon="-75.6420533"><speed>0.173</speed><ele>64.9</ele><time>2026-08-03T15:28:49Z</time></trkpt>
<trkpt lat="45.3845019" lon="-75.6420539"><speed>0.137</speed><ele>64.9</ele><time>2026-08-03T15:28:54Z</time></trkpt>
<trkpt lat="45.3845005" lon="-75.6420552"><speed>0.127</speed><ele>64.9</ele><time>2026-08-03T15:28:59Z</time></trkpt>
<trkpt lat="45.3844992" lon="-75.6420589"><speed>0.145</speed><ele>64.9</ele><time>2026-08-03T15:29:04Z</time></trkpt>
<trkpt lat="45.3844990" lon="-75.6420584"><speed>0.182</speed><ele>64.9</ele><time>2026-08-03T15:29:09Z</time></trkpt>
<trkpt lat="45.3844982" lon="-75.6420590"><speed>0.155</speed><ele>64.9</ele><time>2026-08-03T15:29:14Z</time></trkpt>
<trkpt lat="45.3844986" lon="-75.6420588"><speed>0.129</speed><ele>64.6</ele><time>2026-08-03T15:29:19Z</time></trkpt>
<trkpt lat="45.3844984" lon="-75.6420594"><speed>0.122</speed><ele>64.9</ele><time>2026-08-03T15:29:24Z</time></trkpt>
<trkpt lat="45.3844980" lon="-75.6420592"><speed>0.121</speed><ele>64.9</ele><time>2026-08-03T15:29:29Z</time></trkpt>
<trkpt lat="45.3844977" lon="-75.6420588"><speed>0.119</speed><ele>64.6</ele><time>2026-08-03T15:29:34Z</time></trkpt>
<trkpt lat="45.3844974" lon="-75.6420583"><speed>0.122</speed><ele>64.6</ele><time>2026-08-03T15:29:39Z</time></trkpt>
<trkpt lat="45.3844976" lon="-75.6420576"><speed>0.123</speed><ele>64.9</ele><time>2026-08-03T15:29:44Z</time></trkpt>
<trkpt lat="45.3844976" lon="-75.6420559"><speed>0.125</speed><ele>64.6</ele><time>2026-08-03T15:29:49Z</time></trkpt>
<trkpt lat="45.3844970" lon="-75.6420559"><speed>0.129</speed><ele>64.6</ele><time>2026-08-03T15:29:54Z</time></trkpt>
</trkseg></trk></gpx>